name,lat,lon,address,region,adm_zone
Абсолют Банк,55.770146,37.622523,"г. Москва, бул. Цветной, д. 18",Мещанский,ЦАО
Абсолют Банк,55.775655,37.683621,"г. Москва, ул. Бакунинская, д. 23/41",Басманный,ЦАО
Абсолют Банк,55.536639,37.530486,"г. Москва, ул. Южнобутовская, д. 61",Южное Бутово,ЮЗАО
Абсолют Банк,55.73414,37.664015,"г. Москва, ул. Воронцовская, д. 35 Б, корп. 2",Таганский,ЦАО
Абсолют Банк,55.767246,37.653245,"г. Москва, ул. Садовая-Черногрязская, д. 3 Б, стр. 1",Басманный,ЦАО
Абсолют Банк,55.744621,37.545683,"г. Москва, просп. Кутузовский, д. 24",Дорогомилово,ЗАО
Абсолют Банк,55.787046,37.560865,"г. Москва, просп. Ленинградский, д. 33, корп. 3",Беговой,САО
Абсолют Банк,55.650553,37.745655,"г. Москва, ул. Люблинская, д. 165",Марьино,ЮВАО
Абсолют Банк,55.731096,37.634509,"г. Москва, ул. Валовая, д. 2—4/44, стр. 1",Замоскворечье,ЦАО
Абсолют Банк,55.789273,37.678452,"г. Москва, пл. Сокольническая, д. 4, корп. 1—2",Сокольники,ВАО
Абсолют Банк,55.770473,37.623939,"г. Москва, пер. Малый Сухаревский, д. 7",Мещанский,ЦАО
Авангард,55.741263,37.614101,"г. Москва, ул. Большая Якиманка, д. 1",Якиманка,ЦАО
Авангард,55.803569,37.61839,"г. Москва, ул. Шереметьевская, д. 20",Марьина Роща,СВАО
Авангард,55.732233,37.6296,"г. Москва, 3-й Монетчиковский пер., д. 11, стр. 1",Замоскворечье,ЦАО
Авангард,55.863356,37.601546,"г. Москва, ул. Декабристов, д. 12",Отрадное,СВАО
Авангард,55.737633,37.618417,"г. Москва, ул. Большая Полянка, д. 24/2, стр. 4",Якиманка,ЦАО
Авангард,55.809469,37.464571,"г. Москва, ул. Щукинская, д. 42",Щукино,СЗАО
Авангард,55.641031,37.530346,"г. Москва, ул. Миклухо-Маклая, д. 32а",Коньково,ЮЗАО
Авангард,55.747363,37.707098,"г. Москва, ш. Энтузиастов, д. 12, корп. 2",Лефортово,ЮВАО
Авангард,55.788576,37.678685,"г. Москва, ул. Русаковская, д. 31",Сокольники,ВАО
Авангард,55.637741,37.75759,"г. Москва, ул. Ключевая, д. 6, корп. 1",Братеево,ЮАО
Авангард,55.863856,37.54568,"г. Москва, ш. Дмитровское, д. 89",Западное Дегунино,САО
Авангард,55.857236,37.431909,"г. Москва, ул. Героев Панфиловцев, д. 7",Северное Тушино,СЗАО
Авангард,55.84024,37.492024,"г. Москва, ш. Головинское, д. 5, корп. 1",Головинский,САО
Авангард,55.624632,37.709297,"г. Москва, ш. Каширское, д. 80",Орехово-Борисово Северное,ЮАО
Авангард,55.743649,37.508122,"г. Москва, просп. Багратионовский, д. 5",Филёвский Парк,ЗАО
Авангард,55.78169,37.705186,"г. Москва, ул. Большая Семеновская, д. 20, стр. 1",Соколиная Гора,ВАО
Авангард,55.653314,37.64613,"г. Москва, ш. Каширское, д. 26",Москворечье-Сабурово,ЮАО
Авангард,55.685804,37.854028,"г. Москва, ул. Генерала Кузнецова, д. 22",Выхино-Жулебино,ЮВАО
Авангард,55.653644,37.620698,"г. Москва, ш. Варшавское, д. 87 Б",Нагорный,ЮАО
Авангард,55.710692,37.675109,"г. Москва, ул. 7-я Кожуховская, д. 9",Южнопортовый,ЮВАО
Авангард,55.865579,37.704492,"г. Москва, ш. Ярославское, д. 54",Ярославский,СВАО
Авангард,55.695875,37.664905,"г. Москва, просп. Андропова, д. 8",Даниловский,ЮАО
Авангард,55.630655,37.658545,"г. Москва, просп. Пролетарский, д. 30",Царицыно,ЮАО
Авангард,55.803761,37.800293,"г. Москва, бул. Сиреневый, д. 31",Северное Измайлово,ВАО
Авангард,55.885697,37.602265,"г. Москва, ул. Пришвина, д. 22",Бибирево,СВАО
Авангард,55.838032,37.576948,"г. Москва, Локомотивный пр-д, д. 4",Тимирязевский,САО
Авангард,55.685516,37.62169,"г. Москва, ш. Варшавское, д. 26, стр. 10",Нагорный,ЮАО
Авангард,55.81616,37.574573,"г. Москва, ш. Дмитровское, д. 11, стр. 1",Тимирязевский,САО
Авангард,55.777488,37.643191,"г. Москва, пер. Грохольский, д. 29, корп. 1",Красносельский,ЦАО
Авангард,55.722616,37.560342,"г. Москва, ул. Усачева, д. 35, стр. 1",Хамовники,ЦАО
Авангард,55.731927,37.611638,"г. Москва, ул. Большая Якиманка, д. 52",Якиманка,ЦАО
Авангард,55.678562,37.781964,"г. Москва, бул. Тихорецкий, д. 1, стр. 70",Люблино,ЮВАО
Авангард,55.70023,37.506158,"г. Москва, просп. Мичуринский, д. 9, корп. 3",Раменки,ЗАО
Авангард,55.815484,37.738076,"г. Москва, ш. Открытое, д. 9, стр. 1",Богородское,ВАО
Авангард,55.611971,37.537706,"г. Москва, бул. Литовский, д. 22",Ясенево,ЮЗАО
Авангард,55.901981,37.585629,"г. Москва, ш. Алтуфьевское, д. 95",Лианозово,СВАО
Авангард,55.738065,37.846616,"г. Москва, ул. Суздальская, д. 12а",Новокосино,ВАО
Авангард,55.734655,37.830852,"г. Москва, ул. Вешняковская, д. 17а, стр. 1",Вешняки,ВАО
Авангард,55.641217,37.359743,"г. Москва, ш. Боровское, д. 35",Ново-Переделкино,ЗАО
Авангард,55.641347,37.656,"г. Москва, просп. Пролетарский, д. 19, корп. 1",Москворечье-Сабурово,ЮАО
Авангард,55.547056,37.543303,"г. Москва, ул. Адмирала Лазарева, д. 2",Южное Бутово,ЮЗАО
Авангард,55.586414,37.647813,"г. Москва, ул. Медынская, д. 7",Бирюлёво Западное,ЮАО
Авангард,55.893844,37.524982,"г. Москва, ул. Лобненская, д. 14",Дмитровский,САО
Авангард,55.805816,37.514955,"г. Москва, просп. Ленинградский, д. 76а",Аэропорт,САО
Авангард,55.822541,37.823413,"г. Москва, ул. Хабаровская, д. 15",Гольяново,ВАО
Авангард,55.619624,37.752274,"г. Москва, ул. Кустанайская, д. 6",Зябликово,ЮАО
Авангард,55.682738,37.723018,"г. Москва, ул. Шоссейная, д. 34, стр. 1",Печатники,ЮВАО
Авангард,55.647315,37.412014,"г. Москва, просп. Солнцевский, д. 21",Солнцево,ЗАО
Авангард,55.766313,37.622345,"г. Москва, пл. Трубная, д. 2",Мещанский,ЦАО
Авангард,55.898474,37.629075,"г. Москва, МКАД, 87-й км, д. 8",Бибирево,СВАО
Авангард,55.793137,37.559961,"г. Москва, ал. Театральная, д. 3, стр. 1",Аэропорт,САО
Авангард,55.710119,37.62094,"г. Москва, ул. Большая Тульская, д. 2",Даниловский,ЮАО
Авангард,55.767116,37.829049,"г. Москва, ул. Саянская д. 8а",Ивановское,ВАО
Авангард,55.669632,37.552865,"г. Москва, ул. Профсоюзная, д. 56",Обручевский,ЮЗАО
Авангард,55.683141,37.549177,"г. Москва, ул. Вавилова, д. 66",Гагаринский,ЮЗАО
Авангард,55.733956,37.667253,"г. Москва, ул. Марксистская, д. 38, стр. 1",Таганский,ЦАО
Авангард,55.852877,37.58547,"г. Москва, ш. Алтуфьевское, д. 8",Отрадное,СВАО
Авангард,55.707084,37.591794,"г. Москва, ул. Вавилова, д. 3",Донской,ЮАО
Авангард,55.658708,37.741703,"г. Москва, ул. Люблинская, д. 153",Марьино,ЮВАО
Авангард,55.766459,37.381288,"г. Москва, ш. Рублевское, д. 62",Крылатское,ЗАО
Авангард,55.618274,37.507213,"г. Москва, ул. Профсоюзная, д. 129а",Ясенево,ЮЗАО
Авангард,55.789604,37.752197,"г. Москва, ш. Измайловское, д. 71а",Измайлово,ВАО
Авангард,55.630109,37.474571,"г. Москва, ул. Академика Варги, д. 8, корп. 1",Тёплый Стан,ЮЗАО
Авангард,55.718197,37.78407,"г. Москва, просп. Рязанский, д. 30, корп. 2",Рязанский,ЮВАО
Авангард,55.750783,37.820341,"г. Москва, просп. Зеленый, д. 62а",Новогиреево,ВАО
Авангард,55.625101,37.761014,"г. Москва, ш. Бесединское, вл. 15",Братеево,ЮАО
Авангард,55.853208,37.351378,"г. Москва, ул. Митинская, д. 53",Митино,СЗАО
Авангард,55.761611,37.568804,"г. Москва, ул. Красная Пресня, д. 23, корп. Б, стр. 1",Пресненский,ЦАО
Авангард,55.877371,37.559165,"г. Москва, ул. Дубнинская, д. 30а, стр. 1",Восточное Дегунино,САО
Авангард,55.887544,37.678371,"г. Москва, ул. Широкая, д. 31",Северное Медведково,СВАО
Авангард,55.709988,37.744304,"г. Москва, просп. Волгоградский, д. 73, стр. 1",Текстильщики,ЮВАО
Авангард,55.655406,37.572013,"г. Москва, ул. Каховка, д. 27",Зюзино,ЮЗАО
Авангард,55.885039,37.407275,"г. Москва, ш. Новокуркинское, д. 1",Куркино,СЗАО
Авангард,55.869291,37.663098,"г. Москва, ул. Енисейская, д. 19, корп. 1",Бабушкинский,СВАО
Авангард,55.663788,37.486104,"г. Москва, просп. Вернадского, д. 105, корп. 4",Тропарёво-Никулино,ЗАО
Авангард,55.594593,37.599216,"г. Москва, ш. Варшавское, д. 152а",Чертаново Южное,ЮАО
Авангард,55.729765,37.732295,"г. Москва, просп. Рязанский, д. 2, корп. 2",Нижегородский,ЮВАО
Авангард,55.609742,37.71991,"г. Москва, бул. Ореховый, д. 14, корп. 3",Орехово-Борисово Южное,ЮАО
Авангард,55.683888,37.491044,"г. Москва, ул. Удальцова, д. 42",Проспект Вернадского,ЗАО
Автоградбанк,55.787776,37.633052,"г. Москва, ул. Гиляровского, д. 62",Мещанский,ЦАО
Автоторгбанк,55.768674,37.526475,"г. Москва, ул. 1-я Магистральная, д. 13, стр. 2",Хорошёвский,САО
Автоторгбанк,55.79473,37.650874,"г. Москва, ул. Сокольнический Вал, д. 1л",Сокольники,ВАО
Автоторгбанк,55.82831,37.407571,"г. Москва, ш. Волоколамское, д. 93",Покровское-Стрешнево,СЗАО
Автоторгбанк,55.907216,37.550641,"г. Москва, ул. Псковская, д. 13",Лианозово,СВАО
Автоторгбанк,55.788181,37.386851,"г. Москва, ул. Маршала Прошлякова, д. 13",Строгино,СЗАО
Автоторгбанк,55.841713,37.435964,"г. Москва, Цветочный пр-д, д. 4",Южное Тушино,СЗАО
Агора,55.775398,37.622226,"г. Москва, пер. 2-й Троицкий, д. 3",Мещанский,ЦАО
Агора,55.659607,37.645564,"г. Москва, ш. Каширское, д. 23, стр. 3",Нагатино-Садовники,ЮАО
Агропромкредит,55.738992,37.578576,"г. Москва, ул. Бурденко, д. 22",Хамовники,ЦАО
Агропромкредит,55.768613,37.633661,"г. Москва, пер. Просвирин, д. 4",Красносельский,ЦАО
Агророс,55.781157,37.667043,"г. Москва, ул. Краснопрудная, д. 13",Красносельский,ЦАО
Агророс,55.750082,37.787498,"г. Москва, просп. Зеленый, д. 20",Новогиреево,ВАО
Азиатско-Тихоокеанский Банк,55.742627,37.658736,"г. Москва, ул. Александра Солженицына, д. 8, стр. 1",Таганский,ЦАО
Азиатско-Тихоокеанский Банк,55.754628,37.652997,"г. Москва, пер. Подсосенский, д. 30, стр. 3",Басманный,ЦАО
Азиатско-Тихоокеанский Банк,55.759185,37.604683,"г. Москва, пер. Вознесенский, д. 11, стр. 1",Пресненский,ЦАО
Азия-Инвест Банк,55.73437,37.621563,"г. Москва, пер. 2-й Казачий, д. 3, стр. 1",Якиманка,ЦАО
АйСиБиСи Банк,55.750516,37.652969,"г. Москва, наб. Серебряническая, д. 29",Таганский,ЦАО
Ак Барс,55.724728,37.643938,"г. Москва, ул. Летниковская, д. 10, стр. 1",Замоскворечье,ЦАО
Ак Барс,55.862035,37.604457,"г. Москва, ул. Хачатуряна, д. 20",Отрадное,СВАО
Ак Барс,55.737372,37.663619,"г. Москва, ул. Марксистская, д. 5, стр. 1",Таганский,ЦАО
Ак Барс,55.769805,37.629617,"г. Москва, пер. Последний, д. 24",Мещанский,ЦАО
Ак Барс,55.854868,37.471414,"г. Москва, ш. Ленинградское, д. 92/1",Левобережный,САО
Акибанк,55.786627,37.641063,"г. Москва, ул. Большая Переяславская, д. 46, стр. 2",Мещанский,ЦАО
Александровский,55.753776,37.662126,"г. Москва, пер. 2-й Сыромятнический, д. 1",Таганский,ЦАО
Алеф-Банк,55.67459,37.503468,"г. Москва, просп. Вернадского, д. 41",Проспект Вернадского,ЗАО
Алеф-Банк,55.73221,37.435422,"г. Москва, ул. Молдавская, д. 5",Кунцево,ЗАО
Альфа-Банк,55.774829,37.650531,"г. Москва, ул. Каланчевская, д. 27",Красносельский,ЦАО
Альфа-Банк,55.76155,37.573296,"г. Москва, ул. Красная Пресня, д. 12, стр. 1",Пресненский,ЦАО
Альфа-Банк,55.869846,37.660127,"г. Москва, ул. Менжинского, д. 23, корп. 1",Бабушкинский,СВАО
Альфа-Банк,55.773019,37.676951,"г. Москва, ул. Нижняя Красносельская, д. 45/17",Басманный,ЦАО
Альфа-Банк,55.887446,37.402602,"г. Москва, ул. Воротынская, д. 2",Куркино,СЗАО
Альфа-Банк,55.611133,37.724342,"г. Москва, ул. Генерала Белова, 35",Орехово-Борисово Южное,ЮАО
Альфа-Банк,55.760717,37.596174,"г. Москва, ул. Малая Бронная, д. 15 Б",Пресненский,ЦАО
Альфа-Банк,55.757805,37.637401,"г. Москва, ул. Маросейка, д. 10/1, стр. 1",Басманный,ЦАО
Альфа-Банк,55.769019,37.598274,"г. Москва, ул. Тверская, д. 28, корп. 1",Тверской,ЦАО
Альфа-Банк,55.741738,37.416691,"г. Москва, ул. Ярцевская, д. 27, корп. 1",Кунцево,ЗАО
Альфа-Банк,55.701819,37.931735,"г. Москва, ул. Покровская, д. 20",Некрасовка,ЮВАО
Альфа-Банк,55.760717,37.596174,"г. Москва, ул. Малая Бронная, д. 15 Б",Пресненский,ЦАО
Альфа-Банк,55.657604,37.481673,"г. Москва, просп. Вернадского, д. 119",Тропарёво-Никулино,ЗАО
Альфа-Банк,55.862141,37.436634,"г. Москва, ул. Планерная, д. 12, корп. 1",Северное Тушино,СЗАО
Альфа-Банк,55.692861,37.66221,"г. Москва, просп. Андропова, д. 18, корп. 6",Даниловский,ЮАО
Альфа-Банк,55.794963,37.798727,"г. Москва, ул. 9-я Парковая, д. 23",Измайлово,ВАО
Альфа-Банк,55.806179,37.581352,"г. Москва, ул. Бутырская, д. 89",Савёловский,САО
Альфа-Банк,55.887393,37.402428,"г. Москва, ул. Воротынская, д. 2",Куркино,СЗАО
Альфа-Банк,55.611127,37.7243,"г. Москва, ул. Генерала Белова, 35",Орехово-Борисово Южное,ЮАО
Альфа-Банк,55.777436,37.601919,"г. Москва, ул. Долгоруковская, д. 31, стр. 32",Тверской,ЦАО
Альфа-Банк,55.820294,37.496115,"г. Москва, ш. Ленинградское, д. 15",Войковский,САО
Альфа-Банк,55.741738,37.416691,"г. Москва, ул. Ярцевская, д. 27, корп. 1",Кунцево,ЗАО
Альфа-Банк,55.76948,37.622749,"г. Москва, бул. Цветной, д. 16/1",Мещанский,ЦАО
Альфа-Банк,55.771459,37.583131,"г. Москва, ул. Большая Грузинская, д. 57, стр. 1",Пресненский,ЦАО
Альфа-Банк,55.764394,37.556146,"г. Москва, ш. Звенигородское, д. 18/20, корп. 1",Пресненский,ЦАО
Альфа-Банк,55.726086,37.631002,"г. Москва, ул. Щипок, д. 11, стр. 1",Замоскворечье,ЦАО
Альфа-Банк,55.7427,37.587999,"г. Москва, пер. Денежный, д. 3, стр. 1",Хамовники,ЦАО
Альфа-Банк,55.733875,37.624532,"г. Москва, ул. Большая Ордынка, д. 49, стр. 1",Замоскворечье,ЦАО
Альфа-Банк,55.769869,37.570833,"г. Москва, пер. Большой Тишинский, д. 38",Пресненский,ЦАО
Альфа-Банк,55.792441,37.527414,"г. Москва, ул. Авиаконструктора Микояна, д. 12",Хорошёвский,САО
Альфа-Банк,55.708507,37.662307,"г. Москва, ул. Автозаводская, д. 5",Даниловский,ЮАО
Альфа-Банк,55.708347,37.661588,"г. Москва, ул. Автозаводская, д. 5",Даниловский,ЮАО
Альфа-Банк,55.774845,37.650568,"г. Москва, ул. Каланчевская, д. 27",Красносельский,ЦАО
Альфа-Банк,55.806164,37.635534,"г. Москва, просп. Мира, д. 91, корп. 2",Останкинский,СВАО
Альфа-Банк,55.89865,37.59143,"г. Москва, ул. Лескова, д. 3г",Бибирево,СВАО
Альфа-Банк,55.583203,37.595498,"г. Москва, ш. Варшавское, д. 160",Чертаново Южное,ЮАО
Альфа-Банк,55.582998,37.595435,"г. Москва, ш. Варшавское, д. 160",Чертаново Южное,ЮАО
Альфа-Банк,55.862747,37.608226,"г. Москва, ул. Декабристов, д. 20, корп. 2",Отрадное,СВАО
Альфа-Банк,55.639732,37.606848,"г. Москва, ул. Чертановская, д. 1в, корп. 1",Чертаново Северное,ЮАО
Альфа-Банк,55.805198,37.516452,"г. Москва, просп. Ленинградский, д. 74, корп. 1",Аэропорт,САО
Альфа-Банк,55.641953,37.524458,"г. Москва, ул. Профсоюзная, д. 104",Коньково,ЮЗАО
Альфа-Банк,55.709482,37.620911,"г. Москва, ул. Большая Тульская, д. 2",Даниловский,ЮАО
Альфа-Банк,55.657806,37.747664,"г. Москва, ул. Перерва, д. 56/2",Марьино,ЮВАО
Альфа-Банк,55.548383,37.553235,"г. Москва, бул. Адмирала Ушакова, д. 2",Южное Бутово,ЮЗАО
Альфа-Банк,55.566834,37.576181,"г. Москва, бул. Дмитрия Донского, д. 11",Северное Бутово,ЮЗАО
Альфа-Банк,55.566869,37.576217,"г. Москва, бул. Дмитрия Донского, д. 11",Северное Бутово,ЮЗАО
Альфа-Банк,55.654302,37.618872,"г. Москва, ш. Варшавское, д. 76, корп. 1",Нагорный,ЮАО
Альфа-Банк,55.694197,37.532943,"г. Москва, просп. Ломоносовский, д. 25, корп. 1",Раменки,ЗАО
Альфа-Банк,55.754579,37.657455,"г. Москва, ул. Земляной Вал, д. 41, стр. 1",Таганский,ЦАО
Альфа-Банк,55.780689,37.63376,"г. Москва, просп. Мира, д. 42",Мещанский,ЦАО
Альфа-Банк,55.709483,37.620911,"г. Москва, ул. Большая Тульская, д. 2",Даниловский,ЮАО
Альфа-Банк,55.806179,37.581352,"г. Москва, ул. Бутырская, д. 89",Савёловский,САО
Альфа-Банк,55.694202,37.532927,"г. Москва, просп. Ломоносовский, д. 25, корп. 1",Раменки,ЗАО
Альфа-Банк,55.745684,37.56269,"г. Москва, ул. Большая Дорогомиловская, д. 1",Дорогомилово,ЗАО
Альфа-Банк,55.70068,37.851704,"г. Москва, просп. Лермонтовский, д. 10, корп. 1",Выхино-Жулебино,ЮВАО
Альфа-Банк,55.707328,37.768314,"г. Москва, ул. Зеленодольская, д. 31, корп. 1",Кузьминки,ЮВАО
Альфа-Банк,55.774838,37.65051,"г. Москва, ул. Каланчевская, д. 27",Красносельский,ЦАО
Альфа-Банк,55.745694,37.562454,"г. Москва, ул. Большая Дорогомиловская, д. 1",Дорогомилово,ЗАО
Альфа-Банк,55.677756,37.666013,"г. Москва, ул. Новинки, д. 1",Нагатинский Затон,ЮАО
Альфа-Банк,55.727949,37.580954,"г. Москва, просп. Комсомольский, д. 24, стр. 1",Хамовники,ЦАО
Альфа-Банк,55.76155,37.573296,"г. Москва, ул. Красная Пресня, д. 12, стр. 1",Пресненский,ЦАО
Альфа-Банк,55.773019,37.676951,"г. Москва, ул. Нижняя Красносельская, д. 45/17",Басманный,ЦАО
Альфа-Банк,55.731225,37.666418,"г. Москва, пер. 3-й Крутицкий, д. 11",Южнопортовый,ЮВАО
Альфа-Банк,55.758207,37.407,"г. Москва, бул. Осенний, д. 9",Крылатское,ЗАО
Альфа-Банк,55.761892,37.620329,"г. Москва, ул. Неглинная, д. 10",Мещанский,ЦАО
Альфа-Банк,55.707527,37.768293,"г. Москва, ул. Зеленодольская, д. 31, корп. 1",Кузьминки,ЮВАО
Альфа-Банк,55.741429,37.537338,"г. Москва, просп. Кутузовский, д. 30/32, стр. 1",Дорогомилово,ЗАО
Альфа-Банк,55.741418,37.537259,"г. Москва, просп. Кутузовский, д. 30/32, стр. 1",Дорогомилово,ЗАО
Альфа-Банк,55.700598,37.851947,"г. Москва, просп. Лермонтовский, д. 10, корп. 1",Выхино-Жулебино,ЮВАО
Альфа-Банк,55.682983,37.536714,"г. Москва, просп. Ленинский, д. 78",Ломоносовский,ЮЗАО
Альфа-Банк,55.650188,37.745991,"г. Москва, ул. Люблинская, д. 165, корп. 1",Марьино,ЮВАО
Альфа-Банк,55.75458,37.657456,"г. Москва, ул. Земляной Вал, д. 41, стр. 1",Таганский,ЦАО
Альфа-Банк,55.740287,37.658796,"г. Москва, ул. Марксистская, д. 1, корп. 1",Таганский,ЦАО
Альфа-Банк,55.650209,37.745997,"г. Москва, ул. Люблинская, д. 165, корп. 1",Марьино,ЮВАО
Альфа-Банк,55.750459,37.539476,"г. Москва, 1-й Красногвардейский пр-д, д. 15",Пресненский,ЦАО
Альфа-Банк,55.641997,37.524592,"г. Москва, ул. Профсоюзная, д. 104",Коньково,ЮЗАО
Альфа-Банк,55.846499,37.361917,"г. Москва, ул. Митинская, д. 36, корп. 1",Митино,СЗАО
Альфа-Банк,55.657756,37.747396,"г. Москва, ул. Перерва, д. 56/2",Марьино,ЮВАО
Альфа-Банк,55.761839,37.620336,"г. Москва, ул. Неглинная, д. 10/ ул. Кузнецкий Мост, д. 9",Мещанский,ЦАО
Альфа-Банк,55.751348,37.816496,"г. Москва, просп. Свободный, д. 20а",Новогиреево,ВАО
Альфа-Банк,55.777436,37.601919,"г. Москва, ул. Долгоруковская, д. 31, стр. 32",Тверской,ЦАО
Альфа-Банк,55.607668,37.532855,"г. Москва, просп. Новоясеневский, вл. 7",Ясенево,ЮЗАО
Альфа-Банк,55.780723,37.633807,"г. Москва, просп. Мира, д. 42",Мещанский,ЦАО
Альфа-Банк,55.869763,37.660377,"г. Москва, ул. Менжинского, д. 23, корп. 1",Бабушкинский,СВАО
Альфа-Банк,55.862751,37.608229,"г. Москва, ул. Декабристов, д. 20, корп. 2",Отрадное,СВАО
Альфа-Банк,55.731065,37.634234,"г. Москва, ул. Валовая, д. 6",Замоскворечье,ЦАО
Альфа-Банк,55.746276,37.682176,"г. Москва, бул. Энтузиастов, д. 2",Таганский,ЦАО
Альфа-Банк,55.744734,37.582791,"г. Москва, пл. Смоленская-Сенная, д. 27, стр. 1",Хамовники,ЦАО
Альфа-Банк,55.76749,37.56446,"г. Москва, ул. Пресненский Вал, д. 7, стр. 1",Пресненский,ЦАО
Альфа-Банк,55.73133,37.66624,"г. Москва, пер. 3-й Крутицкий, д. 11",Южнопортовый,ЮВАО
Альфа-Банк,55.677781,37.666011,"г. Москва, ул. Новинки, д. 1",Нагатинский Затон,ЮАО
Альфа-Банк,55.657604,37.481673,"г. Москва, просп. Вернадского, д. 119",Тропарёво-Никулино,ЗАО
Альфа-Банк,55.806117,37.635529,"г. Москва, просп. Мира, д. 91, корп. 2",Останкинский,СВАО
Альфа-Банк,55.679661,37.565373,"г. Москва, ул. Профсоюзная, д. 15",Академический,ЮЗАО
Альфа-Банк,55.738307,37.627922,"г. Москва, ул. Пятницкая, д. 40, стр. 1",Замоскворечье,ЦАО
Альфа-Банк,55.702616,37.50936,"г. Москва, просп. Мичуринский, д. 7",Раменки,ЗАО
Альфа-Банк,55.855506,37.476625,"г. Москва, ул. Фестивальная, д. 13, корп. 1",Левобережный,САО
Альфа-Банк,55.855507,37.47662,"г. Москва, ул. Фестивальная, д. 13, корп. 1",Левобережный,САО
Альфа-Банк,55.746276,37.682179,"г. Москва, бул. Энтузиастов, д. 2",Таганский,ЦАО
Альфа-Банк,55.751321,37.81626,"г. Москва, просп. Свободный, д. 20а",Новогиреево,ВАО
Альфа-Банк,55.781828,37.722932,"г. Москва, ул. Вельяминовская, д. 6, стр. 2",Соколиная Гора,ВАО
Альфа-Банк,55.548385,37.553235,"г. Москва, бул. Адмирала Ушакова, д. 2",Южное Бутово,ЮЗАО
Альфа-Банк,55.744734,37.582794,"г. Москва, пл. Смоленская-Сенная, д. 27, стр. 1",Хамовники,ЦАО
Альфа-Банк,55.787546,37.677662,"г. Москва, ул. Русаковская, д. 29",Сокольники,ВАО
Альфа-Банк,55.787709,37.677473,"г. Москва, ул. Русаковская, д. 29",Сокольники,ВАО
Альфа-Банк,55.752132,37.599098,"г. Москва, ул. Арбат, д. 4, стр. 1",Арбат,ЦАО
Альфа-Банк,55.851074,37.434498,"г. Москва, бул. Яна Райниса, д. 2, корп. 1",Северное Тушино,СЗАО
Альфа-Банк,55.740289,37.658801,"г. Москва, ул. Марксистская, д. 1, корп. 1",Таганский,ЦАО
Альфа-Банк,55.818735,37.573776,"г. Москва, ш. Дмитровское, д. 13а",Тимирязевский,САО
Альфа-Банк,55.728256,37.58031,"г. Москва, просп. Комсомольский, д. 24, стр. 1",Хамовники,ЦАО
Альфа-Банк,55.740991,37.625037,"г. Москва, ул. Большая Ордынка, д. 21, стр. 2",Замоскворечье,ЦАО
Альфа-Банк,55.675596,37.505594,"г. Москва, просп. Вернадского, д. 39",Проспект Вернадского,ЗАО
Альфа-Банк,55.766983,37.56435,"г. Москва, ул. Пресненский Вал, д. 7, стр. 1",Пресненский,ЦАО
Альфа-Банк,55.792456,37.527411,"г. Москва, ул. Авиаконструктора Микояна, д. 12",Хорошёвский,САО
Альфа-Банк,55.731138,37.633899,"г. Москва, ул. Валовая, д. 6",Замоскворечье,ЦАО
Альфа-Банк,55.809687,37.460098,"г. Москва, ул. Авиационная, д. 66",Щукино,СЗАО
Альфа-Банк,55.67046,37.55623,"г. Москва, ул. Гарибальди, д. 25, корп. 1",Черёмушки,ЮЗАО
Альфа-Банк,55.846529,37.362047,"г. Москва, ул. Митинская, д. 36, корп. 1",Митино,СЗАО
Альфа-Банк,55.898616,37.591359,"г. Москва, ул. Лескова, д. 3г",Бибирево,СВАО
Альфа-Банк,55.622515,37.667676,"г. Москва, ул. Луганская, д. 10",Царицыно,ЮАО
Альфа-Банк,55.657806,37.747689,"г. Москва, ул. Перерва, д. 56/2",Марьино,ЮВАО
Альфа-Банк,55.805181,37.51645,"г. Москва, просп. Ленинградский, д. 74, корп. 1",Аэропорт,САО
Альфа-Банк,55.811477,37.797781,"г. Москва, ул. Уральская, д. 1",Гольяново,ВАО
Альфа-Банк,55.818785,37.573795,"г. Москва, ш. Дмитровское, д. 13а",Тимирязевский,САО
Альфа-Банк,55.777444,37.52128,"г. Москва, ш. Хорошевское, д. 35, корп. 1",Хорошёвский,САО
Альфа-Банк,55.777502,37.521331,"г. Москва, ш. Хорошевское, д. 35, корп. 1",Хорошёвский,САО
Альфа-Банк,55.622504,37.667702,"г. Москва, ул. Луганская, д. 10",Царицыно,ЮАО
Альфа-Банк,55.679659,37.565373,"г. Москва, ул. Профсоюзная, д. 15",Академический,ЮЗАО
Альфа-Банк,55.639729,37.606848,"г. Москва, ул. Чертановская, д. 1в, корп. 1",Чертаново Северное,ЮАО
Альфа-Банк,55.654446,37.61887,"г. Москва, ш. Варшавское, д. 76, корп. 1",Нагорный,ЮАО
Альфа-Банк,55.702611,37.509363,"г. Москва, просп. Мичуринский, д. 7",Раменки,ЗАО
Альфа-Банк,55.811602,37.798028,"г. Москва, ул. Уральская, д. 1",Гольяново,ВАО
Альфа-Банк,55.781858,37.722954,"г. Москва, ул. Вельяминовская, д. 6, стр. 2",Соколиная Гора,ВАО
Альфа-Банк,55.809687,37.460098,"г. Москва, ул. Авиационная, д. 66",Щукино,СЗАО
Альфа-Банк,55.675424,37.505226,"г. Москва, просп. Вернадского, д. 39",Проспект Вернадского,ЗАО
Альфа-Банк,55.851099,37.434885,"г. Москва, бул. Яна Райниса, д. 2, корп. 1",Северное Тушино,СЗАО
Альфа-Банк,55.607653,37.532839,"г. Москва, просп. Новоясеневский, вл. 7",Ясенево,ЮЗАО
Альфа-Банк,55.82018,37.496131,"г. Москва, ш. Ленинградское, д. 15",Войковский,САО
Америкэн Экспресс Банк,55.723207,37.561124,"г. Москва, ул. Усачева, д. 33, стр. 1",Хамовники,ЦАО
Аресбанк,55.752164,37.532841,"г. Москва, ул. Тестовская, д. 10",Пресненский,ЦАО
Банк Акцепт,55.737232,37.516837,"г. Москва, пл. Победы, д. 2, корп. 2",Дорогомилово,ЗАО
Банк БКФ,55.762272,37.569899,"г. Москва, ул. Красная Пресня, д. 24",Пресненский,ЦАО
Банк БКФ,55.801536,37.636715,"г. Москва, просп. Мира, д. 102, корп. 2",Алексеевский,СВАО
Банк БКФ,55.793308,37.620501,"г. Москва, ул. Сущевский Вал, д. 63",Марьина Роща,СВАО
Банк Глобус,55.736021,37.634555,"г. Москва, ул. Бахрушина, д. 10, стр. 1",Замоскворечье,ЦАО
Банк Глобус,55.736021,37.634555,"г. Москва, ул. Бахрушина, д. 10, стр. 1",Замоскворечье,ЦАО
Банк ДОМ.РФ,55.753437,37.606032,"г. Москва, ул. Воздвиженка, д. 10",Арбат,ЦАО
Банк ДОМ.РФ,55.74751,37.534954,"г. Москва, наб. Пресненская, д. 10, стр. 2",Пресненский,ЦАО
Банк ДОМ.РФ,55.773727,37.579899,"г. Москва, пер. Грузинский, д. 16, стр. 1",Пресненский,ЦАО
Банк ДОМ.РФ,55.820913,37.64559,"г. Москва, ул. Космонавтов, д. 4",Алексеевский,СВАО
Банк ДОМ.РФ,55.743213,37.427631,"г. Москва, ш. Рублевское, д. 22, корп. 1",Кунцево,ЗАО
Банк ДОМ.РФ,55.750664,37.564099,"г. Москва, просп. Кутузовский, д. 2/1, корп. 1а",Дорогомилово,ЗАО
Банк ДОМ.РФ,55.646253,37.746942,"г. Москва, ул. Люблинская, д. 175",Марьино,ЮВАО
Банк ДОМ.РФ,55.780073,37.706053,"г. Москва, наб. Семеновская, д. 3/1, корп. 6",Басманный,ЦАО
Банк ДОМ.РФ,55.668639,37.565677,"г. Москва, ул. Новочеремушкинская, д. 61",Черёмушки,ЮЗАО
Банк Жилищного Финансирования,55.709389,37.442914,"г. Москва, ул. Верейская, д. 29, стр. 134",Можайский,ЗАО
Банк Жилищного Финансирования,55.74403,37.56194,"г. Москва, ул. Брянская, д. 5",Дорогомилово,ЗАО
Банк Зенит,55.663897,37.599057,"г. Москва, ул. Одесская, д. 2",Зюзино,ЮЗАО
Банк Зенит,55.699138,37.42295,"г. Москва, ул. Рябиновая, д. 43 Б",Очаково-Матвеевское,ЗАО
Банк Зенит,55.792195,37.49672,"г. Москва, ул. Маршала Бирюзова, д. 8, корп. 1",Щукино,СЗАО
Банк Зенит,55.664183,37.598661,"г. Москва, ул. Одесская, д. 2",Зюзино,ЮЗАО
Банк Зенит,55.839654,37.490369,"г. Москва, ш. Головинское, д. 5, корп. 1",Головинский,САО
Банк Зенит,55.744507,37.564927,"г. Москва, пл. Киевского вокзала, д. 2",Дорогомилово,ЗАО
Банк Зенит,55.7885,37.634395,"г. Москва, просп. Мира, д. 71, стр. 1",Мещанский,ЦАО
Банк Зенит,55.782273,37.734214,"г. Москва, ул. Щербаковская, д. 40",Соколиная Гора,ВАО
Банк Зенит,55.751273,37.641769,"г. Москва, ул. Солянка, д. 13/3, стр. 1",Таганский,ЦАО
Банк Зенит,55.771134,37.403037,"г. Москва, ул. Крылатская, д. 35",Крылатское,ЗАО
Банк Зенит,55.880845,37.547041,"г. Москва, ш. Дмитровское, д. 98, стр. 1",Восточное Дегунино,САО
Банк Зенит,55.757303,37.503586,"г. Москва, Береговой пр-д, д. 4/6, стр. 3",Филёвский Парк,ЗАО
Банк Зенит,55.775435,37.833097,"г. Москва, ш. Энтузиастов, д. 59",Ивановское,ВАО
Банк Зенит,55.669084,37.443269,"г. Москва, ул. Озерная, д. 44а",Очаково-Матвеевское,ЗАО
Банк Зенит,55.849363,37.684772,"г. Москва, ул. Красная Сосна, д. 5, стр. 1",Ярославский,СВАО
Банк Интеза,55.757322,37.636406,"г. Москва, пер. Петроверигский, д. 2, стр. 2",Басманный,ЦАО
Банк Интеза,55.774882,37.603334,"г. Москва, ул. Долгоруковская, д. 19, стр. 1",Тверской,ЦАО
Банк Интеза,55.741972,37.618534,"г. Москва, пер. Малый Толмачевский, д. 6, стр. 1",Якиманка,ЦАО
Банк Интеза,55.757308,37.636468,"г. Москва, пер. Петроверигский, д. 2, стр. 2",Басманный,ЦАО
Банк Казани,55.821015,37.631409,"г. Москва, ул. Академика Королева, д. 3",Останкинский,СВАО
Банк Казани,55.780279,37.516602,"г. Москва, ул. Куусинена, д. 4а, корп. 1",Хорошёвский,САО
Банк Казани,55.712089,37.658921,"г. Москва, ул. Восточная, д. 13",Даниловский,ЮАО
Банк Кредит Свисс,55.774553,37.587104,"г. Москва, ул. 1-я Тверская-Ямская, д. 21",Тверской,ЦАО
Банк Кремлевский,55.748602,37.580653,"г. Москва, пер. 1-й Николощеповский, д. 6, стр. 1",Арбат,ЦАО
Банк Кремлевский,55.748706,37.580544,"г. Москва, пер. 1-й Николощеповский, д. 6, стр. 2",Арбат,ЦАО
Банк Кремлевский,55.762905,37.616575,"г. Москва, ул. Петровка, д. 11",Тверской,ЦАО
Банк Кремлевский,55.774133,37.65171,"г. Москва, ул. Каланчевская, д. 21/40",Красносельский,ЦАО
Банк Кремлевский,55.745408,37.580472,"г. Москва, ул. Смоленская, д. 5",Хамовники,ЦАО
Банк Кремлевский,55.768471,37.59948,"г. Москва, ул. Тверская, д. 26/1",Тверской,ЦАО
Банк Оранжевый,55.768807,37.645434,"г. Москва, ул. Мясницкая, д. 48",Красносельский,ЦАО
Банк Открытие,55.728802,37.643339,"г. Москва, ул. Летниковская, д. 2, стр. 4",Замоскворечье,ЦАО
Банк Открытие,55.58292,37.595689,"г. Москва, ш. Варшавское, д. 160",Чертаново Южное,ЮАО
Банк Открытие,55.658019,37.748016,"г. Москва, ул. Перерва, д. 56/2",Марьино,ЮВАО
Банк Открытие,55.812691,37.638642,"г. Москва, просп. Мира, д. 122",Алексеевский,СВАО
Банк Открытие,55.821215,37.497797,"г. Москва, ш. Ленинградское, д. 16а, стр. 1",Войковский,САО
Банк Открытие,55.804485,37.519265,"г. Москва, просп. Ленинградский, д. 70",Аэропорт,САО
Банк Открытие,55.699771,37.500511,"г. Москва, просп. Мичуринский, д. 26",Раменки,ЗАО
Банк Открытие,55.720811,37.435249,"г. Москва, ш. Можайское, д. 11",Можайский,ЗАО
Банк Открытие,55.745529,37.648326,"г. Москва, ул. Верхняя Радищевская, д. 2/1, стр. 5",Таганский,ЦАО
Банк Открытие,55.752209,37.594267,"г. Москва, ул. Новый Арбат, д. 13",Арбат,ЦАО
Банк Открытие,55.736586,37.621733,"г. Москва, ул. Большая Ордынка, д. 40, стр. 4",Якиманка,ЦАО
Банк Открытие,55.86233,37.609679,"г. Москва, ул. Декабристов, д. 20, корп. 2",Отрадное,СВАО
Банк Открытие,55.789909,37.680408,"г. Москва, пл. Сокольническая, д. 9",Сокольники,ВАО
Банк Открытие,55.743513,37.651824,"г. Москва, ул. Верхняя Радищевская, д. 13, стр. 3",Таганский,ЦАО
Банк Открытие,55.761819,37.567911,"г. Москва, ул. Красная Пресня, д. 23 Б, стр. 1",Пресненский,ЦАО
Банк Открытие,55.792716,37.527484,"г. Москва, ул. Авиаконструктора Микояна, д. 12",Хорошёвский,САО
Банк Открытие,55.640195,37.606272,"г. Москва, ул. Чертановская, д. 1г",Чертаново Северное,ЮАО
Банк Открытие,55.663806,37.484864,"г. Москва, просп. Вернадского, д. 105, корп. 3",Тропарёво-Никулино,ЗАО
Банк Открытие,55.535003,37.528173,"г. Москва, ул. Южнобутовская, д. 69",Южное Бутово,ЮЗАО
Банк Открытие,55.772914,37.590753,"г. Москва, ул. 1-я Тверская-Ямская, д. 11",Тверской,ЦАО
Банк Открытие,55.745686,37.647396,"г. Москва, ул. Верхняя Радищевская, д. 2/1, стр. 3",Таганский,ЦАО
Банк Открытие,55.754339,37.71533,"г. Москва, ул. Авиамоторная, д. 10, корп. 1",Лефортово,ЮВАО
Банк Открытие,55.8704,37.661774,"г. Москва, ул. Менжинского, д. 38, корп. 1, стр. 2",Бабушкинский,СВАО
Банк Открытие,55.730273,37.632084,"г. Москва, ул. Валовая, д. 11/19",Замоскворечье,ЦАО
Банк Открытие,55.681669,37.850703,"г. Москва, ул. Привольная, д. 65/32",Выхино-Жулебино,ЮВАО
Банк Открытие,55.633251,37.518777,"г. Москва, ул. Профсоюзная, д. 126, корп. 1",Тёплый Стан,ЮЗАО
Банк Открытие,55.694376,37.532926,"г. Москва, просп. Ломоносовский, д. 25, корп. 1",Раменки,ЗАО
Банк Открытие,55.739503,37.414774,"г. Москва, ул. Ярцевская, д. 24, корп. 2",Кунцево,ЗАО
Банк Открытие,55.741475,37.535826,"г. Москва, просп. Кутузовский, д. 30",Дорогомилово,ЗАО
Банк Открытие,55.783401,37.601302,"г. Москва, ул. Сущевская, д. 27, стр. 1",Тверской,ЦАО
Банк Открытие,55.730968,37.611685,"г. Москва, ул. Большая Якиманка, д. 54",Якиманка,ЦАО
Банк Открытие,55.757148,37.648133,"г. Москва, бул. Покровский, д. 3, стр. 1",Басманный,ЦАО
Банк Открытие,55.777626,37.51688,"г. Москва, ш. Хорошевское, д. 88, стр. 1",Хорошёвский,САО
Банк Открытие,55.681379,37.567247,"г. Москва, ул. Профсоюзная, д. 11/11",Академический,ЮЗАО
Банк Открытие,55.745586,37.647763,"г. Москва, ул. Верхняя Радищевская, д. 2/1, стр. 5",Таганский,ЦАО
Банк Открытие,55.771004,37.671391,"г. Москва, ул. Спартаковская, д. 5, стр. 1",Басманный,ЦАО
Банк Раунд,55.74783,37.425617,"г. Москва, ш. Рублевское, д. 28",Крылатское,ЗАО
Банк Раунд,55.605588,37.287194,"г. Москва, ул. 2-я Рейсовая, д. 2, корп. 5",Внуково,ЗАО
Банк РМП,55.767785,37.565514,"г. Москва, ул. Климашкина, д. 21, стр. 1",Пресненский,ЦАО
Банк РМП,55.795019,37.706117,"г. Москва, ул. Преображенская, д. 2, корп. 1",Преображенское,ВАО
Банк РМП,55.705952,37.602342,"г. Москва, 2-й Рощинский пр-д, д. 8, стр. 3",Донской,ЮАО
Банк РМП,55.711879,37.686728,"г. Москва, ул. Угрешская, д. 2, стр. 15",Печатники,ЮВАО
Банк РСИ,55.733111,37.62576,"г. Москва, ул. Малая Ордынка, д. 35, стр. 1",Замоскворечье,ЦАО
Банк «Санкт-Петербург»,55.753843,37.662228,"г. Москва, пер. 2-й Сыромятнический, д. 1",Таганский,ЦАО
Банк «Санкт-Петербург»,55.736199,37.62299,"г. Москва, ул. Большая Ордынка, д. 40, стр. 2",Якиманка,ЦАО
Банк «Санкт-Петербург»,55.705763,37.635799,"г. Москва, ул. Автозаводская, д. 22",Даниловский,ЮАО
Банк Синара (СКБ-банк),55.706618,37.374695,"г. Москва, бул. Большой, д. 5",Можайский,ЗАО
Банк Синара (СКБ-банк),55.761421,37.650214,"г. Москва, ул. Чаплыгина, д. 17",Басманный,ЦАО
Банк Синара (СКБ-банк),55.761437,37.653139,"г. Москва, ул. Покровка, д. 40, стр. 2а",Басманный,ЦАО
Банк Уралсиб,55.726293,37.576913,"г. Москва, ул. Ефремова, д. 8",Хамовники,ЦАО
Банк Уралсиб,55.889738,37.538414,"г. Москва, ул. Лобненская, д. 4а",Дмитровский,САО
Банк Уралсиб,55.797279,37.802642,"г. Москва, бул. Измайловский, д. 55",Измайлово,ВАО
Банк Уралсиб,55.709804,37.76744,"г. Москва, ул. Зеленодольская, д. 36, корп. 1",Кузьминки,ЮВАО
Банк Уралсиб,55.771457,37.595113,"г. Москва, ул. 2-я Тверская-Ямская, д. 14",Тверской,ЦАО
Банк Уралсиб,55.574947,37.58023,"г. Москва, бул. Дмитрия Донского, д. 1",Северное Бутово,ЮЗАО
Банк Уралсиб,55.743655,37.545703,"г. Москва, просп. Кутузовский, д. 27",Дорогомилово,ЗАО
Банк Уралсиб,55.788472,37.557704,"г. Москва, просп. Ленинградский, д. 33а",Беговой,САО
Банк Уралсиб,55.68519,37.540135,"г. Москва, просп. Ленинский, д. 72/2",Гагаринский,ЮЗАО
Банк Уралсиб,55.645601,37.747256,"г. Москва, ул. Люблинская, д. 175",Марьино,ЮВАО
Банк Уралсиб,55.845998,37.363242,"г. Москва, ул. Митинская, д. 36",Митино,СЗАО
Банк Уралсиб,55.820961,37.632254,"г. Москва, ул. Академика Королева, д. 3",Останкинский,СВАО
Банк Уралсиб,55.722233,37.627831,"г. Москва, ул. Большая Серпуховская, д. 31, корп. 1",Замоскворечье,ЦАО
Банк Уралсиб,55.788379,37.681634,"г. Москва, ул. Русаковская, д. 28, корп. 1 Б",Сокольники,ВАО
Банк Уралсиб,55.74028,37.658871,"г. Москва, ул. Марксистская, д. 1, корп. 1",Таганский,ЦАО
Банк Уралсиб,55.67052,37.552322,"г. Москва, ул. Профсоюзная, д. 56",Обручевский,ЮЗАО
Банк Уралсиб,55.77799,37.463069,"г. Москва, просп. Маршала Жукова, д. 58, корп. 1",Хорошёво-Мнёвники,СЗАО
Банк Уралсиб,55.637898,37.655736,"г. Москва, ул. Кантемировская, д. 47",Царицыно,ЮАО
Банк Уралсиб,55.733276,37.64321,"г. Москва, наб. Космодамианская, д. 52, стр. 5",Замоскворечье,ЦАО
Банк Финсервис,55.746228,37.546093,"г. Москва, наб. Тараса Шевченко, д. 23а",Дорогомилово,ЗАО
Банк Финсервис,55.743844,37.55592,"г. Москва, ул. Можайский Вал, д. 8 Б",Дорогомилово,ЗАО
ББР Банк,55.748739,37.581063,"г. Москва, пер. 1-й Николощеповский, д. 6, стр. 1",Арбат,ЦАО
ББР Банк,55.758022,37.645787,"г. Москва, бул. Покровский, д. 4/17, стр. 1",Басманный,ЦАО
БКС Банк,55.78642,37.634212,"г. Москва, просп. Мира, д. 69, стр. 1",Мещанский,ЦАО
БКС Банк,55.78642,37.634212,"г. Москва, просп. Мира, д. 69, стр. 1",Мещанский,ЦАО
БКС Банк,55.74655,37.559682,"г. Москва, ул. Большая Дорогомиловская, д. 14",Дорогомилово,ЗАО
БКС Банк,55.690894,37.548843,"г. Москва, просп. Ленинский, д. 66",Гагаринский,ЮЗАО
БКС Банк,55.761407,37.570835,"г. Москва, ул. Красная Пресня, д. 21",Пресненский,ЦАО
БКС Банк,55.738074,37.661845,"г. Москва, ул. Марксистская, д. 3, стр. 1",Таганский,ЦАО
БКС Банк,55.780169,37.599798,"г. Москва, ул. Новослободская, д. 11",Тверской,ЦАО
БКС Банк,55.709791,37.620885,"г. Москва, ул. Большая Тульская, д. 2",Даниловский,ЮАО
БКС Банк,55.731224,37.635333,"г. Москва, ул. Валовая, д. 2—4/44, стр. 1",Замоскворечье,ЦАО
БКС Мир Инвестиций,55.78642,37.634212,"г. Москва, просп. Мира, д. 69, стр. 1",Мещанский,ЦАО
Бланк,55.699467,37.625594,"г. Москва, ш. Варшавское, д. 9, стр. 1",Донской,ЮАО
БМ-Банк,55.762432,37.623864,"г. Москва, ул. Рождественка, д. 8/15, стр. 3",Мещанский,ЦАО
БМ-Банк,55.75937,37.631487,"г. Москва, пер. Большой Златоустинский, д. 4",Басманный,ЦАО
БМ-Банк,55.759135,37.631511,"г. Москва, пер. Лучников, д. 7/4, стр. 6",Басманный,ЦАО
БМВ Банк,55.837878,37.480884,"г. Москва, ш. Ленинградское, д. 39а, стр. 1",Войковский,САО
БНП Париба Банк,55.778126,37.586893,"г. Москва, ул. Лесная, д. 5",Тверской,ЦАО
БыстроБанк,55.772901,37.637856,"г. Москва, пер. 1-й Коптельский, д. 4, стр. 1",Красносельский,ЦАО
Бэнк оф Чайна,55.789144,37.636332,"г. Москва, просп. Мира, д. 72",Мещанский,ЦАО
Вайлдберриз Банк,55.771925,37.616483,"г. Москва, пер. Большой Каретный, д. 20, стр. 2",Тверской,ЦАО
Веста Банк,55.722603,37.5611,"г. Москва, ул. Усачева, д. 35, стр. 1",Хамовники,ЦАО
Владбизнесбанк,55.787642,37.632555,"г. Москва, ул. Гиляровского, д. 57, стр. 1",Мещанский,ЦАО
Внешфинбанк,55.844534,37.36311,"г. Москва, ул. Митинская, д. 25",Митино,СЗАО
Внешфинбанк,55.71727,37.795172,"г. Москва, просп. Рязанский, д. 77",Рязанский,ЮВАО
Внешфинбанк,55.742947,37.634645,"г. Москва, пер. Руновский, д. 6, стр. 2",Замоскворечье,ЦАО
Всероссийский Банк Развития Регионов,55.79345,37.62161,"г. Москва, ул. Сущевский Вал, д. 65, корп. 1",Марьина Роща,СВАО
Всероссийский Банк Развития Регионов,55.751155,37.599442,"г. Москва, пл. Арбатская, д. 1",Арбат,ЦАО
Всероссийский Банк Развития Регионов,55.77566,37.553412,"г. Москва, ул. Беговая, д. 3, стр. 1",Хорошёвский,САО
Всероссийский Банк Развития Регионов,55.725067,37.637565,"г. Москва, ул. Дубининская, д. 31а",Замоскворечье,ЦАО
Всероссийский Банк Развития Регионов,55.716976,37.599319,"г. Москва, ул. Малая Калужская, д. 15, стр. 7",Донской,ЮАО
Всероссийский Банк Развития Регионов,55.747558,37.619861,"г. Москва, наб. Софийская, д. 26/1, стр. 1",Якиманка,ЦАО
Всероссийский Банк Развития Регионов,55.723317,37.609795,"г. Москва, ул. Шаболовка, д. 10, корп. 2",Якиманка,ЦАО
ВТБ,55.790983,37.559143,"г. Москва, просп. Ленинградский, д. 36",Аэропорт,САО
ВТБ,55.75596,37.627135,"г. Москва, пер. Большой Черкасский, д. 10/11, стр. 1",Тверской,ЦАО
ВТБ,55.847295,37.638521,"г. Москва, Лазоревый пр-д, д. 1а, корп. 2",Свиблово,СВАО
ВТБ,55.548452,37.553361,"г. Москва, бул. Адмирала Ушакова, д. 2",Южное Бутово,ЮЗАО
ВТБ,55.708663,37.590255,"г. Москва, ул. Вавилова, д. 4",Донской,ЮАО
ВТБ,55.743267,37.563023,"г. Москва, ул. Киевская, д. 2",Дорогомилово,ЗАО
ВТБ,55.818685,37.497198,"г. Москва, ш. Ленинградское, д. 13, корп. 1",Войковский,САО
ВТБ,55.770851,37.649516,"г. Москва, Красноворотский пр-д, д. 3",Красносельский,ЦАО
ВТБ,55.758848,37.631382,"г. Москва, пер. Лучников, д. 7/4",Басманный,ЦАО
ВТБ,55.659349,37.754931,"г. Москва, ул. Братиславская, д. 14",Марьино,ЮВАО
ВТБ,55.748914,37.535466,"г. Москва, наб. Пресненская, д. 10, стр. 1",Пресненский,ЦАО
ВТБ,55.71648,37.4071,"г. Москва, ш. Можайское, д. 45 Б",Кунцево,ЗАО
ВТБ,55.644198,37.526682,"г. Москва, ул. Профсоюзная, д. 102а",Коньково,ЮЗАО
ВТБ,55.707491,37.928632,"г. Москва, ул. Рождественская, д. 29",Некрасовка,ЮВАО
ВТБ,55.757085,37.595618,"г. Москва, ул. Большая Никитская, д. 33, стр. 1",Пресненский,ЦАО
ВТБ,55.781839,37.633278,"г. Москва, просп. Мира, д. 41, стр. 2",Мещанский,ЦАО
ВТБ,55.736997,37.588732,"г. Москва, бул. Зубовский, д. 27/26, стр. 1",Хамовники,ЦАО
ВТБ,55.773162,37.626308,"г. Москва, ул. Садовая-Сухаревская, д. 8/12, стр. 3",Мещанский,ЦАО
ВТБ,55.619467,37.50928,"г. Москва, просп. Новоясеневский, д. 1",Ясенево,ЮЗАО
ВТБ,55.767205,37.624229,"г. Москва, ул. Трубная, д. 2",Мещанский,ЦАО
ВТБ,55.792392,37.527842,"г. Москва, ул. Авиаконструктора Микояна, д. 12",Хорошёвский,САО
ВТБ,55.789433,37.536616,"г. Москва, бул. Ходынский, д. 2",Хорошёвский,САО
ВТБ,55.77675,37.602265,"г. Москва, ул. Долгоруковская, д. 27, стр. 1",Тверской,ЦАО
ВТБ,55.754106,37.556581,"г. Москва, наб. Краснопресненская, д. 12",Пресненский,ЦАО
ВТБ,55.763314,37.509574,"г. Москва, наб. Шелепихинская, д. 34, корп. 2",Хорошёво-Мнёвники,СЗАО
ВТБ,55.702729,37.509746,"г. Москва, просп. Мичуринский, д. 7",Раменки,ЗАО
ВТБ,55.80978,37.463981,"г. Москва, ул. Щукинская, д. 42",Щукино,СЗАО
ВТБ,55.736997,37.588732,"г. Москва, бул. Зубовский, д. 27/26, стр. 1",Хамовники,ЦАО
ВТБ,55.758841,37.658207,"г. Москва, ул. Земляной Вал, д. 27, стр. 1",Басманный,ЦАО
ВТБ,55.761893,37.622129,"г. Москва, ул. Кузнецкий Мост, д. 16/5, стр. 1",Мещанский,ЦАО
ВТБ,55.749891,37.537031,"г. Москва, наб. Пресненская, д. 12",Пресненский,ЦАО
ВТБ,55.762278,37.624586,"г. Москва, ул. Кузнецкий Мост, д. 17, стр. 1",Мещанский,ЦАО
ВТБ,55.74034,37.615944,"г. Москва, ул. Большая Полянка, д. 10, стр. 1",Якиманка,ЦАО
ВТБ,55.763264,37.623827,"г. Москва, ул. Рождественка, д. 10/2, стр. 1",Мещанский,ЦАО
ВТБ,55.753963,37.715174,"г. Москва, ул. Авиамоторная, д. 10, корп. 1",Лефортово,ЮВАО
ВТБ,55.686684,37.575214,"г. Москва, ул. Дмитрия Ульянова, д. 24",Академический,ЮЗАО
ВТБ,55.809485,37.636531,"г. Москва, просп. Мира, д. 97",Останкинский,СВАО
ВТБ,55.899978,37.588229,"г. Москва, ш. Алтуфьевское, д. 90",Бибирево,СВАО
ВТБ,55.747779,37.586628,"г. Москва, ул. Арбат, д. 51, стр. 1",Арбат,ЦАО
ВТБ,55.748927,37.537782,"г. Москва, наб. Пресненская, д. 2",Пресненский,ЦАО
ВТБ,55.605714,37.286861,"г. Москва, ул. 2-я Рейсовая, д. 2, корп. 5",Внуково,ЗАО
ВТБ,55.869277,37.665682,"г. Москва, ул. Менжинского, д. 21",Бабушкинский,СВАО
ВТБ,55.740726,37.501065,"г. Москва, ул. Барклая, д. 7, корп. 1",Филёвский Парк,ЗАО
ВТБ,55.770023,37.669106,"г. Москва, ул. Новая Басманная, д. 37а",Басманный,ЦАО
ВТБ,55.749287,37.537368,"г. Москва, наб. Пресненская, д. 12",Пресненский,ЦАО
ВТБ,55.77924,37.586609,"г. Москва, пер. 4-й Лесной, д. 4",Тверской,ЦАО
ВТБ,55.642539,37.52417,"г. Москва, ул. Профсоюзная, д. 104",Коньково,ЮЗАО
ВТБ,55.885337,37.6052,"г. Москва, ул. Пришвина, д. 23",Бибирево,СВАО
ВТБ,55.737453,37.617955,"г. Москва, пер. Бродников, д. 4",Якиманка,ЦАО
ВТБ,55.815625,37.732122,"г. Москва, ул. Ивантеевская, д. 23",Богородское,ВАО
ВТБ,55.566897,37.576297,"г. Москва, бул. Дмитрия Донского, д. 11",Северное Бутово,ЮЗАО
ВТБ,55.824017,37.645637,"г. Москва, просп. Мира, д. 180",Алексеевский,СВАО
ВТБ,55.681131,37.515234,"г. Москва, просп. Вернадского, д. 29",Ломоносовский,ЮЗАО
ВТБ,55.85524,37.562941,"г. Москва, ш. Дмитровское, д. 64, корп. 1",Бескудниковский,САО
ВТБ,55.721214,37.823088,"г. Москва, Вешняковская, д. 20 Б",Вешняки,ВАО
ВТБ,55.752705,37.604878,"г. Москва, ул. Воздвиженка, д. 9",Арбат,ЦАО
ВТБ,55.821428,37.498714,"г. Москва, ш. Ленинградское, д. 16а, стр. 2",Войковский,САО
ВТБ,55.704114,37.771267,"г. Москва, просп. Волгоградский, д. 94, корп. 1",Кузьминки,ЮВАО
ВТБ,55.693058,37.552611,"г. Москва, просп. Ленинский, д. 64/2",Гагаринский,ЮЗАО
ВТБ,55.745139,37.599677,"г. Москва, бул. Гоголевский, д. 5, стр. 1",Хамовники,ЦАО
ВТБ,55.754636,37.621634,"г. Москва, пл. Красная, д. 3",Тверской,ЦАО
ВТБ,55.714569,37.623795,"г. Москва, ш. Подольское, д. 8, стр. 5",Даниловский,ЮАО
ВТБ,55.612255,37.722106,"г. Москва, ул. Генерала Белова, д. 33а",Орехово-Борисово Северное,ЮАО
ВТБ,55.681645,37.850416,"г. Москва, ул. Привольная, д. 65/32",Выхино-Жулебино,ЮВАО
ВТБ,55.749377,37.655128,"г. Москва, ул. Земляной Вал, д. 52/16, стр. 1",Таганский,ЦАО
ВТБ,55.807812,37.798105,"г. Москва, ул. 9-я Парковая, д. 59, корп. 1",Северное Измайлово,ВАО
ВТБ,55.796387,37.805744,"г. Москва, бул. Измайловский, д. 46",Восточное Измайлово,ВАО
ВТБ,55.77674,37.648348,"г. Москва, ул. Каланчевская, д. 35",Красносельский,ЦАО
ВТБ,55.63772,37.65593,"г. Москва, ул. Кантемировская, д. 47",Царицыно,ЮАО
ВТБ,55.653645,37.648083,"г. Москва, ш. Каширское, д. 26, корп. 2",Москворечье-Сабурово,ЮАО
ВТБ,55.685457,37.570188,"г. Москва, ул. Профсоюзная, д. 12",Академический,ЮЗАО
ВТБ,55.761189,37.572689,"г. Москва, ул. Красная Пресня, д. 11",Пресненский,ЦАО
ВТБ,55.777317,37.662802,"г. Москва, ул. Краснопрудная, д. 18, стр. 1",Красносельский,ЦАО
ВТБ,55.757734,37.407096,"г. Москва, бул. Осенний, д. 7, корп. 1",Крылатское,ЗАО
ВТБ,55.762884,37.623756,"г. Москва, ул. Рождественка, д. 8/15с3",Мещанский,ЦАО
ВТБ,55.803177,37.519195,"г. Москва, просп. Ленинградский, д. 65, стр. 1",Сокол,САО
ВТБ,55.799353,37.536073,"г. Москва, просп. Ленинградский, д. 60, корп. 2",Аэропорт,САО
ВТБ,55.700131,37.85273,"г. Москва, просп. Лермонтовский, д. 10, корп. 1",Выхино-Жулебино,ЮВАО
ВТБ,55.69038,37.550522,"г. Москва, просп. Ленинский, д. 69",Гагаринский,ЮЗАО
ВТБ,55.762978,37.628798,"г. Москва, ул. Большая Лубянка, д. 16, стр. 1",Мещанский,ЦАО
ВТБ,55.674089,37.760008,"г. Москва, ул. Совхозная, д. 41",Люблино,ЮВАО
ВТБ,55.650395,37.745896,"г. Москва, ул. Люблинская, д. 165, корп. 2",Марьино,ЮВАО
ВТБ,55.771633,37.592877,"г. Москва, ул. 1-я Тверская-Ямская, д. 7",Тверской,ЦАО
ВТБ,55.887956,37.662745,"г. Москва, ул. Широкая, д. 13а",Северное Медведково,СВАО
ВТБ,55.847181,37.362243,"г. Москва, ул. Митинская, д. 36, корп. 2",Митино,СЗАО
ВТБ,55.848099,37.355274,"г. Москва, ул. Митинская, д. 35",Митино,СЗАО
ВТБ,55.698306,37.497974,"г. Москва, просп. Мичуринский, д. 34",Раменки,ЗАО
ВТБ,55.741432,37.417642,"г. Москва, ул. Ярцевская, д. 32",Кунцево,ЗАО
ВТБ,55.709262,37.660913,"г. Москва, ул. Автозаводская, д. 6",Даниловский,ЮАО
ВТБ,55.547956,37.543957,"г. Москва, ул. Веневская, д. 6",Южное Бутово,ЮЗАО
ВТБ,55.653045,37.620567,"г. Москва, ш. Варшавское, д. 87",Нагорный,ЮАО
ВТБ,55.865078,37.661376,"г. Москва, ул. Енисейская, д. 11",Бабушкинский,СВАО
ВТБ,55.772945,37.676645,"г. Москва, ул. Нижняя Красносельская, д. 45/17",Басманный,ЦАО
ВТБ,55.856365,37.494413,"г. Москва, ул. Лавочкина, д. 34",Ховрино,САО
ВТБ,55.792268,37.496533,"г. Москва, ул. Маршала Бирюзова, д. 8, корп. 1",Щукино,СЗАО
ВТБ,55.722545,37.6173,"г. Москва, ул. Мытная, д. 7, стр. 1",Замоскворечье,ЦАО
ВТБ,55.790863,37.63512,"г. Москва, просп. Мира, д. 76, стр. 1",Мещанский,ЦАО
ВТБ,55.663752,37.605584,"г. Москва, просп. Нахимовский, д. 11, корп. 1",Зюзино,ЮЗАО
ВТБ,55.596437,37.599831,"г. Москва, ул. Академика Янгеля, д. 2",Чертаново Южное,ЮАО
ВТБ,55.835704,37.490356,"г. Москва, ул. Адмирала Макарова, д. 6, стр. 13",Войковский,САО
ВТБ,55.764632,37.620245,"г. Москва, ул. Неглинная, д. 14, стр. 1а",Мещанский,ЦАО
ВТБ,55.753395,37.577177,"г. Москва, ул. Новый Арбат, д. 36/9",Арбат,ЦАО
ВТБ,55.750818,37.816108,"г. Москва, просп. Свободный, д. 20",Новогиреево,ВАО
ВТБ,55.608527,37.535772,"г. Москва, просп. Новоясеневский, д. 9",Ясенево,ЮЗАО
ВТБ,55.752986,37.592554,"г. Москва, ул. Большая Молчановка, д. 17/14, стр. 2",Арбат,ЦАО
ВТБ,55.661325,37.510461,"г. Москва, просп. Ленинский, д. 111, корп. 1",Обручевский,ЮЗАО
ВТБ,55.679359,37.468394,"г. Москва, просп. Мичуринский, Олимпийская деревня, д. 1, корп. 4",Тропарёво-Никулино,ЗАО
ВТБ,55.611503,37.719635,"г. Москва, бул. Ореховый, д. 13",Орехово-Борисово Северное,ЮАО
ВТБ,55.774682,37.604233,"г. Москва, ул. Долгоруковская, д. 2",Тверской,ЦАО
ВТБ,55.742065,37.599958,"г. Москва, ул. Остоженка, д. 11",Хамовники,ЦАО
ВТБ,55.862536,37.608902,"г. Москва, ул. Декабристов, д. 20, корп. 2",Отрадное,СВАО
ВТБ,55.749775,37.786057,"г. Москва, ул. 2-я Владимирская, д. 45",Новогиреево,ВАО
ВТБ,55.863491,37.433454,"г. Москва, ул. Планерная, д. 7, корп. 1",Северное Тушино,СЗАО
ВТБ,55.707454,37.577679,"г. Москва, просп. Ленинский, д. 34/1",Гагаринский,ЮЗАО
ВТБ,55.760488,37.64994,"г. Москва, ул. Покровка, д. 28, стр. 1",Басманный,ЦАО
ВТБ,55.733585,37.61911,"г. Москва, ул. Большая Полянка, д. 30",Якиманка,ЦАО
ВТБ,55.797359,37.725202,"г. Москва, ул. Большая Черкизовская, д. 12, корп. 1",Преображенское,ВАО
ВТБ,55.777642,37.465406,"г. Москва, просп. Маршала Жукова, д. 48, корп. 1",Хорошёво-Мнёвники,СЗАО
ВТБ,55.679138,37.565317,"г. Москва, ул. Профсоюзная, д. 15",Академический,ЮЗАО
ВТБ,55.746444,37.682796,"г. Москва, бул. Энтузиастов, д. 2",Таганский,ЦАО
ВТБ,55.746401,37.421589,"г. Москва, ш. Рублевское, д. 28, корп. 1",Крылатское,ЗАО
ВТБ,55.789386,37.678345,"г. Москва, пл. Сокольническая, д. 4, корп. 1—2",Сокольники,ВАО
ВТБ,55.718437,37.788035,"г. Москва, просп. Рязанский, д. 71, корп. 1",Рязанский,ЮВАО
ВТБ,55.715735,37.797557,"г. Москва, ул. Академика Скрябина, д. 1/58, стр. 1",Выхино-Жулебино,ЮВАО
ВТБ,55.795969,37.583417,"г. Москва, ул. Бутырская, д. 11",Савёловский,САО
ВТБ,55.770436,37.599118,"г. Москва, ул. Садовая-Триумфальная, д. 4/10, стр. 1",Тверской,ЦАО
ВТБ,55.855142,37.653297,"г. Москва, ул. Снежная, д. 26",Свиблово,СВАО
ВТБ,55.829562,37.45136,"г. Москва, ул. Свободы, д. 13/2, стр. 1а",Покровское-Стрешнево,СЗАО
ВТБ,55.783615,37.721844,"г. Москва, пл. Семеновская, д. 7, корп. 17",Соколиная Гора,ВАО
ВТБ,55.805538,37.508333,"г. Москва, просп. Ленинградский, д. 77, корп. 2",Сокол,САО
ВТБ,55.650733,37.394831,"г. Москва, ул. Богданова, д. 50",Солнцево,ЗАО
ВТБ,55.807436,37.406286,"г. Москва, ул. Маршала Катукова, д. 16",Строгино,СЗАО
ВТБ,55.771887,37.636313,"г. Москва, пл. Большая Сухаревская, д. 14/7",Красносельский,ЦАО
ВТБ,55.762144,37.609507,"г. Москва, ул. Тверская, д. 8, стр. 1",Тверской,ЦАО
ВТБ,55.759667,37.612103,"г. Москва, ул. Тверская, д. 6/1, стр. 7",Тверской,ЦАО
ВТБ,55.707839,37.72993,"г. Москва, ул. Люблинская, д. 4, корп. 1",Текстильщики,ЮВАО
ВТБ,55.818397,37.573537,"г. Москва, ш. Дмитровское, д. 13а",Тимирязевский,САО
ВТБ,55.709402,37.620861,"г. Москва, ул. Большая Тульская, д. 2",Даниловский,ЮАО
ВТБ,55.764456,37.555661,"г. Москва, ш. Звенигородское, д. 18/20",Пресненский,ЦАО
ВТБ,55.69367,37.532364,"г. Москва, просп. Ломоносовский, д. 25, корп. 1",Раменки,ЗАО
ВТБ,55.719791,37.57125,"г. Москва, просп. Комсомольский, д. 48",Хамовники,ЦАО
ВТБ,55.72095,37.577547,"г. Москва, ул. 3-я Фрунзенская, д. 9",Хамовники,ЦАО
ВТБ,55.851733,37.441034,"г. Москва, бул. Химкинский, д. 16, корп. 1",Северное Тушино,СЗАО
ВТБ,55.788849,37.466429,"г. Москва, ул. Генерала Глаголева, д. 30, корп. 2",Хорошёво-Мнёвники,СЗАО
ВТБ,55.762285,37.624396,"г. Москва, ул. Кузнецкий Мост, д. 17, стр. 1",Мещанский,ЦАО
ВТБ,55.670002,37.553142,"г. Москва, ул. Профсоюзная, д. 56",Обручевский,ЮЗАО
ВТБ,55.797184,37.71898,"г. Москва, ул. Большая Черкизовская, д. 5а",Преображенское,ВАО
ВТБ,55.639661,37.607492,"г. Москва, ул. Чертановская, д. 1в, корп. 1",Чертаново Северное,ЮАО
ВТБ,55.758851,37.752273,"г. Москва, ш. Энтузиастов, д. 31, стр. 39",Соколиная Гора,ВАО
ВТБ,55.810467,37.794762,"г. Москва, ш. Щелковское, д. 69",Гольяново,ВАО
ВТБ,55.663656,37.484617,"г. Москва, просп. Вернадского, д. 105, корп. 3",Тропарёво-Никулино,ЗАО
ВТБ,55.684503,37.621947,"г. Москва, ш. Варшавское, д. 26",Нагорный,ЮАО
ВТБ,55.622519,37.60623,"г. Москва, ул. Кировоградская, д. 14",Чертаново Северное,ЮАО
ВТБ,55.736692,37.664537,"г. Москва, ул. Марксистская, д. 5, стр. 1",Таганский,ЦАО
ВТБ,55.766015,37.63807,"г. Москва, ул. Мясницкая, д. 35",Красносельский,ЦАО
ВТБ,55.783429,37.596971,"г. Москва, ул. Новослободская, д. 41",Тверской,ЦАО
ВТБ,55.731969,37.637232,"г. Москва, ул. Бахрушина, д. 32, стр. 1",Замоскворечье,ЦАО
ВТБ,55.735832,37.520185,"г. Москва, пл. Победы, д. 1 Б",Дорогомилово,ЗАО
ВЭБ,55.753313,37.606413,"г. Москва, ул. Воздвиженка, д. 10",Арбат,ЦАО
Газпромбанк,55.659336,37.558602,"г. Москва, ул. Наметкина, д. 16, корп. 1",Черёмушки,ЮЗАО
Газпромбанк,55.787367,37.677765,"г. Москва, ул. Русаковская, д. 29",Сокольники,ВАО
Газпромбанк,55.794408,37.49228,"г. Москва, ул. Маршала Бирюзова, д. 16",Щукино,СЗАО
Газпромбанк,55.818619,37.573632,"г. Москва, ш. Дмитровское, д. 13а",Тимирязевский,САО
Газпромбанк,55.749431,37.537035,"г. Москва, наб. Пресненская, д. 12",Пресненский,ЦАО
Газпромбанк,55.70256,37.848335,"г. Москва, просп. Лермонтовский, д. 6",Выхино-Жулебино,ЮВАО
Газпромбанк,55.547097,37.552858,"г. Москва, бул. Адмирала Ушакова, д. 5",Южное Бутово,ЮЗАО
Газпромбанк,55.74484,37.567166,"г. Москва, пл. Киевского вокзала, д. 2",Дорогомилово,ЗАО
Газпромбанк,55.693404,37.556044,"г. Москва, просп. Ленинский, д. 63/2, корп. 1",Гагаринский,ЮЗАО
Газпромбанк,55.856414,37.653612,"г. Москва, ул. Снежная, д. 27",Свиблово,СВАО
Газпромбанк,55.739981,37.637474,"г. Москва, наб. Озерковская, д. 24",Замоскворечье,ЦАО
Газпромбанк,55.707216,37.658818,"г. Москва, ул. ул. Автозаводская, д. 9/1",Даниловский,ЮАО
Газпромбанк,55.741305,37.417583,"г. Москва, ул. Ярцевская, д. 32",Кунцево,ЗАО
Газпромбанк,55.849392,37.441496,"г. Москва, бул. Химкинский, д. 23",Южное Тушино,СЗАО
Газпромбанк,55.818465,37.497431,"г. Москва, ш. Ленинградское, д. 13, корп. 1",Войковский,САО
Газпромбанк,55.800882,37.532606,"г. Москва, просп. Ленинградский, д. 62",Аэропорт,САО
Газпромбанк,55.74528,37.581587,"г. Москва, ул. Смоленская, д. 3",Хамовники,ЦАО
Газпромбанк,55.650505,37.745924,"г. Москва, ул. Люблинская, д. 165",Марьино,ЮВАО
Газпромбанк,55.655262,37.618955,"г. Москва, ш. Варшавское, д. 74, корп. 2",Нагорный,ЮАО
Газпромбанк,55.739911,37.658763,"г. Москва, ул. Марксистская, д. 1, корп. 1",Таганский,ЦАО
Газпромбанк,55.782138,37.598729,"г. Москва, ул. Новослободская, д. 20",Тверской,ЦАО
Газпромбанк,55.782766,37.718051,"г. Москва, пл. Семеновская, д. 1а",Соколиная Гора,ВАО
Газпромбанк,55.71724,37.677692,"г. Москва, ул. Шарикоподшипниковская, д. 13, стр. 1",Южнопортовый,ЮВАО
Газпромбанк,55.778875,37.665497,"г. Москва, ул. Краснопрудная, д. 22—24",Красносельский,ЦАО
Газпромбанк,55.718372,37.788345,"г. Москва, просп. Рязанский, д. 71, корп. 1",Рязанский,ЮВАО
Газпромбанк,55.808851,37.461487,"г. Москва, ул. Маршала Василевского, д. 17",Щукино,СЗАО
Газпромбанк,55.643604,37.524934,"г. Москва, ул. Профсоюзная, д. 104/47",Коньково,ЮЗАО
Газпромбанк,55.855078,37.478082,"г. Москва, ул. Фестивальная, д. 2 Б",Левобережный,САО
Газпромбанк,55.673792,37.760433,"г. Москва, ул. Совхозная, д. 39",Люблино,ЮВАО
Газпромбанк,55.812078,37.799214,"г. Москва, ул. Уральская, д. 4г",Гольяново,ВАО
Газпромбанк,55.846229,37.362799,"г. Москва, ул. Митинская, д. 36",Митино,СЗАО
Газпромбанк,55.611119,37.606622,"г. Москва, ул. Красного Маяка, д. 2 Б",Чертаново Центральное,ЮАО
Газпромбанк,55.862137,37.604371,"г. Москва, ул. Хачатуряна, д. 20",Отрадное,СВАО
Газпромбанк,55.733735,37.613181,"г. Москва, ул. Большая Якиманка, д. 39",Якиманка,ЦАО
Газпромбанк,55.677567,37.509515,"г. Москва, просп. Вернадского, д. 37, корп. 2",Проспект Вернадского,ЗАО
Газпромбанк,55.746868,37.626145,"г. Москва, ул. Балчуг, д. 7",Замоскворечье,ЦАО
Газпромбанк,55.731348,37.665983,"г. Москва, пер. 3-й Крутицкий, д. 11",Южнопортовый,ЮВАО
Газпромбанк,55.803638,37.636895,"г. Москва, просп. Мира, д. 108",Алексеевский,СВАО
Газпромбанк,55.761538,37.569896,"г. Москва, ул. Красная Пресня, д. 21",Пресненский,ЦАО
Газпромбанк,55.640189,37.62285,"г. Москва, ш. Варшавское, д. 95, корп. 1",Чертаново Северное,ЮАО
Газпромбанк,55.708866,37.602925,"г. Москва, 2-й Верхний Михайловский пр-д, д. 9, стр. 11",Донской,ЮАО
Газпромбанк,55.66845,37.559858,"г. Москва, ул. Гарибальди, д. 36",Черёмушки,ЮЗАО
Газпромбанк,55.768956,37.645679,"г. Москва, ул. Мясницкая, д. 48",Красносельский,ЦАО
Газпромбанк,55.729004,37.618383,"г. Москва, ул. Коровий Вал, д. 9, стр. 2",Якиманка,ЦАО
Газпромбанк,55.782333,37.574093,"г. Москва, просп. Ленинградский, д. 24",Беговой,САО
Газпромбанк,55.69133,37.580646,"г. Москва, ул. Гримау, д. 6",Академический,ЮЗАО
Газпромбанк,55.738106,37.528607,"г. Москва, просп. Кутузовский, д. 43",Дорогомилово,ЗАО
Газпромбанк,55.702564,37.5093,"г. Москва, просп. Мичуринский, д. 7",Раменки,ЗАО
Газпромбанк,55.768338,37.622921,"г. Москва, бул. Цветной, д. 2",Мещанский,ЦАО
Газпромбанк,55.739535,37.596583,"г. Москва, ул. Остоженка, д. 25",Хамовники,ЦАО
Газпромбанк,55.758926,37.657215,"г. Москва, ул. Земляной Вал, д. 24/30, стр. 1",Басманный,ЦАО
Газэнергобанк,55.761421,37.650316,"г. Москва, ул. Чаплыгина, д. 17",Басманный,ЦАО
Гарант-Инвест,55.768545,37.619127,"Москва, пер. 1-й Колобовский, д. 23",Тверской,ЦАО
Генбанк,55.742285,37.673291,"г. Москва, ул. Малая Андроньевская, д. 20/8, стр. 1—1а",Таганский,ЦАО
Голдман Сакс Банк,55.768346,37.590536,"г. Москва, ул. Гашека, д. 6",Пресненский,ЦАО
Гута-Банк,55.772947,37.650566,"г. Москва, пер. Орликов, д. 5, стр. 3",Красносельский,ЦАО
Далена Банк,55.753214,37.723026,"г. Москва, ш. Энтузиастов, д. 17, стр. 1",Соколиная Гора,ВАО
Далена Банк,55.74233,37.58364,"г. Москва, бул. Смоленский, д. 17, стр. 1",Хамовники,ЦАО
Далена Банк,55.849819,37.670082,"г. Москва, ул. Енисейская, д. 1, стр. 1",Свиблово,СВАО
Далена Банк,55.76007,37.763324,"г. Москва, ш. Энтузиастов, д. 56, стр. 32",Перово,ВАО
Далена Банк,55.745558,37.659382,"г. Москва, пер. Пестовский, д. 5",Таганский,ЦАО
Далена Банк,55.791455,37.52147,"г. Москва, Березовой Рощи пр-д, д. 12",Хорошёвский,САО
Денизбанк Москва,55.761347,37.551712,"г. Москва, ул. 2-я Звенигородская, д. 13, стр. 42",Пресненский,ЦАО
Держава,55.735936,37.569539,"г. Москва, пер. Большой Саввинский, д. 2, стр. 9",Хамовники,ЦАО
Джей энд Ти Банк,55.745045,37.622092,"г. Москва, наб. Кадашевская, д. 26",Якиманка,ЦАО
Джей энд Ти Банк,55.739915,37.662717,"г. Москва, ул. Таганская, д. 26, стр. 1",Таганский,ЦАО
Дж. П. Морган Банк,55.778368,37.585915,"г. Москва, ул. Бутырский Вал, д. 10",Тверской,ЦАО
Дойче Банк,55.77784,37.586854,"г. Москва, ул. Лесная, д. 5",Тверской,ЦАО
ДОМ.РФ,55.753301,37.606263,"г. Москва, ул. Воздвиженка, д. 10",Арбат,ЦАО
Дружба,55.740173,37.654933,"г. Москва, ул. Воронцовская, д. 4, стр. 1",Таганский,ЦАО
Евроальянс,55.762163,37.626982,"г. Москва, ул. Кузнецкий Мост, д. 21/5",Мещанский,ЦАО
Еврофинанс Моснарбанк,55.751441,37.577372,"г. Москва, ул. Новый Арбат, д. 29",Арбат,ЦАО
Еком Банк,55.746702,37.537273,"г. Москва, наб. Пресненская, д. 10",Пресненский,ЦАО
Живаго Банк,55.777616,37.66097,"г. Москва, ул. Краснопрудная, д. 3—5, стр. 1",Красносельский,ЦАО
ЖК City Bay,55.830133,37.397219,"г. Москва, ш. Волоколамское, д. 97",Покровское-Стрешнево,СЗАО
ЖК Symphony 34,55.803502,37.54999,"г. Москва, 4-я ул. 8 Марта, д. 6а",Аэропорт,САО
ЖК Метрополия,55.724114,37.608428,"г. Москва, ул. Донская, д. 13",Якиманка,ЦАО
Зираат Банк,55.73906,37.658736,"г. Москва, ул. Марксистская, д. 16",Таганский,ЦАО
ИК Банк,55.782077,37.576045,"г. Москва, просп. Ленинградский, д. 20, стр. 1",Беговой,САО
Инбанк,55.738776,37.631637,"г. Москва, пер. Старый Толмачевский, д. 5",Замоскворечье,ЦАО
Инвестторгбанк,55.723608,37.636748,"г. Москва, ул. Дубининская, д. 45",Замоскворечье,ЦАО
Инвестторгбанк,55.799284,37.52704,"г. Москва, ул. Острякова, д. 3",Хорошёвский,САО
Инвестторгбанк,55.773322,37.631936,"г. Москва, просп. Мира, д. 3, корп. 1",Мещанский,ЦАО
Инвестторгбанк,55.659165,37.746421,"г. Москва, ул. Перерва, д. 39",Марьино,ЮВАО
Инвестторгбанк,55.791326,37.490561,"г. Москва, ул. Народного Ополчения, д. 44, корп. 1",Щукино,СЗАО
Инвестторгбанк,55.694417,37.532954,"г. Москва, просп. Ломоносовский, д. 25, корп. 1",Раменки,ЗАО
ИНГ Банк,55.780142,37.605741,"г. Москва, ул. Краснопролетарская, д. 36",Тверской,ЦАО
Индустриальный Сберегательный Банк,55.76228,37.616137,"г. Москва, пер. Дмитровский, д. 7",Тверской,ЦАО
Индустриальный Сберегательный Банк,55.741267,37.502663,"г. Москва, ул. Барклая, д. 8",Филёвский Парк,ЗАО
Интерпрогрессбанк,55.661317,37.626951,"г. Москва, ш. Старокаширское, д. 2, корп. 1, стр. 1",Нагатино-Садовники,ЮАО
Интерпрогрессбанк,55.788359,37.558092,"г. Москва, просп. Ленинградский, д. 33а",Беговой,САО
Интерпрогрессбанк,55.652845,37.754362,"г. Москва, ул. Новомарьинская, д. 12/12, корп. 1",Марьино,ЮВАО
Интерпрогрессбанк,55.651344,37.482495,"г. Москва, просп. Ленинский, д. 158",Тропарёво-Никулино,ЗАО
Интерпрогрессбанк,55.672113,37.631649,"г. Москва, ш. Каширское, д. 3, корп. 2, стр. 9",Нагатино-Садовники,ЮАО
Интерпрогрессбанк,55.691581,37.538166,"г. Москва, просп. Ломоносовский, д. 23",Гагаринский,ЮЗАО
Интерпрогрессбанк,55.777162,37.632826,"г. Москва, просп. Мира, д. 24, стр. 1",Мещанский,ЦАО
Интерпрогрессбанк,55.791819,37.748587,"г. Москва, ш. Измайловское, д. 71, корп. 4 Г-Д",Измайлово,ВАО
Интерпрогрессбанк,55.7899,37.748928,"г. Москва, ш. Измайловское, д. 71, корп. А",Измайлово,ВАО
Интерпрогрессбанк,55.650312,37.665228,"г. Москва, ш. Каширское, д. 31, стр. 26",Москворечье-Сабурово,ЮАО
Ишбанк,55.662385,37.555638,"г. Москва, ул. Наметкина, д. 13д",Черёмушки,ЮЗАО
Камкомбанк,55.68088,37.514928,"г. Москва, просп. Вернадского, д. 33",Ломоносовский,ЮЗАО
Капитал,55.704844,37.59782,"г. Москва, 5-й Донской пр-д, д. 21 Б, стр. 10",Донской,ЮАО
КИВИ Банк,55.637321,37.597683,"г. Москва, мкр. Северное Чертаново, д. 1а, корп. 1",Чертаново Северное,ЮАО
КИВИ Банк,55.745306,37.595735,"г. Москва, пер. Староконюшенный, д. 10",Хамовники,ЦАО
Коммерцбанк (Евразия),55.744104,37.619803,"г. Москва, наб. Кадашевская, д. 14, корп. 2",Якиманка,ЦАО
Коммерческий Индо Банк,55.739173,37.658697,"г. Москва, ул. Марксистская, д. 16",Таганский,ЦАО
Космос,55.759932,37.543377,"г. Москва, бул. Красногвардейский, д. 7, стр. 1",Пресненский,ЦАО
Космос,55.761115,37.598436,"г. Москва, ул. Большая Бронная, д. 7",Пресненский,ЦАО
Кошелев-Банк,55.707976,37.62061,"г. Москва, ул. Большая Тульская, д. 2",Даниловский,ЮАО
Кошелев-Банк,55.766868,37.633126,"г. Москва, бул. Сретенский, д. 5",Красносельский,ЦАО
Креди Агриколь КИБ,55.75956,37.63184,"г. Москва, пер. Большой Златоустинский, д. 1, стр. 6",Басманный,ЦАО
Кредит Европа Банк,55.778812,37.623054,"г. Москва, просп. Олимпийский, д. 14",Мещанский,ЦАО
Кредит Европа Банк,55.869799,37.661053,"г. Москва, ул. Менжинского, д. 23, корп. 1",Бабушкинский,СВАО
Кредит Европа Банк,55.780408,37.591845,"г. Москва, ул. Лесная, д. 20, стр. 1",Тверской,ЦАО
Кредит Европа Банк,55.855613,37.476659,"г. Москва, ул. Фестивальная, д. 13, корп. 1",Левобережный,САО
Кредит Европа Банк,55.89704,37.588268,"г. Москва, ш. Алтуфьевское, д. 86",Бибирево,СВАО
Кредит Европа Банк,55.785466,37.665826,"г. Москва, ул. Верхняя Красносельская, д. 3а",Красносельский,ЦАО
Кредит Европа Банк,55.640777,37.531315,"г. Москва, ул. Миклухо-Маклая, д. 32а",Коньково,ЮЗАО
Кредит Европа Банк,55.660867,37.74946,"г. Москва, ул. Перерва, д. 49",Марьино,ЮВАО
Кредит Европа Банк,55.744511,37.566093,"г. Москва, пл. Киевского Вокзала, д. 2",Дорогомилово,ЗАО
Кредит Европа Банк,55.7041,37.771449,"г. Москва, просп. Волгоградский, д. 94, корп. 1",Кузьминки,ЮВАО
Кредит Европа Банк,55.687188,37.545186,"г. Москва, просп. Ленинский, д. 75/9",Гагаринский,ЮЗАО
Кредит Европа Банк,55.746654,37.536729,"г. Москва, наб. Пресненская, д. 10",Пресненский,ЦАО
Кредит Европа Банк,55.731473,37.855583,"г. Москва, ул. Николая Старостина, д. 11",Новокосино,ВАО
Кредит Европа Банк,55.778825,37.622979,"г. Москва, просп. Олимпийский, д. 14",Мещанский,ЦАО
Кредит Европа Банк,55.730387,37.635781,"г. Москва, пл. Павелецкая, д. 2, стр. 2",Замоскворечье,ЦАО
Кредит Европа Банк,55.609652,37.605098,"г. Москва, ул. Кировоградская, д. 15",Чертаново Центральное,ЮАО
Кредит Европа Банк,55.781698,37.722853,"г. Москва ул. Вельяминовская, д. 6",Соколиная Гора,ВАО
Кредит Европа Банк,55.744445,37.582833,"г. Москва, пл. Смоленская-Сенная, д. 23/25",Хамовники,ЦАО
Кредит Урал Банк,55.722503,37.560998,"г. Москва, ул. Усачева, д. 35, стр. 1",Хамовники,ЦАО
Крокус-Банк,55.783192,37.51366,"г. Москва, ул. Куусинена, д. 11, корп. 3",Хорошёвский,САО
Кубань Кредит,55.760224,37.587029,"г. Москва, пер. Вспольный, д. 5, стр. 2",Пресненский,ЦАО
КЭБ ЭйчЭнБи Банк,55.752141,37.53268,"г. Москва, ул. Тестовская, д. 10",Пресненский,ЦАО
Ланта-Банк,55.738755,37.63109,"г. Москва, ул. Новокузнецкая, д. 9, стр. 2",Замоскворечье,ЦАО
Ланта-Банк,55.748094,37.599213,"г. Москва, бул. Гоголевский, д. 23",Арбат,ЦАО
Ланта-Банк,55.769857,37.667198,"г. Москва, ул. Новая Басманная, д. 35, стр. 1",Басманный,ЦАО
Локо-Банк,55.796572,37.536787,"г. Москва, просп. Ленинградский, д. 39, стр. 80",Хорошёвский,САО
Локо-Банк,55.781854,37.707193,"г. Москва, ул. Большая Семеновская, д. 28",Соколиная Гора,ВАО
Локо-Банк,55.799226,37.529653,"г. Москва, ул. Викторенко, д. 5, стр. 1",Хорошёвский,САО
Локо-Банк,55.870357,37.662016,"г. Москва, ул. Менжинского, д. 38, корп. 1, стр. 2",Бабушкинский,СВАО
Локо-Банк,55.642089,37.524449,"г. Москва, ул. Профсоюзная, д. 104",Коньково,ЮЗАО
Локо-Банк,55.767173,37.695853,"г. Москва, ул. Госпитальная, д. 14",Лефортово,ЮВАО
Локо-Банк,55.649749,37.745778,"г. Москва, ул. Люблинская, д. 165, корп. 2",Марьино,ЮВАО
Локо-Банк,55.752977,37.575446,"г. Москва, ул. Новый Арбат, д. 36, стр. 3",Арбат,ЦАО
Локо-Банк,55.7385,37.413331,"г. Москва, ул. Ярцевская, д. 22, стр. 1",Кунцево,ЗАО
Локо-Банк,55.740238,37.658257,"г. Москва, ул. Марксистская, д. 1, корп. 1",Таганский,ЦАО
Максима,55.776711,37.729763,"г. Москва, ул. Вольная, д. 13",Соколиная Гора,ВАО
МБА-Москва,55.757182,37.568695,"г. Москва, ул. Рочдельская, д. 14, стр. 1",Пресненский,ЦАО
МБА-Москва,55.761441,37.610293,"г. Москва, ул. Тверская, д. 6, стр. 2",Тверской,ЦАО
Международный Финансовый Клуб,55.747127,37.536218,"г. Москва, наб. Пресненская, д. 10",Пресненский,ЦАО
Международный Финансовый Клуб,55.762572,37.652187,"г. Москва, ул. Покровка, д. 43, стр. 1",Басманный,ЦАО
Международный Финансовый Клуб,55.760507,37.599637,"г. Москва, бул. Тверской, д. 13, стр. 1",Пресненский,ЦАО
Мерседес-Бенц Банк Рус,55.79558,37.54109,"г. Москва, просп. Ленинградский, д. 39а",Хорошёвский,САО
Металлинвестбанк,55.732973,37.620405,"г. Москва, ул. Большая Полянка, д. 47, стр. 2",Якиманка,ЦАО
Металлинвестбанк,55.752805,37.63362,"г. Москва, пл. Славянская, д. 2/5/4, стр. 3",Таганский,ЦАО
Металлинвестбанк,55.738843,37.638375,"г. Москва, наб. Озерковская, д. 28, стр. 1",Замоскворечье,ЦАО
Металлинвестбанк,55.796348,37.487413,"г. Москва, ул. Маршала Бирюзова, д. 31",Щукино,СЗАО
Металлинвестбанк,55.732806,37.619927,"г. Москва, ул. Большая Полянка, д. 47, стр. 1",Якиманка,ЦАО
Меткомбанк (Каменск-Уральский),55.644122,37.593719,"г. Москва, просп. Балаклавский, д. 28в, стр. Б",Зюзино,ЮЗАО
Мидзухо Банк,55.744118,37.63503,"г. Москва, наб. Овчинниковская, д. 20, стр. 1",Замоскворечье,ЦАО
Мир Бизнес Банк,55.740059,37.589048,"г. Москва, ул. Пречистенка, д. 36, стр. 1",Хамовники,ЦАО
Мир Привилегий,55.755471,37.589392,"г. Москва, ул. Поварская, д. 23, стр. 4",Арбат,ЦАО
Модульбанк,55.777555,37.649454,"г. Москва, Каланчевская ул., 16, стр. 1",Красносельский,ЦАО
Модульбанк,55.804936,37.589922,"г. Москва, ул. Новодмитровская, д. 2, корп. 1",Бутырский,СВАО
Морской Банк,55.704038,37.626029,"г. Москва, ш. Варшавское, д. 1а",Донской,ЮАО
Москва-Сити,55.725884,37.64952,"г. Москва, пер. 2-й Кожевнический, д. 7",Даниловский,ЮАО
Москва-Сити,55.762924,37.653,"г. Москва, ул. Покровка, д. 45, стр. 1",Басманный,ЦАО
Московский Индустриальный Банк,55.71,37.60087,"г. Москва, ул. Орджоникидзе, д. 5",Донской,ЮАО
Московский Индустриальный Банк,55.826874,37.515755,"г. Москва, ул. Клары Цеткин, д. 20",Коптево,САО
Московский Индустриальный Банк,55.715664,37.79303,"г. Москва, ул. 1-я Новокузьминская, д. 21, корп. 2",Рязанский,ЮВАО
Московский Индустриальный Банк,55.747873,37.576941,"г. Москва, наб. Смоленская, д. 2а",Арбат,ЦАО
Московский Индустриальный Банк,55.787847,37.59207,"г. Москва, ул. Новослободская, д. 57/65",Тверской,ЦАО
Московский Индустриальный Банк,55.799635,37.714844,"г. Москва, ул. Хромова, д. 1",Преображенское,ВАО
Московский Индустриальный Банк,55.730411,37.414426,"г. Москва, ул. Кунцевская, д. 13/6",Кунцево,ЗАО
Московский Индустриальный Банк,55.80275,37.515022,"г. Москва, ул. Песчаная, д. 4а",Сокол,САО
Московский Индустриальный Банк,55.677496,37.74437,"г. Москва, ул. Краснодарская, д. 13, стр. 2",Люблино,ЮВАО
Московский Индустриальный Банк,55.730827,37.625612,"г. Москва, ул. Пятницкая, д. 76",Замоскворечье,ЦАО
Московский Индустриальный Банк,55.783992,37.742003,"г. Москва, ул. Щербаковская, д. 57/20",Соколиная Гора,ВАО
Московский Индустриальный Банк,55.761523,37.785463,"г. Москва, ул. 3-я Владимирская, д. 8, корп. 1",Перово,ВАО
Московский Индустриальный Банк,55.705486,37.666526,"г. Москва, ул. Сайкина, д. 6/5",Даниловский,ЮАО
Московский Индустриальный Банк,55.737401,37.67915,"г. Москва, ул. Малая Калитниковская, д. 7",Таганский,ЦАО
Московский Индустриальный Банк,55.857912,37.656224,"г. Москва, ул. Кольская, д. 2, корп. 6",Бабушкинский,СВАО
Московский Индустриальный Банк,55.84137,37.455726,"г. Москва, ул. Свободы, д. 30",Южное Тушино,СЗАО
Московский Коммерческий Банк,55.726372,37.585112,"г. Москва, ул. 1-я Фрунзенская, д. 5",Хамовники,ЦАО
Московский Кредитный Банк,55.768277,37.632711,"г. Москва, пер. Луков, д. 2, стр. 1",Красносельский,ЦАО
Московский Кредитный Банк,55.657474,37.497707,"г. Москва, просп. Ленинский, д. 146",Тропарёво-Никулино,ЗАО
Московский Кредитный Банк,55.830659,37.515882,"г. Москва, ул. Коптевская, д. 69а, стр. 2",Коптево,САО
Московский Кредитный Банк,55.886711,37.522792,"г. Москва, ул. Клязьминская, д. 5",Дмитровский,САО
Московский Кредитный Банк,55.706289,37.623941,"г. Москва, пер. Холодильный, д. 6",Даниловский,ЮАО
Московский Кредитный Банк,55.664756,37.4235,"г. Москва, ул. Домостроительная, д. 4, стр. 1",Солнцево,ЗАО
Московский Кредитный Банк,55.728457,37.677304,"г. Москва, просп. Волгоградский, д. 18, стр. 1",Таганский,ЦАО
Московский Кредитный Банк,55.653172,37.515461,"г. Москва, ул. Академика Волгина, д. 6а, стр. 3",Обручевский,ЮЗАО
Московский Кредитный Банк,55.768284,37.632709,"г. Москва, пер. Луков, д. 2, стр. 1",Красносельский,ЦАО
Московский Кредитный Банк,55.795449,37.492842,"г. Москва, ул. Маршала Соколовского, д. 1",Щукино,СЗАО
Московский Кредитный Банк,55.708552,37.659897,"г. Москва, ул. Автозаводская, д. 8",Даниловский,ЮАО
Московский Кредитный Банк,55.596388,37.599887,"г. Москва, ул. Академика Янгеля, д. 2",Чертаново Южное,ЮАО
Московский Кредитный Банк,55.68456,37.570782,"г. Москва, ул. Профсоюзная, д. 5/9",Академический,ЮЗАО
Московский Кредитный Банк,55.894326,37.588231,"г. Москва, ш. Алтуфьевское, д. 80",Бибирево,СВАО
Московский Кредитный Банк,55.869017,37.666047,"г. Москва, ул. Менжинского, д. 21",Бабушкинский,СВАО
Московский Кредитный Банк,55.744772,37.498838,"г. Москва, ул. Барклая, д. 12",Филёвский Парк,ЗАО
Московский Кредитный Банк,55.773029,37.677122,"г. Москва, ул. Нижняя Красносельская, д. 45/17, стр. 1",Басманный,ЦАО
Московский Кредитный Банк,55.643571,37.524548,"г. Москва, ул. Миклухо-Маклая, д. 47а",Коньково,ЮЗАО
Московский Кредитный Банк,55.657834,37.747435,"г. Москва, ул. Перерва, д. 56/2",Марьино,ЮВАО
Московский Кредитный Банк,55.826032,37.647519,"г. Москва, просп. Мира, д. 182",Алексеевский,СВАО
Московский Кредитный Банк,55.818899,37.497017,"г. Москва, ш. Ленинградское, д. 13, корп. 1",Войковский,САО
Московский Кредитный Банк,55.681148,37.852123,"г. Москва, ул. Генерала Кузнецова, д. 27, корп. 1",Выхино-Жулебино,ЮВАО
Московский Кредитный Банк,55.791001,37.772954,"г. Москва, ул. Первомайская, д. 5",Измайлово,ВАО
Московский Кредитный Банк,55.635114,37.658014,"г. Москва, просп. Пролетарский, д. 29",Царицыно,ЮАО
Московский Кредитный Банк,55.680876,37.662778,"г. Москва, просп. Андропова, д. 26",Нагатино-Садовники,ЮАО
Московский Кредитный Банк,55.614561,37.743367,"г. Москва, бул. Ореховый, д. 45, корп. 1",Зябликово,ЮАО
Московский Кредитный Банк,55.760511,37.408481,"г. Москва, бул. Осенний, д. 16, корп. 1",Крылатское,ЗАО
Московский Кредитный Банк,55.709225,37.764654,"г. Москва, ул. Зеленодольская, д. 36, корп. 2",Кузьминки,ЮВАО
Московский Кредитный Банк,55.750866,37.715424,"г. Москва, ш. Энтузиастов, д. 20, стр. 2",Лефортово,ЮВАО
Московский Кредитный Банк,55.850025,37.355356,"г. Москва, ул. Митинская, д. 48",Митино,СЗАО
Московский Кредитный Банк,55.702764,37.509869,"г. Москва, просп. Мичуринский, д. 7",Раменки,ЗАО
Московский Кредитный Банк,55.718502,37.42015,"г. Москва, ш. Можайское, д. 31, корп. 1",Кунцево,ЗАО
Московский Кредитный Банк,55.752273,37.815225,"г. Москва, просп. Зеленый, д. 77, корп. 1",Новогиреево,ВАО
Московский Кредитный Банк,55.734873,37.854302,"г. Москва, ул. Новокосинская, д. 11, корп. 1",Новокосино,ВАО
Московский Кредитный Банк,55.6413,37.364203,"г. Москва, ул. Новопеределкинская, д. 13а",Ново-Переделкино,ЗАО
Московский Кредитный Банк,55.795506,37.492676,"г. Москва, ул. Маршала Соколовского, д. 1",Щукино,СЗАО
Московский Кредитный Банк,55.861536,37.603765,"г. Москва, ул. Хачатуряна, д. 20",Отрадное,СВАО
Московский Кредитный Банк,55.845635,37.569224,"г. Москва, ш. Дмитровское, д. 50, корп. 1",Тимирязевский,САО
Московский Кредитный Банк,55.794947,37.706454,"г. Москва, ул. Преображенская, д. 2, корп. 1",Преображенское,ВАО
Московский Кредитный Банк,55.763933,37.564114,"г. Москва, ул. Пресненский Вал, д. 4/29",Пресненский,ЦАО
Московский Кредитный Банк,55.854824,37.473601,"г. Москва, ул. Фестивальная, д. 5",Левобережный,САО
Московский Кредитный Банк,55.718537,37.787293,"г. Москва, просп. Рязанский, д. 69",Рязанский,ЮВАО
Московский Кредитный Банк,55.651442,37.598877,"г. Москва, ул. Азовская, д. 25, корп. 1",Зюзино,ЮЗАО
Московский Кредитный Банк,55.805324,37.400873,"г. Москва, бул. Строгинский, д. 7, корп. 1",Строгино,СЗАО
Московский Кредитный Банк,55.850944,37.434037,"г. Москва, бул. Яна Райниса, д. 2, корп. 1",Северное Тушино,СЗАО
Московский Кредитный Банк,55.740468,37.654144,"г. Москва, ул. Воронцовская, д. 2/10, стр. 1",Таганский,ЦАО
Московский Кредитный Банк,55.819806,37.580487,"г. Москва, ул. Яблочкова, д. 21",Бутырский,СВАО
Московский Кредитный Банк,55.663605,37.484437,"г. Москва, просп. Вернадского, д. 105, корп. 3",Тропарёво-Никулино,ЗАО
Московский Кредитный Банк,55.535186,37.527471,"г. Москва, ул. Южнобутовская, д. 69",Южное Бутово,ЮЗАО
Московский Кредитный Банк,55.604056,37.539721,"г. Москва, просп. Новоясеневский, д. 32, корп. 1",Ясенево,ЮЗАО
Московский Кредитный Банк,55.772784,37.621966,"г. Москва, бул. Цветной, д. 32, стр. 1",Мещанский,ЦАО
Московский Кредитный Банк,55.786432,37.508881,"г. Москва, ул. Зорге, д. 17",Хорошёвский,САО
Московский Кредитный Банк,55.732071,37.685122,"г. Москва, Михайловский пр-д, д. 3, стр. 3",Таганский,ЦАО
Московский Кредитный Банк,55.731174,37.685069,"г. Москва, Михайловский пр-д, д. 3, стр. 25",Таганский,ЦАО
Московский Кредитный Банк,55.650232,37.620357,"г. Москва, ш. Варшавское, д. 91а",Нагорный,ЮАО
Московский Кредитный Банк,55.646145,37.672424,"г. Москва, ш. Каширское, д. 39, корп. 1",Москворечье-Сабурово,ЮАО
Московский Кредитный Банк,55.653809,37.776735,"г. Москва, ул. Марьинский Парк, д. 1",Марьино,ЮВАО
Московский Кредитный Банк,55.715768,37.683249,"г. Москва, 2-я ул. Машиностроения, д. 6",Печатники,ЮВАО
Московский Областной Банк,55.781772,37.708966,"г. Москва, ул. Большая Семеновская, д. 32, стр. 1",Соколиная Гора,ВАО
Московский Областной Банк,55.72793,37.62441,"г. Москва, ул. Большая Серпуховская, д. 14/13, стр. 1",Замоскворечье,ЦАО
Москоммерцбанк,55.736697,37.625207,"г. Москва, ул. Малая Ордынка, д. 20, стр. 1",Замоскворечье,ЦАО
Москоммерцбанк,55.763842,37.642839,"г. Москва, пер. Гусятников, д. 13/3",Басманный,ЦАО
МС Банк Рус,55.656191,37.526603,"г. Москва, ул. Обручева, д. 30/1, стр. 2",Коньково,ЮЗАО
МС Банк Рус,55.721214,37.701718,"г. Москва, Остаповский пр-д, д. 4",Нижегородский,ЮВАО
МС Банк Рус,55.721214,37.701718,"г. Москва, Остаповский пр-д, д. 4",Нижегородский,ЮВАО
МС Банк Рус,55.621177,37.616407,"г. Москва, ш. Варшавское, д. 127",Чертаново Центральное,ЮАО
МС Банк Рус,55.767205,37.522998,"г. Москва, 2-й Магистральный тупик, д. 5а, стр. 4",Хорошёвский,САО
МС Банк Рус,55.767205,37.522998,"г. Москва, 2-й Магистральный тупик, д. 5а, стр. 4",Хорошёвский,САО
МС Банк Рус,55.862636,37.582933,"г. Москва, ш. Алтуфьевское, д. 31, корп. 1",Отрадное,СВАО
МС Банк Рус,55.863899,37.463341,"г. Москва, ш. Ленинградское, д. 63 Б",Левобережный,САО
МС Банк Рус,55.861465,37.580454,"г. Москва, ш. Алтуфьевское, д. 31, стр. 1",Отрадное,СВАО
МС Банк Рус,55.656915,37.536023,"г. Москва, ул. Обручева, д. 27, корп.1",Обручевский,ЮЗАО
МС Банк Рус,55.719987,37.776215,"г. Москва, просп. Рязанский, д. 24, корп. 3",Рязанский,ЮВАО
МС Банк Рус,55.76725,37.522915,"г. Москва, 2-й Магистральный тупик, д. 5а, стр. 4",Хорошёвский,САО
МС Банк Рус,55.65683,37.536388,"г. Москва, ул. Обручева, д. 27, корп.1",Обручевский,ЮЗАО
МС Банк Рус,55.859953,37.687848,"г. Москва, ш. Ярославское, д. 31",Ярославский,СВАО
МС Банк Рус,55.861962,37.582532,"г. Москва, ш. Алтуфьевское, д. 31, стр. 8",Отрадное,СВАО
МС Банк Рус,55.859953,37.687848,"г. Москва, ш. Ярославское, д. 31",Ярославский,СВАО
МСП Банк,55.734929,37.64351,"г. Москва, ул. Садовническая, д. 79",Замоскворечье,ЦАО
МТИ Банк,55.72808,37.614908,"г. Москва, ул. Мытная, д. 1, стр. 1",Якиманка,ЦАО
МТИ Банк,55.836489,37.499708,"г. Москва, ул. Выборгская, д. 9а, стр. 1",Войковский,САО
МТИ Банк,55.836031,37.490433,"г. Москва, ул. Адмирала Макарова, д. 6, стр. 13",Войковский,САО
МТИ Банк,55.686113,37.438061,"г. Москва, ш. Очаковское, д. 32",Очаково-Матвеевское,ЗАО
МТС Банк,55.695164,37.662707,"г. Москва, просп. Андропова, д. 18, корп. 1",Даниловский,ЮАО
МТС Банк,55.753103,37.610296,"г. Москва, ул. Воздвиженка, д. 4/7, стр. 2",Арбат,ЦАО
МТС Банк,55.821824,37.57261,"г. Москва, ш. Дмитровское, д. 19, корп. 2",Тимирязевский,САО
МТС Банк,55.711093,37.618309,"г. Москва, ул. Серпуховский Вал, д. 3, корп. 1",Даниловский,ЮАО
МТС Банк,55.621886,37.612184,"г. Москва, ул. Кировоградская, д. 9, корп. 4",Чертаново Северное,ЮАО
МТС Банк,55.750499,37.582477,"г. Москва, бул. Новинский, д. 1/2",Арбат,ЦАО
МТС Банк,55.6918,37.660176,"г. Москва, просп. Андропова, д. 18, корп. 9",Даниловский,ЮАО
МТС Банк,55.7572,37.407056,"г. Москва, бул. Осенний, д. 5, корп. 1",Крылатское,ЗАО
МТС Банк,55.806173,37.637335,"г. Москва, просп. Мира, д. 112",Алексеевский,СВАО
МТС Банк,55.767952,37.605859,"г. Москва, ул. Малая Дмитровка, д. 5/9",Тверской,ЦАО
МТС Банк,55.740813,37.655691,"г. Москва, ул. Воронцовская, д. 1/3, стр. 2",Таганский,ЦАО
МТС Банк,55.767111,37.593024,"г. Москва, ул. Большая Садовая, д. 10",Пресненский,ЦАО
МТС Банк,55.761554,37.632675,"г. Москва, ул. Мясницкая, д. 11",Красносельский,ЦАО
МТС Банк,55.826873,37.444495,"г. Москва, ул. Тушинская, д. 17",Покровское-Стрешнево,СЗАО
МТС Банк,55.795446,37.490518,"г. Москва, ул. Маршала Бирюзова, д. 20, стр. 1",Щукино,СЗАО
МТС Банк,55.695176,37.662712,"г. Москва, просп. Андропова, д. 18, корп. 1",Даниловский,ЮАО
Муниципальный Камчатпрофитбанк,55.791104,37.575323,"г. Москва, ул. Нижняя Масловка, д. 11, корп. 1",Беговой,САО
Народный Доверительный Банк,55.720402,37.636522,"г. Москва, ул. Дубининская д. 57, стр. 1",Даниловский,ЮАО
Народный Доверительный Банк,55.744982,37.579044,"г. Москва, ул. Плющиха, д. 10",Хамовники,ЦАО
Натиксис Банк,55.768651,37.622828,"г. Москва, бул. Цветной, д. 2",Мещанский,ЦАО
Нацинвестпромбанк,55.74004,37.58245,"г. Москва, пер. 2-й Неопалимовский, д. 10",Хамовники,ЦАО
Нацинвестпромбанк,55.893657,37.543875,"г. Москва, ш. Дмитровское, д. 110, стр. 3",Дмитровский,САО
Нацинвестпромбанк,55.620992,37.610047,"г. Москва, ш. Варшавское, д. 132, стр. 9",Чертаново Центральное,ЮАО
Национальный Банк Сбережений,55.760276,37.566459,"г. Москва, пер. Большой Предтеченский, д. 22",Пресненский,ЦАО
Национальный Резервный Банк,55.692918,37.574958,"г. Москва, просп. 60-летия Октября, д. 10а",Академический,ЮЗАО
Национальный Резервный Банк,55.692772,37.574669,"г. Москва, просп. 60-летия Октября, д. 10а",Академический,ЮЗАО
Национальный Стандарт,55.719188,37.629128,"г. Москва, пер. Партийный, д. 1, корп. 57, стр. 2, 3",Даниловский,ЮАО
Национальный Стандарт,55.734478,37.62414,"г. Москва, ул. Большая Ордынка, д. 52",Якиманка,ЦАО
НК Банк,55.775864,37.593138,"г. Москва, пл. Миусская, д. 2",Тверской,ЦАО
Новикомбанк,55.73224,37.619775,"г. Москва, ул. Большая Полянка, д. 50/1, стр. 1",Якиманка,ЦАО
Новикомбанк,55.727867,37.568847,"г. Москва, ул. Усачева, д. 24",Хамовники,ЦАО
Новикомбанк,55.739617,37.612259,"г. Москва, наб. Якиманская, д. 2",Якиманка,ЦАО
Новый Век,55.726313,37.62897,"г. Москва, ул. Щипок, д. 4, стр. 1",Замоскворечье,ЦАО
Новый Московский Банк,55.735668,37.569311,"г. Москва, пер. Большой Саввинский, д. 2-4-6, стр. 10",Хамовники,ЦАО
Новый Московский Банк,55.745098,37.566233,"г. Москва, пл. Киевского вокзала, д. 2",Дорогомилово,ЗАО
Новый Московский Банк,55.744705,37.565643,"г. Москва, пл. Киевского вокзала, д. 2",Дорогомилово,ЗАО
Новый Московский Банк,55.811007,37.800901,"г. Москва, ш. Щелковское, д. 75",Гольяново,ВАО
Новый Московский Банк,55.605226,37.286346,"г. Москва, Внуково, ул. 2-я Рейсовая, д. 2, корп. 5",Внуково,ЗАО
Новый Московский Банк,55.744632,37.566072,"г. Москва, пл. Киевского вокзала, д. 2",Дорогомилово,ЗАО
Новый Московский Банк,55.744469,37.566051,"г. Москва, пл. Киевского вокзала, д. 2",Дорогомилово,ЗАО
Новый Московский Банк,55.751499,37.565689,"г. Москва, просп. Кутузовский, д. 2/1, стр. 1",Дорогомилово,ЗАО
Новый Московский Банк,55.750332,37.583801,"г. Москва, бул. Новинский, д. 8, стр. 2",Арбат,ЦАО
НОКССбанк,55.749395,37.536967,"г. Москва, наб. Пресненская, д. 12",Пресненский,ЦАО
Ноосфера,55.710427,37.655041,"г. Москва, ул. Ленинская Слобода, д. 26",Даниловский,ЮАО
Норвик Банк,55.732006,37.640484,"г. Москва, ул. Зацепский Вал, д. 5",Замоскворечье,ЦАО
Норвик Банк,55.771899,37.593435,"г. Москва, ул. 1-я Тверская-Ямская, д. 8",Тверской,ЦАО
Норвик Банк,55.755398,37.585682,"г. Москва, бул. Новинский, д. 20а, стр. 8",Арбат,ЦАО
Норвик Банк,55.731969,37.640489,"г. Москва, ул. Зацепский Вал, д. 5",Замоскворечье,ЦАО
НС Банк,55.743988,37.668262,"г. Москва, ул. Добровольческая, д. 20, стр. 2",Таганский,ЦАО
НС Банк,55.644367,37.494601,"г. Москва, ул. Островитянова, д. 7",Обручевский,ЮЗАО
НС Банк,55.651619,37.596112,"г. Москва, ул. Азовская, д. 24, корп. 2",Зюзино,ЮЗАО
НС Банк,55.755804,37.656729,"г. Москва, ул. Земляной Вал, д. 34, стр. 4",Басманный,ЦАО
НС Банк,55.786144,37.722815,"г. Москва, ул. Ткацкая, д. 5, стр. 3",Соколиная Гора,ВАО
НС Банк,55.761051,37.602426,"г. Москва, бул. Тверской, д. 20, стр. 1",Пресненский,ЦАО
НС Банк,55.848617,37.438962,"г. Москва, ул. Сходненская, д. 35, корп. 1",Южное Тушино,СЗАО
НС Банк,55.670096,37.5658,"г. Москва, ул. Новочеремушкинская, д. 50",Черёмушки,ЮЗАО
НС Банк,55.589961,37.597376,"г. Москва, ш. Варшавское, д. 152, корп. 11",Чертаново Южное,ЮАО
Озон Банк,55.746625,37.537414,"г. Москва, наб. Пресненская, д. 10",Пресненский,ЦАО
ОТП Банк,55.821567,37.49828,"г. Москва, ш. Ленинградское, д. 16а, стр. 2",Войковский,САО
ОТП Банк,55.821573,37.498725,"г. Москва, ш. Ленинградское, д. 16а, стр. 2",Войковский,САО
ОТП Банк,55.745728,37.561878,"г. Москва, ул. Большая Дорогомиловская, д. 1",Дорогомилово,ЗАО
ОТП Банк,55.755326,37.65768,"г. Москва, ул. Земляной Вал, д. 39/1, стр. 1",Басманный,ЦАО
ОТП Банк,55.794965,37.711705,"г. Москва, пл. Преображенская, д. 6",Преображенское,ВАО
ОТП Банк,55.667821,37.5532,"г. Москва, ул. Профсоюзная, д. 43, корп. 1",Черёмушки,ЮЗАО
ОТП Банк,55.703971,37.773022,"г. Москва, просп. Волгоградский, д. 98, корп. 2, стр. 2",Кузьминки,ЮВАО
ОТП Банк,55.821152,37.497395,"г. Москва, ш. Ленинградское, д. 16а, стр. 1",Войковский,САО
ОТП Банк,55.675928,37.52855,"г. Москва, просп. Ленинский, д. 93",Ломоносовский,ЮЗАО
ОТП Банк,55.738303,37.661472,"г. Москва, ул. Марксистская, д. 3, корп. 1",Таганский,ЦАО
ОТП Банк,55.65914,37.751462,"г. Москва, бул. Мячковский, д. 1",Марьино,ЮВАО
ОТП Банк,55.789429,37.635105,"г. Москва, просп. Мира, д. 74, стр. 1",Мещанский,ЦАО
ОТП Банк,55.851116,37.435404,"г. Москва, бул. Яна Райниса, д. 2, корп. 1",Северное Тушино,СЗАО
Первый Инвестиционный Банк,55.873821,37.553238,"г. Москва, бул. Бескудниковский, д. 36, корп. 1",Бескудниковский,САО
Первый Инвестиционный Банк,55.706883,37.592096,"г. Москва, ул. Вавилова, д. 3",Донской,ЮАО
Первый Клиентский Банк,55.709603,37.655413,"г. Москва, ул. Ленинская Слобода, д. 19, стр. 1",Даниловский,ЮАО
Первый Клиентский Банк,55.768742,37.667632,"г. Москва, ул. Старая Басманная, д. 33",Басманный,ЦАО
Первый Клиентский Банк,55.723647,37.648638,"г. Москва, ул. Дербеневская, д. 14, корп. 2",Даниловский,ЮАО
Пересвет,55.723226,37.609805,"г. Москва, ул. Шаболовка, д. 10, корп. 2",Якиманка,ЦАО
Пересвет,55.723207,37.603945,"г. Москва, просп. Ленинский, д. 11, стр. 1",Якиманка,ЦАО
Петербургский Социальный Коммерческий Банк,55.774718,37.682174,"г. Москва, ул. Бакунинская, д. 17/28",Басманный,ЦАО
Пойдём!,55.804301,37.583432,"г. Москва, ул. Бутырская, д. 76, стр. 1",Бутырский,СВАО
Почта Банк,55.751721,37.71565,"г. Москва, ш. Энтузиастов, д. 13",Лефортово,ЮВАО
Почта Банк,55.860056,37.644865,"г. Москва, ул. Ивовая, д. 7",Свиблово,СВАО
Почта Банк,55.792894,37.49148,"г. Москва, ул. Народного Ополчения, д. 45",Щукино,СЗАО
Почта Банк,55.653727,37.559486,"г. Москва, ул. Херсонская, д. 37",Черёмушки,ЮЗАО
Почта Банк,55.792343,37.625246,"г. Москва, ул. Сущевский Вал, д. 62",Мещанский,ЦАО
Почта Банк,55.813929,37.62026,"г. Москва, ул. Аргуновская, д. 4",Останкинский,СВАО
Почта Банк,55.87527,37.493251,"г. Москва, ул. Зеленоградская, д. 31",Ховрино,САО
Почта Банк,55.872116,37.652049,"г. Москва, Дежнева пр-д, д. 2а",Южное Медведково,СВАО
Почта Банк,55.839044,37.528318,"г. Москва, ул. Михалковская, д. 13",Коптево,САО
Почта Банк,55.745602,37.511765,"г. Москва, Багратионовский пр-д, д. 1, стр. 1",Филёвский Парк,ЗАО
Почта Банк,55.81871,37.573501,"г. Москва, ш. Дмитровское, д. 13а",Тимирязевский,САО
Почта Банк,55.776897,37.480523,"г. Москва, ул. Народного Ополчения, д. 20, корп. 1",Хорошёво-Мнёвники,СЗАО
Почта Банк,55.821371,37.497666,"г. Москва, ш. Ленинградское, д. 16а, стр. 1",Войковский,САО
Почта Банк,55.76375,37.555518,"г. Москва, ш. Звенигородское, д. 3а",Пресненский,ЦАО
Почта Банк,55.739197,37.414262,"г. Москва, ул. Ярцевская, д. 24, корп. 1",Кунцево,ЗАО
Почта Банк,55.673768,37.760422,"г. Москва, ул. Совхозная, д. 39",Люблино,ЮВАО
Почта Банк,55.805133,37.516952,"г. Москва, просп. Ленинградский, д. 74, корп. 1",Аэропорт,САО
Почта Банк,55.876109,37.637431,"г. Москва, ул. Полярная, д. 16, корп. 1",Южное Медведково,СВАО
Почта Банк,55.686137,37.849832,"г. Москва, ул. Авиаконструктора Миля, д. 4, корп. 1",Выхино-Жулебино,ЮВАО
Почта Банк,55.84427,37.546309,"г. Москва, ул. Лихоборские Бугры, д. 14",Коптево,САО
Почта Банк,55.885924,37.60801,"г. Москва, ул. Плещеева, д. 3",Бибирево,СВАО
Почта Банк,55.596457,37.599822,"г. Москва, ул. Академика Янгеля, д. 2",Чертаново Южное,ЮАО
Почта Банк,55.746167,37.565458,"г. Москва, ул. Большая Дорогомиловская, д. 8",Дорогомилово,ЗАО
Почта Банк,55.776897,37.480523,"г. Москва, ул. Народного Ополчения, д. 20, корп. 1",Хорошёво-Мнёвники,СЗАО
Почта Банк,55.872116,37.652049,"г. Москва, Дежнева пр-д, д. 2а",Южное Медведково,СВАО
Почта Банк,55.635242,37.384912,"г. Москва, ул. Родниковая, д. 16",Солнцево,ЗАО
Почта Банк,55.751721,37.71565,"г. Москва, ш. Энтузиастов, д. 13",Лефортово,ЮВАО
Почта Банк,55.566856,37.576244,"г. Москва, бул. Дмитрия Донского, д. 11",Северное Бутово,ЮЗАО
Почта Банк,55.795017,37.712721,"г. Москва, пл. Преображенская, д. 8",Преображенское,ВАО
Почта Банк,55.784266,37.456534,"г. Москва, ул. Живописная, д. 12, корп. 1",Хорошёво-Мнёвники,СЗАО
Почта Банк,55.892752,37.529053,"г. Москва, ул. Клязьминская, д. 19",Дмитровский,САО
Почта Банк,55.888282,37.651489,"г. Москва, ул. Широкая, д. 1, корп. 1",Северное Медведково,СВАО
Почта Банк,55.845426,37.440069,"г. Москва, ул. Сходненская, д. 44/17",Южное Тушино,СЗАО
Почта Банк,55.794431,37.774876,"г. Москва, пл. Измайловская, д. 11",Измайлово,ВАО
Почта Банк,55.682117,37.456946,"г. Москва, ул. Большая Очаковская, д. 17",Очаково-Матвеевское,ЗАО
Почта Банк,55.850608,37.414971,"г. Москва, бул. Яна Райниса, д. 22, корп. 1",Северное Тушино,СЗАО
Почта Банк,55.73102,37.641491,"г. Москва, ул. Кожевническая, д. 1 стр. 1",Замоскворечье,ЦАО
Почта Банк,55.65712,37.485447,"г. Москва, ул. 26 Бакинских Комиссаров, д. 7, корп. 4",Тропарёво-Никулино,ЗАО
Почта Банк,55.775708,37.497554,"г. Москва, просп. Маршала Жукова, д. 9",Хорошёво-Мнёвники,СЗАО
Почта Банк,55.641891,37.365307,"г. Москва, ул. Новопеределкинская, д. 14, корп. А",Ново-Переделкино,ЗАО
Почта Банк,55.740255,37.826998,"г. Москва, ул. Старый Гай, д. 8 Б",Вешняки,ВАО
Почта Банк,55.706645,37.666026,"г. Москва, ул. Сайкина, д. 2",Даниловский,ЮАО
Почта Банк,55.638324,37.80043,"г. Москва, 2-й квартал Капотни, д. 22",Капотня,ЮВАО
Почта Банк,55.86582,37.468391,"г. Москва, Валдайский пр-д, д. 8, стр. 2",Левобережный,САО
Почта Банк,55.690655,37.60708,"г. Москва, просп. Севастопольский, д. 11, корп. 1",Донской,ЮАО
Почта Банк,55.627541,37.654825,"г. Москва, бул. Кавказский, д. 35/2, корп. 1",Царицыно,ЮАО
Почта Банк,55.641139,37.533372,"г. Москва, ул. Миклухо-Маклая, д. 55",Коньково,ЮЗАО
Почта Банк,55.856565,37.348522,"г. Москва, ш. Пятницкое, д. 43, корп. 2",Митино,СЗАО
Почта Банк,55.792692,37.576842,"г. Москва, ул. Башиловская, д. 1, корп. 1",Савёловский,САО
Почта Банк,55.679257,37.573774,"г. Москва, ул. Кржижановского, д. 17, корп. 1",Академический,ЮЗАО
Почта Банк,55.758732,37.40672,"г. Москва, бул. Осенний, д. 11",Крылатское,ЗАО
Почта Банк,55.870763,37.631475,"г. Москва, Дежнева пр-д, д. 34, стр. 2",Южное Медведково,СВАО
Почта Банк,55.786324,37.471476,"г. Москва, ул. Маршала Тухачевского, д. 32, корп. 2",Хорошёво-Мнёвники,СЗАО
Почта Банк,55.653646,37.764533,"г. Москва, ул. Братиславская, д. 26",Марьино,ЮВАО
Почта Банк,55.594571,37.611025,"г. Москва, ул. Россошанская, д. 7, корп. 1 Б",Чертаново Южное,ЮАО
Почта Банк,55.641766,37.61449,"г. Москва, просп. Балаклавский, д. 6 Б",Нагорный,ЮАО
Почта Банк,55.673946,37.661656,"г. Москва, просп. Андропова, д. 38",Нагатино-Садовники,ЮАО
Почта Банк,55.850431,37.451338,"г. Москва, бул. Химкинский, д. 1",Южное Тушино,СЗАО
Почта Банк,55.675898,37.466663,"г. Москва, просп. Мичуринский, Олимпийская Деревня, д. 3",Тропарёво-Никулино,ЗАО
Почта Банк,55.790871,37.790133,"г. Москва, ул. 6-я Парковая, д. 13",Измайлово,ВАО
Почта Банк,55.703455,37.816831,"г. Москва, ул. Ташкентская, д. 15/22",Выхино-Жулебино,ЮВАО
Почта Банк,55.786549,37.593534,"г. Москва, ул. Новослободская, д. 49/2",Тверской,ЦАО
Почта Банк,55.61923,37.73709,"г. Москва, ул. Шипиловская, д. 50, корп. 3, стр. 1",Зябликово,ЮАО
Почта Банк,55.6044,37.521404,"г. Москва, ул. Вильнюсская, д. 6",Ясенево,ЮЗАО
Почта Банк,55.887879,37.669294,"г. Москва, ул. Широкая, д. 17, корп. 1",Северное Медведково,СВАО
Почта Банк,55.712192,37.607044,"г. Москва, ул. Шаболовка, д. 69/32",Даниловский,ЮАО
Почта Банк,55.771067,37.832655,"г. Москва, ш. Энтузиастов, д. 98г, стр. 1",Ивановское,ВАО
Почта Банк,55.613971,37.494996,"г. Москва, ул. Генерала Тюленева, д. 41а",Тёплый Стан,ЮЗАО
Почта Банк,55.807617,37.465085,"г. Москва, ул. Маршала Василевского, д. 15",Щукино,СЗАО
Почта Банк,55.69937,37.854323,"г. Москва, просп. Лермонтовский, д. 12",Выхино-Жулебино,ЮВАО
Почта Банк,55.756299,37.620944,"г. Москва, ул. Никольская, д. 7",Тверской,ЦАО
Почта Банк,55.61893,37.706583,"г. Москва, ул. Шипиловская, д. 13, корп. 2",Орехово-Борисово Северное,ЮАО
Почта Банк,55.795657,37.560067,"г. Москва, ул. Верхняя Масловка, д. 21",Аэропорт,САО
Почта Банк,55.807617,37.465085,"г. Москва, ул. Маршала Василевского, д. 15",Щукино,СЗАО
Почта Банк,55.679257,37.573774,"г. Москва, ул. Кржижановского, д. 17, корп. 1",Академический,ЮЗАО
Почта Банк,55.642048,37.477069,"г. Москва, просп. Ленинский, д. 135, корп. 2",Тёплый Стан,ЮЗАО
Почта Банк,55.58352,37.599873,"г. Москва, ш. Варшавское, д. 143",Чертаново Южное,ЮАО
Почта Банк,55.611888,37.294195,"г. Москва, ул. Большая Внуковская, д. 15",Внуково,ЗАО
Почта Банк,55.650651,37.40074,"г. Москва, просп. Солнцевский, д. 9",Солнцево,ЗАО
Почта Банк,55.897669,37.59494,"г. Москва, ул. Лескова, д. 8",Бибирево,СВАО
Почта Банк,55.719355,37.732979,"г. Москва, ул. Грайвороновская, д. 14",Текстильщики,ЮВАО
Почта Банк,55.833907,37.593902,"г. Москва, ул. Ботаническая, д. 29, корп. 1",Марфино,СВАО
Почта Банк,55.65969,37.759092,"г. Москва, ул. Братиславская д. 15, корп. 1",Марьино,ЮВАО
Почта Банк,55.733088,37.593244,"г. Москва, просп. Комсомольский, д. 3",Хамовники,ЦАО
Почта Банк,55.647979,37.604822,"г. Москва, бул. Симферопольский, д. 22, корп. 1",Зюзино,ЮЗАО
Почта Банк,55.794431,37.774876,"г. Москва, пл. Измайловская, д. 11",Измайлово,ВАО
Почта Банк,55.746955,37.538826,"г. Москва, наб. Пресненская, д. 8, стр. 1",Пресненский,ЦАО
Почта Банк,55.684737,37.685369,"г. Москва, ул. Якорная, д. 9",Нагатинский Затон,ЮАО
Почта Банк,55.646427,37.737746,"г. Москва, бул. Новочеркасский, д. 44",Марьино,ЮВАО
Почта Банк,55.588039,37.643995,"г. Москва, ул. Харьковская, д. 8, корп. 2, стр. 2",Бирюлёво Западное,ЮАО
Почта Банк,55.708489,37.620804,"г. Москва, ул. Большая Тульская, д. 2",Даниловский,ЮАО
Почта Банк,55.712192,37.607044,"г. Москва, ул. Шаболовка, д. 69/32",Даниловский,ЮАО
Почта Банк,55.866393,37.678567,"г. Москва, ул. Менжинского, д. 5",Бабушкинский,СВАО
Почта Банк,55.790871,37.790133,"г. Москва, ул. 6-я Парковая, д. 13",Измайлово,ВАО
Почта Банк,55.728095,37.638639,"г. Москва, ул. Дубининская, д. 11, стр. 2",Замоскворечье,ЦАО
Почта Банк,55.877949,37.716966,"г. Москва, ул. Лосевская, д. 22",Ярославский,СВАО
Почта Банк,55.825404,37.435448,"г. Москва, ш. Волоколамское, д. 92, корп. 2",Покровское-Стрешнево,СЗАО
Почта Банк,55.708489,37.620804,"г. Москва, ул. Большая Тульская, д. 2",Даниловский,ЮАО
Почта Банк,55.866393,37.678567,"г. Москва, ул. Менжинского, д. 5",Бабушкинский,СВАО
Почта Банк,55.708368,37.48055,"г. Москва, ул. Веерная, д. 3, корп. 1",Очаково-Матвеевское,ЗАО
Почта Банк,55.752767,37.791767,"г. Москва, ул. 3-я Владимирская, д. 31/33",Перово,ВАО
Почта Банк,55.605308,37.530861,"г. Москва, ул. Тарусская, д. 14, корп. 1",Ясенево,ЮЗАО
Почта Банк,55.850431,37.451338,"г. Москва, бул. Химкинский, д. 1",Южное Тушино,СЗАО
Почта Банк,55.61876,37.592877,"г. Москва, ул. Чертановская д. 32, стр. 4",Чертаново Центральное,ЮАО
Почта Банк,55.730678,37.721874,"г. Москва, ул. Нижегородская, д. 92, корп. 1",Нижегородский,ЮВАО
Почта Банк,55.595991,37.593589,"г. Москва, ул. Академика Янгеля, д. 4, корп. 2",Чертаново Южное,ЮАО
Почта Банк,55.804602,37.762087,"г. Москва, ш. Щелковское, д. 10",Северное Измайлово,ВАО
Почта Банк,55.706645,37.666026,"г. Москва, ул. Сайкина, д. 2",Даниловский,ЮАО
Почта Банк,55.72474,37.580153,"г. Москва, просп. Комсомольский, д. 31",Хамовники,ЦАО
Почта Банк,55.677844,37.564482,"г. Москва, просп. Нахимовский, д. 42",Академический,ЮЗАО
Почта Банк,55.848791,37.35219,"г. Москва, пер. 3-й Митинский, д. 1",Митино,СЗАО
Почта Банк,55.703455,37.816831,"г. Москва, ул. Ташкентская, д. 15/22",Выхино-Жулебино,ЮВАО
Почта Банк,55.892752,37.529053,"г. Москва, ул. Клязьминская, д. 19",Дмитровский,САО
Почта Банк,55.658884,37.409326,"г. Москва, ул. Богданова, д. 6",Солнцево,ЗАО
Почта Банк,55.728095,37.638639,"г. Москва, ул. Дубининская, д. 11, стр. 2",Замоскворечье,ЦАО
Почта Банк,55.772922,37.585966,"г. Москва, ул. Большая Грузинская, д. 62",Пресненский,ЦАО
Почта Банк,55.679753,37.726383,"г. Москва, ул. Шоссейная, д. 35",Печатники,ЮВАО
Почта Банк,55.61149,37.719436,"г. Москва, бул. Ореховый, д. 13",Орехово-Борисово Северное,ЮАО
Почта Банк,55.653646,37.764533,"г. Москва, ул. Братиславская, д. 26",Марьино,ЮВАО
Почта Банк,55.890412,37.596432,"г. Москва, ул. Мурановская, д. 3",Бибирево,СВАО
Почта Банк,55.605308,37.530861,"г. Москва, ул. Тарусская, д. 14, корп. 1",Ясенево,ЮЗАО
Почта Банк,55.72474,37.580153,"г. Москва, просп. Комсомольский, д. 31",Хамовники,ЦАО
Почта Банк,55.786549,37.593534,"г. Москва, ул. Новослободская, д. 49/2",Тверской,ЦАО
Почта Банк,55.605583,37.742953,"г. Москва, ул. Ясеневая, д. 36",Орехово-Борисово Южное,ЮАО
Почта Банк,55.698534,37.746623,"г. Москва ул. 7-я Текстильщиков, д. 4",Текстильщики,ЮВАО
Почта Банк,55.745228,37.681223,"г. Москва, ул. Рабочая, д. 4",Таганский,ЦАО
Почта Банк,55.680653,37.672118,"г. Москва, ул. Судостроительная, д. 13",Нагатинский Затон,ЮАО
Почта Банк,55.698062,37.496943,"г. Москва, ул. Винницкая, д. 1",Раменки,ЗАО
Почта Банк,55.826131,37.514348,"г. Москва, ул. Клары Цеткин, д. 31",Войковский,САО
Почта Банк,55.794887,37.712812,"г. Москва, пл. Преображенская, д. 8",Преображенское,ВАО
Почта Банк,55.61893,37.706583,"г. Москва, ул. Шипиловская, д. 13, корп. 2",Орехово-Борисово Северное,ЮАО
Почта Банк,55.771366,37.67794,"г. Москва, ул. Бауманская, д. 38, стр. 2",Басманный,ЦАО
Почта Банк,55.764069,37.636709,"г. Москва, ул. Мясницкая, д. 26",Басманный,ЦАО
Почта Банк,55.6044,37.521404,"г. Москва, ул. Вильнюсская, д. 6",Ясенево,ЮЗАО
Почта Банк,55.856565,37.348522,"г. Москва, ш. Пятницкое, д. 43, корп. 2",Митино,СЗАО
Почта Банк,55.679257,37.573774,"г. Москва, ул. Кржижановского, д. 17, корп. 1",Академический,ЮЗАО
Почта Банк,55.767055,37.716956,"г. Москва, ул. Боровая, д. 20",Лефортово,ЮВАО
Почта Банк,55.845426,37.440069,"г. Москва, ул. Сходненская, д. 44/17",Южное Тушино,СЗАО
Почта Банк,55.675389,37.528038,"г. Москва, просп. Ленинский, д. 93",Ломоносовский,ЮЗАО
Почта Банк,55.677263,37.763088,"г. Москва, ул. Совхозная, д. 12",Люблино,ЮВАО
Почта Банк,55.890488,37.538928,"г. Москва, ул. Лобненская, д. 4",Дмитровский,САО
Почта Банк,55.734723,37.668709,"г. Москва, ул. Марксистская, д. 9",Таганский,ЦАО
Почта Банк,55.662716,37.554478,"г. Москва, ул. Наметкина, д. 13а",Черёмушки,ЮЗАО
Почта Банк,55.684127,37.598107,"г. Москва, ул. Винокурова, д. 28, корп. 1",Котловка,ЮЗАО
Почта Банк,55.866513,37.570892,"г. Москва, ул. Дубнинская, д. 12, корп. 3",Восточное Дегунино,САО
Почта Банк,55.803177,37.785849,"г. Москва, бул. Сиреневый, д. 15а",Северное Измайлово,ВАО
Почта Банк,55.739093,37.872684,"г. Москва, ул. Салтыковская, д. 27",Новокосино,ВАО
Почта Банк,55.579226,37.643458,"г. Москва, Востряковский пр-д, д. 11, корп. 1, стр. 2",Бирюлёво Западное,ЮАО
Почта Банк,55.756299,37.620944,"г. Москва, ул. Никольская, д. 7",Тверской,ЦАО
Почта Банк,55.723194,37.626636,"г. Москва, ул. Большая Серпуховская, д. 40, стр. 1",Замоскворечье,ЦАО
Почта Банк,55.653914,37.618749,"г. Москва, ш. Варшавское, д. 78/2",Нагорный,ЮАО
Почта Банк,55.704477,37.769149,"г. Москва, просп. Волгоградский, д. 88",Кузьминки,ЮВАО
Почта Банк,55.750245,37.823199,"г. Москва, просп. Зеленый, д. 66, корп. 1",Новогиреево,ВАО
Почта Банк,55.757761,37.698837,"г. Москва, ул. Красноказарменная, д. 9",Лефортово,ЮВАО
Почта Банк,55.767055,37.716956,"г. Москва, ул. Боровая, д. 20",Лефортово,ЮВАО
Почта Банк,55.739085,37.768517,"г. Москва, ул. Плеханова, д. 30",Перово,ВАО
Почта Банк,55.752767,37.791767,"г. Москва, ул. 3-я Владимирская, д. 31/33",Перово,ВАО
Почта Банк,55.771575,37.593965,"г. Москва, ул. 1-я Тверская-Ямская, д. 6",Тверской,ЦАО
Почта Банк,55.826131,37.514348,"г. Москва, ул. Клары Цеткин, д. 31",Войковский,САО
Почта Банк,55.856565,37.348522,"г. Москва, ш. Пятницкое, д. 43, корп. 2",Митино,СЗАО
Почта Банк,55.825404,37.435448,"г. Москва, ш. Волоколамское, д. 92, корп. 2",Покровское-Стрешнево,СЗАО
Почта Банк,55.71906,37.422404,"г. Москва, ш. Можайское, д. 29",Кунцево,ЗАО
Почта Банк,55.658884,37.409326,"г. Москва, ул. Богданова, д. 6",Солнцево,ЗАО
Почта Банк,55.775708,37.497554,"г. Москва, просп. Маршала Жукова, д. 9",Хорошёво-Мнёвники,СЗАО
Почта Банк,55.622426,37.506103,"г. Москва, ул. Профсоюзная, д. 152, корп. 1",Тёплый Стан,ЮЗАО
Почта Банк,55.784266,37.456534,"г. Москва, ул. Живописная, д. 12, корп. 1",Хорошёво-Мнёвники,СЗАО
Почта Банк,55.892752,37.529053,"г. Москва, ул. Клязьминская, д. 19",Дмитровский,САО
Почта Банк,55.61893,37.706583,"г. Москва, ул. Шипиловская, д. 13, корп. 2",Орехово-Борисово Северное,ЮАО
Почта Банк,55.784,37.634218,"г. Москва, просп. Мира, д. 51, стр. 1",Мещанский,ЦАО
Почта Банк,55.698062,37.496943,"г. Москва, ул. Винницкая, д. 1",Раменки,ЗАО
Почта Банк,55.641139,37.533372,"г. Москва, ул. Миклухо-Маклая, д. 55",Коньково,ЮЗАО
Почта Банк,55.6044,37.521404,"г. Москва, ул. Вильнюсская, д. 6",Ясенево,ЮЗАО
Почта Банк,55.682645,37.5634,"г. Москва, ул. Кржижановского, д. 5, корп. 1",Академический,ЮЗАО
Почта Банк,55.786549,37.593534,"г. Москва, ул. Новослободская, д. 49/2",Тверской,ЦАО
Почта Банк,55.857689,37.482247,"г. Москва, ул. Фестивальная, д. 39",Левобережный,САО
Почта Банк,55.772922,37.585966,"г. Москва, ул. Большая Грузинская, д. 62",Пресненский,ЦАО
Почта Банк,55.850431,37.451338,"г. Москва, бул. Химкинский, д. 1",Южное Тушино,СЗАО
Почта Банк,55.594571,37.611025,"г. Москва, ул. Россошанская, д. 7, корп. 1 Б",Чертаново Южное,ЮАО
Почта Банк,55.706645,37.666026,"г. Москва, ул. Сайкина, д. 2",Даниловский,ЮАО
Почта Банк,55.843705,37.356911,"г. Москва, ул. Дубравная, д. 39",Митино,СЗАО
Почта Банк,55.804602,37.762087,"г. Москва, ш. Щелковское, д. 10",Северное Измайлово,ВАО
Почта Банк,55.861844,37.563089,"г. Москва, бул. Бескудниковский, д. 12",Бескудниковский,САО
Почта Банк,55.727145,37.472483,"г. Москва, бул. Славянский, д. 5, корп. 1",Фили-Давыдково,ЗАО
Почта Банк,55.87525,37.512489,"г. Москва, ул. Новая, д. 10",Западное Дегунино,САО
Почта Банк,55.638931,37.770778,"г. Москва, ул. Алма-Атинская, д. 8, корп. 3",Братеево,ЮАО
Почта Банк,55.598981,37.538328,"г. Москва, ул. Паустовского, д. 8, корп. 1",Ясенево,ЮЗАО
Почта Банк,55.673946,37.661656,"г. Москва, просп. Андропова, д. 38",Нагатино-Садовники,ЮАО
Почта Банк,55.703455,37.816831,"г. Москва, ул. Ташкентская, д. 15/22",Выхино-Жулебино,ЮВАО
Почта Банк,55.653646,37.764533,"г. Москва, ул. Братиславская, д. 26",Марьино,ЮВАО
Почта Банк,55.790871,37.790133,"г. Москва, ул. 6-я Парковая, д. 13",Измайлово,ВАО
Почта Банк,55.799095,37.583128,"г. Москва, ул. Бутырская, д. 21",Савёловский,САО
Почта Банк,55.851782,37.640823,"г. Москва, ул. Седова, д. 7, корп. 1",Свиблово,СВАО
Почта Банк,55.718788,37.785922,"г. Москва, просп. Рязанский, д. 67/2",Рязанский,ЮВАО
Почта Банк,55.679753,37.726383,"г. Москва, ул. Шоссейная, д. 35",Печатники,ЮВАО
Почта Банк,55.816629,37.714399,"г. Москва, бул. Маршала Рокоссовского, д. 33/12",Богородское,ВАО
Почта Банк,55.883911,37.686616,"г. Москва, ул. Тайнинская, д. 24",Лосиноостровский,СВАО
Почта Банк,55.802398,37.726171,"г. Москва, ул. Халтуринская, д. 13",Преображенское,ВАО
Почта Банк,55.764963,37.833155,"г. Москва, ул. Молостовых, д. 1 Б",Ивановское,ВАО
Почта Банк,55.794431,37.774876,"г. Москва, пл. Измайловская, д. 11",Измайлово,ВАО
Почта Банк,55.79521,37.715845,"г. Москва, ул. Большая Черкизовская, д. 2, корп. 2",Преображенское,ВАО
Почта Банк,55.877949,37.716966,"г. Москва, ул. Лосевская, д. 22",Ярославский,СВАО
Почта Банк,55.803573,37.821896,"г. Москва, бул. Сиреневый, д. 65, корп. 1",Северное Измайлово,ВАО
Почта Банк,55.811477,37.798068,"г. Москва, ул. Уральская, д. 1",Гольяново,ВАО
Почта Банк,55.890488,37.538928,"г. Москва, ул. Лобненская, д. 4",Дмитровский,САО
Почта Банк,55.895828,37.573513,"г. Москва, ул. Абрамцевская, д. 3",Лианозово,СВАО
Почта Банк,55.69937,37.854323,"г. Москва, просп. Лермонтовский, д. 12",Выхино-Жулебино,ЮВАО
Почта Банк,55.548054,37.54551,"г. Москва, ул. Веневская, д. 3",Южное Бутово,ЮЗАО
Почта Банк,55.633183,37.678758,"г. Москва, ул. Медиков, д. 20",Царицыно,ЮАО
Почта Банк,55.677263,37.763088,"г. Москва, ул. Совхозная, д. 12",Люблино,ЮВАО
Почта Банк,55.769947,37.658661,"г. Москва, ул. Новая Басманная, д. 15, стр. 1",Красносельский,ЦАО
Почта Банк,55.65969,37.759092,"г. Москва, ул. Братиславская д. 15, корп. 1",Марьино,ЮВАО
Почта Банк,55.543202,37.525224,"г. Москва, ул. Адмирала Лазарева, д. 35, корп. 1",Южное Бутово,ЮЗАО
Почта Банк,55.734723,37.668709,"г. Москва, ул. Марксистская, д. 9",Таганский,ЦАО
Почта Банк,55.668608,37.543909,"г. Москва, ул. Архитектора Власова, д. 39",Обручевский,ЮЗАО
Почта Банк,55.890412,37.596432,"г. Москва, ул. Мурановская, д. 3",Бибирево,СВАО
Почта Банк,55.712192,37.607044,"г. Москва, ул. Шаболовка, д. 69/32",Даниловский,ЮАО
Почта Банк,55.708803,37.662603,"г. Москва, ул. Автозаводская, д. 5",Даниловский,ЮАО
Почта Банк,55.748136,37.587554,"г. Москва, ул. Арбат, д. 47/23",Арбат,ЦАО
Почта Банк,55.742261,37.595604,"г. Москва, ул. Пречистенка, д. 15",Хамовники,ЦАО
Почта Банк,55.72474,37.580153,"г. Москва, просп. Комсомольский, д. 31",Хамовники,ЦАО
Почта Банк,55.887879,37.669294,"г. Москва, ул. Широкая, д. 17, корп. 1",Северное Медведково,СВАО
Почта Банк,55.708368,37.48055,"г. Москва, ул. Веерная, д. 3, корп. 1",Очаково-Матвеевское,ЗАО
Почта Банк,55.750986,37.7836,"г. Москва, ул. 2-я Владимирская, д. 36",Перово,ВАО
Почта Банк,55.61149,37.719436,"г. Москва, бул. Ореховый, д. 13",Орехово-Борисово Северное,ЮАО
Почта Банк,55.708426,37.587782,"г. Москва, ул. Вавилова, д. 6",Донской,ЮАО
Почта Банк,55.794887,37.712812,"г. Москва, пл. Преображенская, д. 8",Преображенское,ВАО
Приморье,55.762368,37.657718,"г. Москва, ул. Земляной Вал, д. 7",Басманный,ЦАО
Примсоцбанк,55.720997,37.635563,"г. Москва, ул. Дубининская, д. 57, стр. 4",Даниловский,ЮАО
Прокоммерцбанк,55.807702,37.570056,"г. Москва, ул. Тимирязевская, д. 1",Тимирязевский,САО
Промсвязьбанк,55.73623,37.710358,"г. Москва, ул. Смирновская, д. 10, стр. 2",Нижегородский,ЮВАО
Промсвязьбанк,55.727932,37.589707,"г. Москва, наб. Фрунзенская, д. 22/2, корп. 10",Хамовники,ЦАО
Промсвязьбанк,55.746864,37.55216,"г. Москва, просп. Кутузовский, д. 18",Дорогомилово,ЗАО
Промсвязьбанк,55.774041,37.589734,"г. Москва, ул. 1-я Тверская-Ямская, д. 24",Тверской,ЦАО
Промсвязьбанк,55.765129,37.638829,"г. Москва, ул. Мясницкая, д. 30/1/2, стр. 2",Басманный,ЦАО
Промсвязьбанк,55.752349,37.635305,"г. Москва, пл. Славянская, д. 2/5",Таганский,ЦАО
Промсвязьбанк,55.752984,37.63362,"г. Москва, пл. Славянская, д. 2/5/4, стр. 3",Таганский,ЦАО
Промсвязьбанк,55.757886,37.572622,"г. Москва, пер. Капранова, д. 3, стр. 2",Пресненский,ЦАО
Промсвязьбанк,55.771225,37.595586,"г. Москва, ул. 2-я Тверская-Ямская, д. 8",Тверской,ЦАО
Промсвязьбанк,55.709158,37.660679,"г. Москва, ул. Автозаводская, д. 6",Даниловский,ЮАО
Промсвязьбанк,55.648561,37.618966,"г. Москва, ш. Варшавское, д. 90, корп. 1",Нагорный,ЮАО
Промсвязьбанк,55.753157,37.633732,"г. Москва, пл. Славянская, д. 2/5/4, стр. 3",Таганский,ЦАО
Промсвязьбанк,55.773057,37.675839,"г. Москва, ул. Нижняя Красносельская, д. 45/17, стр. 1",Басманный,ЦАО
Промсвязьбанк,55.702995,37.766361,"г. Москва, ул. Зеленодольская, д. 41, корп.1",Кузьминки,ЮВАО
Промсвязьбанк,55.741052,37.536359,"г. Москва, просп. Кутузовский, д. 30/32",Дорогомилово,ЗАО
Промсвязьбанк,55.72312,37.621565,"г. Москва, ул. Люсиновская, д. 36, стр. 1",Замоскворечье,ЦАО
Промсвязьбанк,55.651448,37.744196,"г. Москва, ул. Люблинская, д. 163/1",Марьино,ЮВАО
Промсвязьбанк,55.741018,37.417682,"г. Москва, ул. Ярцевская, д. 32",Кунцево,ЗАО
Промсвязьбанк,55.724256,37.651537,"г. Москва, наб. Дербеневская, д. 7, стр. 4",Даниловский,ЮАО
Промсвязьбанк,55.752964,37.59099,"г. Москва, ул. Новый Арбат, д. 18",Арбат,ЦАО
Промсвязьбанк,55.728644,37.6109,"г. Москва, просп. Ленинский, д. 2а",Якиманка,ЦАО
Промсвязьбанк,55.794458,37.494272,"г. Москва, ул. Народного Ополчения, д. 49, корп. 1",Щукино,СЗАО
Промсвязьбанк,55.777616,37.521973,"г. Москва, ш. Хорошевское, д. 35, корп. 1",Хорошёвский,САО
Промсвязьбанк,55.809587,37.638034,"г. Москва, просп. Мира, д. 116а",Алексеевский,СВАО
Промсвязьбанк,55.677392,37.565643,"г. Москва, просп. Нахимовский, д. 40",Академический,ЮЗАО
Промсвязьбанк,55.769497,37.647463,"г. Москва, ул. Садовая-Спасская, д. 19, стр. 1",Красносельский,ЦАО
Промсвязьбанк,55.808579,37.512451,"г. Москва, просп. Ленинградский, д. 80, корп. 21",Сокол,САО
Промсвязьбанк,55.793784,37.695748,"г. Москва, ул. Стромынка, д. 18, стр. 27",Сокольники,ВАО
Промсвязьбанк,55.738461,37.661188,"г. Москва, ул. Марксистская, д. 3, стр. 1",Таганский,ЦАО
Промсвязьбанк,55.709295,37.620918,"г. Москва, ул. Большая Тульская, д. 2",Даниловский,ЮАО
Промсвязьбанк,55.678027,37.510237,"г. Москва, просп. Вернадского, д. 37, корп. 1 Б",Проспект Вернадского,ЗАО
Промсвязьбанк,55.622561,37.604069,"г. Москва, ул. Днепропетровская, д. 2",Чертаново Северное,ЮАО
Промсельхозбанк,55.76636,37.526647,"г. Москва, туп. 1-й Магистральный, д. 11, стр. 1",Хорошёвский,САО
Промтрансбанк,55.756445,37.610712,"г. Москва, ул. Моховая, д. 11, стр. 13",Тверской,ЦАО
ПростоБанк,55.722637,37.56112,"г. Москва, ул. Усачева, д. 35, стр. 1",Хамовники,ЦАО
Профессионал Банк,55.781464,37.606849,"г. Москва, ул. Селезневская, д. 15а, стр. 1",Тверской,ЦАО
Развитие-Столица,55.758614,37.664335,"г. Москва, пер. Нижний Сусальный, д. 5, стр. 15",Басманный,ЦАО
Развитие-Столица,55.706039,37.404448,"г. Москва, ш. Сколковское, д. 31, стр. 1",Можайский,ЗАО
Райффайзен Банк,55.66419,37.598272,"г. Москва, ул. Одесская, д. 2",Зюзино,ЮЗАО
Райффайзен Банк,55.744103,37.58427,"г. Москва, пл. Смоленская-Сенная, д. 28",Арбат,ЦАО
Райффайзен Банк,55.892876,37.585585,"г. Москва, ш. Алтуфьевское, д. 87",Лианозово,СВАО
Райффайзен Банк,55.77376,37.681264,"г. Москва, ул. Бакунинская, д. 10/12, стр. 5",Басманный,ЦАО
Райффайзен Банк,55.642605,37.52443,"г. Москва, ул. Профсоюзная, д. 104",Коньково,ЮЗАО
Райффайзен Банк,55.87541,37.532681,"г. Москва, ул. 800-летия Москвы, д. 2, корп. 2",Дмитровский,САО
Райффайзен Банк,55.821251,37.49743,"г. Москва, ш. Ленинградское, д. 16а, стр. 1",Войковский,САО
Райффайзен Банк,55.730712,37.674409,"г. Москва, просп. Волгоградский, д. 9, стр. 1",Таганский,ЦАО
Райффайзен Банк,55.567988,37.566848,"г. Москва, ул. Грина, д. 11",Северное Бутово,ЮЗАО
Райффайзен Банк,55.702432,37.848448,"г. Москва, просп. Лермонтовский, д. 6",Выхино-Жулебино,ЮВАО
Райффайзен Банк,55.609987,37.732589,"г. Москва, ул. Воронежская, д. 16",Орехово-Борисово Южное,ЮАО
Райффайзен Банк,55.82084,37.645016,"г. Москва, ул. Космонавтов, д. 4, стр. 1",Алексеевский,СВАО
Райффайзен Банк,55.739931,37.530583,"г. Москва, просп. Кутузовский, д. 34, стр. 14",Дорогомилово,ЗАО
Райффайзен Банк,55.795646,37.540618,"г. Москва, просп. Ленинградский, д. 39а",Хорошёвский,САО
Райффайзен Банк,55.655603,37.494002,"г. Москва, просп. Ленинский, д. 148",Тропарёво-Никулино,ЗАО
Райффайзен Банк,55.69153,37.549732,"г. Москва, просп. Ленинский, д. 66",Гагаринский,ЮЗАО
Райффайзен Банк,55.676518,37.761224,"г. Москва, ул. Краснодарская, д. 48",Люблино,ЮВАО
Райффайзен Банк,55.792097,37.496945,"г. Москва, ул. Маршала Бирюзова, д. 8, корп. 1",Щукино,СЗАО
Райффайзен Банк,55.848472,37.35453,"г. Москва, ул. Митинская, д. 37",Митино,СЗАО
Райффайзен Банк,55.724261,37.447002,"г. Москва, ш. Можайское, д. 2",Кунцево,ЗАО
Райффайзен Банк,55.751136,37.532998,"г. Москва, ул. Тестовская, д. 10",Пресненский,ЦАО
Райффайзен Банк,55.695611,37.662366,"г. Москва, просп. Андропова, д. 18, корп. 2",Даниловский,ЮАО
Райффайзен Банк,55.762314,37.634577,"г. Москва, ул. Мясницкая, д. 22/2/5, стр. 1",Басманный,ЦАО
Райффайзен Банк,55.793828,37.509755,"г. Москва, ул. Новопесчаная, д. 20/10, корп. 2",Сокол,САО
Райффайзен Банк,55.738942,37.596531,"г. Москва, ул. Остоженка, д. 27, корп. 1",Хамовники,ЦАО
Райффайзен Банк,55.752765,37.791824,"г. Москва, ул. 3-я Владимирская, д. 31/33",Перово,ВАО
Райффайзен Банк,55.746391,37.672643,"г. Москва, ул. Сергия Радонежского д. 4",Таганский,ЦАО
Райффайзен Банк,55.795024,37.706715,"г. Москва, ул. Преображенская, д. 2, корп. 1",Преображенское,ВАО
Райффайзен Банк,55.78639,37.636305,"г. Москва, пер. Банный, д. 3",Мещанский,ЦАО
Райффайзен Банк,55.682239,37.566798,"г. Москва, ул. Профсоюзная, д. 20/9",Академический,ЮЗАО
Райффайзен Банк,55.739257,37.628158,"г. Москва, ул. Пятницкая, д. 34",Замоскворечье,ЦАО
Райффайзен Банк,55.845564,37.477807,"г. Москва, ш. Ленинградское, д. 68",Головинский,САО
Райффайзен Банк,55.754881,37.609062,"г. Москва, пер. Романов, д. 4",Арбат,ЦАО
Райффайзен Банк,55.741317,37.584073,"г. Москва, бул. Смоленский, д. 13/1",Хамовники,ЦАО
Райффайзен Банк,55.658893,37.40961,"г. Москва, ул. Богданова, д. 6",Солнцево,ЗАО
Райффайзен Банк,55.799513,37.407255,"г. Москва, ул. Таллинская, д. 26",Строгино,СЗАО
Райффайзен Банк,55.773979,37.588926,"г. Москва, ул. 1-я Тверская-Ямская, д. 15",Тверской,ЦАО
Райффайзен Банк,55.702482,37.509169,"г. Москва, просп. Мичуринский, д. 7",Раменки,ЗАО
Райффайзен Банк,55.737511,37.5048,"г. Москва, ул. Василисы Кожиной, д. 1",Филёвский Парк,ЗАО
Райффайзен Банк,55.646611,37.6065,"г. Москва, бул. Симферопольский, д. 29, корп. 3",Нагорный,ЮАО
Райффайзен Банк,55.721362,37.609581,"г. Москва, ул. Шаболовка, д. 20, стр. 1",Якиманка,ЦАО
Райффайзен Банк,55.817557,37.797635,"г. Москва, ул. Уральская, д. 11",Гольяново,ВАО
РБА,55.722489,37.604469,"г. Москва, просп. Ленинский, д. 11, стр. 3",Якиманка,ЦАО
Реалист Банк,55.761436,37.631806,"г. Москва, пер. Милютинский, д. 2",Красносельский,ЦАО
Реалист Банк,55.744282,37.660808,"г. Москва, ул. Станиславского, д. 4, стр. 1",Таганский,ЦАО
Ренессанс Кредит,55.729015,37.64651,"г. Москва, ул. Кожевническая, д. 14",Даниловский,ЮАО
Ренессанс Кредит,55.772556,37.585549,"г. Москва, ул. Большая Грузинская, д. 62",Пресненский,ЦАО
Ренессанс Кредит,55.656549,37.618688,"г. Москва, ш. Варшавское, д. 72, корп. 2",Нагорный,ЮАО
Ренессанс Кредит,55.756337,37.406987,"г. Москва, бул. Осенний, д. 5, корп. 1",Крылатское,ЗАО
Ренессанс Кредит,55.645529,37.747244,"г. Москва, ул. Люблинская, д. 175",Марьино,ЮВАО
Ренессанс Кредит,55.886467,37.659507,"г. Москва, ул. Широкая, д. 12",Северное Медведково,СВАО
Ренессанс Кредит,55.729013,37.646506,"г. Москва, ул. Кожевническая, д. 14",Даниловский,ЮАО
Ренессанс Кредит,55.750113,37.788871,"г. Москва, просп. Зеленый, д. 22",Новогиреево,ВАО
Ренессанс Кредит,55.680475,37.513944,"г. Москва, просп. Вернадского, д. 33",Ломоносовский,ЮЗАО
Ренессанс Кредит,55.78703,37.6353,"г. Москва, просп. Мира, д. 68",Мещанский,ЦАО
Ренессанс Кредит,55.852068,37.443729,"г. Москва, бул. Химкинский, д. 16, корп. 1",Северное Тушино,СЗАО
Рента-Банк,55.731939,37.546231,"г. Москва, наб. Бережковская, д. 20г",Дорогомилово,ЗАО
РЕСО Кредит,55.727178,37.535288,"г. Москва, ш. Воробьевское, д. 6",Раменки,ЗАО
РЕСО Кредит,55.74187,37.67184,"г. Москва, ул. Большая Андроньевская, д. 17",Таганский,ЦАО
РЕСО Кредит,55.7693,37.599323,"г. Москва, ул. Тверская, д. 28, корп. 2",Тверской,ЦАО
Республиканский Кредитный Альянс,55.739078,37.657305,"г. Москва, ул. Воронцовская, д. 13/14, стр. 1",Таганский,ЦАО
РН Банк,55.750622,37.653591,"г. Москва, наб. Серебряническая, д. 29",Таганский,ЦАО
РНКБ,55.775628,37.605253,"г. Москва, ул. Краснопролетарская, д. 9, стр. 5",Тверской,ЦАО
РНКБ,55.753393,37.594631,"г. Москва, ул. Большая Молчановка, д. 12, стр. 1",Арбат,ЦАО
Росбанк,55.772909,37.647851,"г. Москва, ул. Маши Порываевой, д. 34",Красносельский,ЦАО
Росбанк,55.643593,37.524714,"г. Москва, ул. Миклухо-Маклая, д. 47а, стр. 1",Коньково,ЮЗАО
Росбанк,55.709018,37.620761,"г. Москва, ул. Большая Тульская, д. 2",Даниловский,ЮАО
Росбанк,55.702479,37.848421,"г. Москва, просп. Лермонтовский, д. 6",Выхино-Жулебино,ЮВАО
Росбанк,55.736495,37.600664,"г. Москва, наб. Пречистенская, д. 5",Хамовники,ЦАО
Росбанк,55.71003,37.65426,"г. Москва, ул. Ленинская Слобода, д. 26",Даниловский,ЮАО
Росбанк,55.846959,37.35773,"г. Москва, ул. Митинская, д. 29",Митино,СЗАО
Росбанк,55.750239,37.536816,"г. Москва, 1-й Красногвардейский пр-д, д. 19",Пресненский,ЦАО
Росбанк,55.779294,37.633266,"г. Москва, просп. Мира, д. 36, стр. 1",Мещанский,ЦАО
Росбанк,55.804952,37.518164,"г. Москва, просп. Ленинградский, д. 74, корп. 1",Аэропорт,САО
Росбанк,55.772857,37.647834,"г. Москва, ул. Маши Порываевой, д. 34",Красносельский,ЦАО
Росбанк,55.750568,37.536403,"г. Москва, 1-й Красногвардейский пр-д, д. 19",Пресненский,ЦАО
Росбанк,55.750535,37.536526,"г. Москва, 1-й Красногвардейский пр-д, д. 19",Пресненский,ЦАО
Росбанк,55.859634,37.484171,"г. Москва, ул. Смольная, д. 22, стр. 1",Ховрино,САО
Росбанк,55.814372,37.639269,"г. Москва, просп. Мира, д. 124, корп. 8",Алексеевский,СВАО
Росбанк,55.8607,37.585528,"г. Москва, ш. Алтуфьевское, д. 22 Б",Отрадное,СВАО
Росбанк,55.870814,37.659248,"г. Москва, ул. Менжинского, д. 38, корп. 2, стр. 2",Бабушкинский,СВАО
Росбанк,55.569993,37.575845,"г. Москва, бул. Дмитрия Донского, д. 2, корп. 1",Северное Бутово,ЮЗАО
Росбанк,55.806564,37.503903,"г. Москва, ш. Волоколамское, д. 1, стр. 1",Сокол,САО
Росбанк,55.606073,37.718389,"г. Москва, ш. Каширское, д. 122",Орехово-Борисово Южное,ЮАО
Росбанк,55.791922,37.77514,"г. Москва, пл. Измайловская, д. 1",Измайлово,ВАО
Росбанк,55.748204,37.583109,"г. Москва, пер. Карманицкий, д. 9",Арбат,ЦАО
Росбанк,55.761815,37.573279,"г. Москва, ул. Красная Пресня, д. 12",Пресненский,ЦАО
Росбанк,55.772821,37.647759,"г. Москва, ул. Маши Порываевой, д. 34",Красносельский,ЦАО
Росбанк,55.683022,37.539112,"г. Москва, просп. Ленинский, д. 81/2",Ломоносовский,ЮЗАО
Росбанк,55.765559,37.590846,"г. Москва, ул. Садовая-Кудринская, д. 32, стр. 1",Пресненский,ЦАО
Росбанк,55.778506,37.601856,"г. Москва, ул. Долгоруковская, д. 40",Тверской,ЦАО
Росбанк,55.822806,37.606345,"г. Москва, ул. Академика Королева, д. 12",Останкинский,СВАО
Росбанк,55.730567,37.63509,"г. Москва, пл. Павелецкая, д. 2, стр. 1",Замоскворечье,ЦАО
Росбанк,55.738947,37.58663,"г. Москва, ул. Пречистенка, д. 40/2, корп. 1",Хамовники,ЦАО
Росбанк,55.67835,37.853216,"г. Москва, ул. Привольная, д. 70",Выхино-Жулебино,ЮВАО
Росбанк,55.74513,37.62687,"г. Москва, ул. Пятницкая, д. 2/38, стр. 2",Замоскворечье,ЦАО
Росбанк,55.758278,37.406988,"г. Москва, бул. Осенний, д. 9",Крылатское,ЗАО
Росбанк,55.787387,37.679777,"г. Москва, ул. Русаковская, д. 22, стр. 1",Сокольники,ВАО
Росбанк,55.851046,37.434469,"г. Москва, бул. Яна Райниса, д. 2, корп. 1",Северное Тушино,СЗАО
Росбанк,55.739938,37.6676,"г. Москва, ул. Таганская, д. 29, стр. 1",Таганский,ЦАО
Росбанк,55.700836,37.506327,"г. Москва, просп. Мичуринский, д. 9, стр. 1",Раменки,ЗАО
Росбанк,55.66799,37.553438,"г. Москва, ул. Профсоюзная, д. 43, корп. 1",Черёмушки,ЮЗАО
Росбанк,55.639401,37.608015,"г. Москва, ул. Чертановская, д. 1в, корп.1",Чертаново Северное,ЮАО
РосДорБанк,55.717162,37.633549,"г. Москва, ул. Дубининская, д. 86",Даниловский,ЮАО
РосДорБанк,55.717153,37.633404,"г. Москва, ул. Дубининская, д. 86",Даниловский,ЮАО
Россельхозбанк,55.744802,37.599956,"г. Москва, пер. Гагаринский, д. 3",Хамовники,ЦАО
Россельхозбанк,55.773034,37.675765,"г. Москва, ул. Нижняя Красносельская, д. 45/17",Басманный,ЦАО
Россельхозбанк,55.847285,37.63886,"г. Москва, Лазоревый пр-д, д. 1а, корп. 3",Свиблово,СВАО
Россельхозбанк,55.659179,37.758014,"г. Москва, ул. Братиславская, д. 16, корп. 1",Марьино,ЮВАО
Россельхозбанк,55.655427,37.618794,"г. Москва, ш. Варшавское, д. 74, корп. 2",Нагорный,ЮАО
Россельхозбанк,55.70055,37.634152,"г. Москва, ул. Архитектора Щусева, д. 2, корп. 3",Даниловский,ЮАО
Россельхозбанк,55.721873,37.573977,"г. Москва, просп. Комсомольский, д. 40/13",Хамовники,ЦАО
Россельхозбанк,55.820051,37.4961,"г. Москва, ш. Ленинградское, д. 15",Войковский,САО
Россельхозбанк,55.898689,37.591647,"г. Москва, ул. Лескова, д. 3г",Бибирево,СВАО
Россельхозбанк,55.677074,37.765344,"г. Москва, ул. Краснодарская, д. 51",Люблино,ЮВАО
Россельхозбанк,55.870675,37.660335,"г. Москва, ул. Менжинского, д. 38, корп. 2, стр. 2",Бабушкинский,СВАО
Россельхозбанк,55.608734,37.534813,"г. Москва, просп. Новоясеневский, д. 9",Ясенево,ЮЗАО
Россельхозбанк,55.862104,37.604296,"г. Москва, ул. Хачатуряна, д. 20",Отрадное,СВАО
Россельхозбанк,55.83167,37.553848,"г. Москва, Лиственничная аллея, д. 2д",Тимирязевский,САО
Россельхозбанк,55.611114,37.606622,"г. Москва, ул. Красного Маяка, д. 2 Б",Чертаново Центральное,ЮАО
Россельхозбанк,55.793819,37.584011,"г. Москва, ул. Бутырская, д. 5",Савёловский,САО
Россельхозбанк,55.751372,37.816282,"г. Москва, просп. Свободный, д. 20а",Новогиреево,ВАО
Россельхозбанк,55.805376,37.399012,"г. Москва, бул. Строгинский, д. 5",Строгино,СЗАО
Россельхозбанк,55.772449,37.630855,"г. Москва, пл. Малая Сухаревская, д. 10",Мещанский,ЦАО
Россельхозбанк,55.709018,37.62077,"г. Москва, ул. Большая Тульская, д. 2",Даниловский,ЮАО
Россельхозбанк,55.753037,37.544723,"г. Москва, 1-й Красногвардейский пр-д, д. 7, стр. 1",Пресненский,ЦАО
Россельхозбанк,55.775059,37.586724,"г. Москва, ул. 1-я Тверская-Ямская, д. 23",Тверской,ЦАО
Россельхозбанк,55.754253,37.715318,"г. Москва, ул. Авиамоторная, д. 10, корп. 1",Лефортово,ЮВАО
Россельхозбанк,55.707989,37.660434,"г. Москва, ул. Автозаводская, д. 7",Даниловский,ЮАО
Россельхозбанк,55.820964,37.632869,"г. Москва, ул. Академика Королева, д. 3",Останкинский,СВАО
Россельхозбанк,55.75206,37.59985,"г. Москва, ул. Арбат, д. 1",Арбат,ЦАО
Россельхозбанк,55.782458,37.708187,"г. Москва, ул. Большая Семеновская, д. 27, корп. 2",Соколиная Гора,ВАО
Россельхозбанк,55.730634,37.62819,"г. Москва, ул. Валовая, д. 26",Замоскворечье,ЦАО
Россельхозбанк,55.705969,37.767588,"г. Москва, просп. Волгоградский, д. 121/35",Кузьминки,ЮВАО
Россельхозбанк,55.778137,37.6024,"г. Москва, ул. Долгоруковская, д. 40",Тверской,ЦАО
Россельхозбанк,55.746259,37.563018,"г. Москва, ул. Большая Дорогомиловская, д. 10",Дорогомилово,ЗАО
Россельхозбанк,55.761441,37.57024,"г. Москва, ул. Красная Пресня, д. 21",Пресненский,ЦАО
Россельхозбанк,55.780215,37.668173,"г. Москва, ул. Краснопрудная, д. 30—34, стр. 1",Красносельский,ЦАО
Россельхозбанк,55.802838,37.517711,"г. Москва, просп. Ленинградский, д. 69, стр. 1",Сокол,САО
Россельхозбанк,55.709413,37.585784,"г. Москва, просп. Ленинский, д. 37а",Донской,ЮАО
Россельхозбанк,55.704094,37.84496,"г. Москва, просп. Лермонтовский, д. 2, корп. 1",Выхино-Жулебино,ЮВАО
Россельхозбанк,55.693909,37.53304,"г. Москва, просп, Ломоносовский, д. 25, корп. 1",Раменки,ЗАО
Россельхозбанк,55.740374,37.658308,"г. Москва, ул. Марксистская, д. 1, корп. 1",Таганский,ЦАО
Россельхозбанк,55.796574,37.487009,"г. Москва, ул. Маршала Бирюзова, д. 31",Щукино,СЗАО
Россельхозбанк,55.846079,37.363151,"г. Москва, ул. Митинская, д. 36",Митино,СЗАО
Россельхозбанк,55.69834,37.498025,"г. Москва, просп. Мичуринский, д. 34",Раменки,ЗАО
Россельхозбанк,55.748787,37.66601,"г. Москва, пер. Наставнический, д. 17, стр. 1",Таганский,ЦАО
Россельхозбанк,55.795088,37.706704,"г. Москва, ул. Преображенская, д. 2, корп. 1",Преображенское,ВАО
Россельхозбанк,55.781296,37.634074,"г. Москва, просп. Мира, д. 46, стр. 1",Мещанский,ЦАО
Россельхозбанк,55.670048,37.553126,"г. Москва, ул. Профсоюзная, д. 56",Обручевский,ЮЗАО
Россельхозбанк,55.770156,37.645869,"г. Москва, ул. Садовая-Спасская, д. 11/1",Красносельский,ЦАО
Россельхозбанк,55.546424,37.555542,"г. Москва, ул. Скобелевская, д. 20",Южное Бутово,ЮЗАО
Россельхозбанк,55.849501,37.443073,"г. Москва, бул. Химкинский, д. 21",Южное Тушино,СЗАО
Россельхозбанк,55.73841,37.41346,"г. Москва, ул. Ярцевская, д. 22, стр. 1",Кунцево,ЗАО
Россельхозбанк,55.747195,37.534731,"г. Москва, наб. Пресненская, д. 10, стр. 2",Пресненский,ЦАО
Россельхозбанк,55.753037,37.544723,"г. Москва, 1-й Красногвардейский пр-д, д. 7, стр. 1",Пресненский,ЦАО
Российская Финансовая Корпорация,55.762244,37.58821,"г. Москва, пер. Вспольный, д. 19",Пресненский,ЦАО
Россита-Банк,55.771705,37.591581,"г. Москва, ул. 1-я Брестская, д. 22",Тверской,ЦАО
Россия,55.756038,37.598039,"г. Москва, пер. Мерзляковский, д. 18, стр. 2",Пресненский,ЦАО
Россия,55.784186,37.559727,"г. Москва, просп. Ленинградский, д. 31а, стр. 1",Беговой,САО
Россия,55.726224,37.608346,"г. Москва, просп. Ленинский, д. 3—5, стр. 1",Якиманка,ЦАО
Россия,55.665384,37.48671,"г. Москва, просп. Вернадского, д. 101, корп. 3",Тропарёво-Никулино,ЗАО
Россия,55.779332,37.687967,"г. Москва, пер. Переведеновский, д. 13, стр. 1",Басманный,ЦАО
Россия,55.743925,37.582663,"г. Москва, пл. Смоленская-Сенная, д. 23/25",Хамовники,ЦАО
Россия,55.768806,37.641968,"г. Москва, просп. Академика Сахарова, д. 10",Красносельский,ЦАО
Ростфинанс,55.801566,37.636671,"г. Москва, просп. Мира, д. 102, корп. 2",Алексеевский,СВАО
Ростфинанс,55.839026,37.489491,"г. Москва, ш. Головинское, д. 4",Войковский,САО
Ростфинанс,55.767276,37.565461,"г. Москва, ул. Пресненский Вал, д. 16, стр. 3",Пресненский,ЦАО
Росэксимбанк,55.754457,37.556573,"г. Москва, наб. Краснопресненская, д. 12",Пресненский,ЦАО
Руснарбанк,55.74085,37.636858,"г. Москва, пер. Озерковский, д. 3",Замоскворечье,ЦАО
Руснарбанк,55.734132,37.627907,"г. Москва, ул. Пятницкая, д. 55/25, стр. 4",Замоскворечье,ЦАО
Русский Стандарт,55.786404,37.736797,"г. Москва, ул. Ткацкая, д. 36",Соколиная Гора,ВАО
Русский Стандарт,55.746608,37.626252,"г. Москва, ул. Балчуг, д. 7",Замоскворечье,ЦАО
Русский Стандарт,55.708058,37.660576,"г. Москва, ул. Автозаводская, д. 7",Даниловский,ЮАО
Русский Стандарт,55.743468,37.50502,"г. Москва, Багратионовский пр-д, д. 7, стр. 20в",Филёвский Парк,ЗАО
Русский Стандарт,55.77256,37.585535,"г. Москва, ул. Большая Грузинская, д. 62",Пресненский,ЦАО
Русский Стандарт,55.660391,37.751855,"г. Москва, ул. Перерва, д. 43, корп. 1",Марьино,ЮВАО
Русский Стандарт,55.820902,37.643107,"г. Москва, просп. Мира, д. 146",Алексеевский,СВАО
Русский Стандарт,55.821521,37.497335,"г. Москва, ш. Ленинградское, д. 16а, стр. 1",Войковский,САО
Русский Стандарт,55.705076,37.772064,"г. Москва, просп. Волгоградский, д. 133, корп. 2",Кузьминки,ЮВАО
Русский Стандарт,55.563818,37.571032,"г. Москва, бул. Дмитрия Донского, д. 16",Северное Бутово,ЮЗАО
Русский Стандарт,55.609591,37.720299,"г. Москва, бул. Ореховый, д. 14, корп. 3",Орехово-Борисово Южное,ЮАО
Русский Стандарт,55.773358,37.651883,"г. Москва, ул. Каланчевская, д. 17, стр. 1",Красносельский,ЦАО
Русский Стандарт,55.759465,37.657179,"г. Москва, ул. Земляной Вал, д. 18—22, стр. 1",Басманный,ЦАО
Русский Стандарт,55.886876,37.661265,"г. Москва, ул. Широкая, д. 14, корп. 1",Северное Медведково,СВАО
Русский Стандарт,55.847045,37.362076,"г. Москва, ул. Митинская, д. 36, корп. 2",Митино,СЗАО
Русский Стандарт,55.751104,37.816422,"г. Москва, просп. Свободный, д. 20а",Новогиреево,ВАО
Русский Стандарт,55.795184,37.490723,"г. Москва, ул. Маршала Бирюзова, д. 18",Щукино,СЗАО
Русский Стандарт,55.861444,37.603655,"г. Москва, ул. Хачатуряна, д. 20",Отрадное,СВАО
Русский Стандарт,55.677889,37.564366,"г. Москва, просп. Нахимовский, д. 42",Академический,ЮЗАО
Русский Стандарт,55.651664,37.59722,"г. Москва, ул. Азовская, д. 24, корп. 2",Зюзино,ЮЗАО
Русский Стандарт,55.805713,37.518903,"г. Москва, просп. Ленинградский, д. 74, корп. 4",Аэропорт,САО
Русский Стандарт,55.849589,37.443165,"г. Москва, бул. Химкинский, д. 21",Южное Тушино,СЗАО
Русский Стандарт,55.819093,37.573599,"г. Москва, ш. Дмитровское, д. 13а",Тимирязевский,САО
Русский Стандарт,55.786613,37.737666,"г. Москва, ул. Ткацкая, д. 38",Соколиная Гора,ВАО
Русский Стандарт,55.814407,37.797747,"г. Москва, ул. Уральская, д. 5",Гольяново,ВАО
Русский Стандарт,55.703515,37.510954,"г. Москва, просп. Мичуринский, д. 5",Раменки,ЗАО
Русский Стандарт,55.663987,37.484765,"г. Москва, просп. Вернадского, д. 105, корп. 3",Тропарёво-Никулино,ЗАО
Русьуниверсалбанк,55.761088,37.65489,"г. Москва, пер. Малый Казенный, д. 14, стр. 1",Басманный,ЦАО
СберБанк,55.776477,37.687574,"г. Москва, ул. Бакунинская, 44—48, стр. 1",Басманный,ЦАО
СберБанк,55.655689,37.743786,"г. Москва, ул. Люблинская, 157, корп. 3",Марьино,ЮВАО
СберБанк,55.7571,37.570227,"г. Москва, ул. Рочдельская, 12, стр. 1",Пресненский,ЦАО
СберБанк,55.749633,37.537434,"г. Москва, наб. Пресненская, 12",Пресненский,ЦАО
СберБанк,55.74549,37.668459,"г. Москва, ул. Добровольческая, 1/64",Таганский,ЦАО
СберБанк,55.763748,37.599882,"г. Москва, пер. Богословский, 12а",Пресненский,ЦАО
СберБанк,55.747881,37.537094,"г. Москва, наб. Пресненская, 2",Пресненский,ЦАО
СберБанк,55.723359,37.517545,"г. Москва, ул. Довженко, 1",Раменки,ЗАО
СберБанк,55.784453,37.469207,"г. Москва, ул. Маршала Тухачевского, 41, корп. 1",Хорошёво-Мнёвники,СЗАО
СберБанк,55.788531,37.537493,"г. Москва, бул. Ходынский, 2",Хорошёвский,САО
СберБанк,55.847278,37.637533,"г. Москва, Лазоревый пр-д, 1а, корп. 3",Свиблово,СВАО
СберБанк,55.767891,37.623012,"г. Москва, бул. Цветной, 2",Мещанский,ЦАО
СберБанк,55.699856,37.579339,"г. Москва, ул. Вавилова, 19",Академический,ЮЗАО
СберБанк,55.669688,37.453281,"г. Москва, ул. Никулинская, 25",Тропарёво-Никулино,ЗАО
СберБанк,55.735803,37.592265,"г. Москва, бул. Зубовский, 13, стр. 1",Хамовники,ЦАО
СберБанк,55.745156,37.668837,"г. Москва, ул. Большая Андроньевская, 8",Таганский,ЦАО
СберБанк,55.699856,37.579337,"г. Москва, ул. Вавилова, д. 19",Академический,ЮЗАО
СберБанк,55.746055,37.66934,"г. Москва, ул. Большая Андроньевская, д. 6",Таганский,ЦАО
СберБанк,55.745157,37.668837,"г. Москва, ул. Большая Андроньевская, д. 8",Таганский,ЦАО
СберБанк,55.772981,37.486744,"г. Москва, ул. Демьяна Бедного, 5",Хорошёво-Мнёвники,СЗАО
СберБанк,55.827122,37.436186,"г. Москва, Стратонавтов пр-д, 9, корп. 2",Покровское-Стрешнево,СЗАО
СберБанк,55.738545,37.525643,"г. Москва, просп. Кутузовский, 36а",Дорогомилово,ЗАО
СберБанк,55.651418,37.412909,"г. Москва, ул. 50 лет Октября, 11",Солнцево,ЗАО
СберБанк,55.738686,37.490663,"г. Москва, ул. Кастанаевская, 24",Филёвский Парк,ЗАО
СберБанк,55.651847,37.506436,"г. Москва, ул. Миклухо-Маклая, 17",Обручевский,ЮЗАО
СберБанк,55.735417,37.467823,"г. Москва, ул. Кастанаевская, 54, корп. 3",Фили-Давыдково,ЗАО
СберБанк,55.702839,37.572821,"г. Москва, просп. Ленинский, 45",Гагаринский,ЮЗАО
СберБанк,55.813268,37.723243,"г. Москва, бул. Маршала Рокоссовского, 18",Богородское,ВАО
СберБанк,55.681608,37.493042,"г. Москва, ул. Удальцова, 32, стр. 2",Проспект Вернадского,ЗАО
СберБанк,55.86384,37.465257,"г. Москва, ш. Ленинградское, 112/1",Левобережный,САО
СберБанк,55.700108,37.752154,"г. Москва, бул. Волжский, квартал 113а, корп. 1",Кузьминки,ЮВАО
СберБанк,55.668774,37.518206,"г. Москва, просп. Ленинский, 99",Обручевский,ЮЗАО
СберБанк,55.773232,37.710863,"г. Москва, ул. Госпитальный Вал, 18/1",Лефортово,ЮВАО
СберБанк,55.683816,37.68624,"г. Москва, ул. Судостроительная, 32",Нагатинский Затон,ЮАО
СберБанк,55.6629,37.553702,"г. Москва, ул. Наметкина, 11",Черёмушки,ЮЗАО
СберБанк,55.637691,37.65597,"г. Москва, ул. Кантемировская, 47",Царицыно,ЮАО
СберБанк,55.741074,37.415775,"г. Москва, ул. Ярцевская, 25а",Кунцево,ЗАО
СберБанк,55.777242,37.467066,"г. Москва, просп. Маршала Жукова, 44",Хорошёво-Мнёвники,СЗАО
СберБанк,55.714433,37.402755,"г. Москва, ул. Вяземская, 4",Можайский,ЗАО
СберБанк,55.85581,37.562643,"г. Москва, ш. Дмитровское, 64, корп. 2",Бескудниковский,САО
СберБанк,55.71237,37.777174,"г. Москва, ул. Зеленодольская, 22/14",Кузьминки,ЮВАО
СберБанк,55.82096,37.628186,"г. Москва, ул. Академика Королева, 5",Останкинский,СВАО
СберБанк,55.641192,37.523964,"г. Москва, ул. Профсоюзная, 104",Коньково,ЮЗАО
СберБанк,55.871524,37.637511,"г. Москва, ул. Полярная, 1",Южное Медведково,СВАО
СберБанк,55.72519,37.46187,"г. Москва, бул. Славянский, 15",Фили-Давыдково,ЗАО
СберБанк,55.706163,37.765351,"г. Москва, просп. Волгоградский, 119а",Кузьминки,ЮВАО
СберБанк,55.752154,37.591472,"г. Москва, ул. Новый Арбат, 17",Арбат,ЦАО
СберБанк,55.794217,37.586275,"г. Москва, ул. Бутырская, 2/18",Бутырский,СВАО
СберБанк,55.733554,37.419183,"г. Москва, ул. Молодогвардейская, 25, корп. 1",Кунцево,ЗАО
СберБанк,55.687078,37.544994,"г. Москва, просп. Ленинский, 75/9",Гагаринский,ЮЗАО
СберБанк,55.870065,37.635254,"г. Москва, Дежнева пр-д, 27, корп. 1",Южное Медведково,СВАО
СберБанк,55.810774,37.800755,"г. Москва, ш. Щелковское, 75",Гольяново,ВАО
СберБанк,55.803458,37.814471,"г. Москва, бул. Сиреневый, 53",Северное Измайлово,ВАО
СберБанк,55.845709,37.49934,"г. Москва, ул. Смольная, 7",Головинский,САО
СберБанк,55.705524,37.479279,"г. Москва, ул. Матвеевская, 2",Очаково-Матвеевское,ЗАО
СберБанк,55.752463,37.818832,"г. Москва, просп. Свободный, 33",Новогиреево,ВАО
СберБанк,55.879835,37.522284,"г. Москва, ш. Коровинское, 20, корп. 1",Дмитровский,САО
СберБанк,55.718549,37.78709,"г. Москва, просп. Рязанский, 69",Рязанский,ЮВАО
СберБанк,55.873974,37.551419,"г. Москва, бул. Бескудниковский, 40, корп. 3",Бескудниковский,САО
СберБанк,55.858612,37.423265,"г. Москва, ул. Героев Панфиловцев, 16, корп. 1",Северное Тушино,СЗАО
СберБанк,55.849848,37.43637,"г. Москва, бул. Яна Райниса, 1, корп. 1",Южное Тушино,СЗАО
СберБанк,55.866859,37.540568,"г. Москва, ш. Коровинское, 5, корп. 1",Западное Дегунино,САО
СберБанк,55.754023,37.657295,"г. Москва, ул. Земляной Вал, 41, стр. 1",Таганский,ЦАО
СберБанк,55.804221,37.583255,"г. Москва, ул. Бутырская, 76, стр. 1",Бутырский,СВАО
СберБанк,55.842954,37.547434,"г. Москва, ул. Лихоборские Бугры, 8",Коптево,САО
СберБанк,55.862355,37.436551,"г. Москва, ул. Планерная, 12, корп. 1",Северное Тушино,СЗАО
СберБанк,55.668251,37.61061,"г. Москва, ул. Криворожская, 23, корп. 1",Нагорный,ЮАО
СберБанк,55.668529,37.543652,"г. Москва, ул. Архитектора Власова, 39",Обручевский,ЮЗАО
СберБанк,55.87044,37.661467,"г. Москва, ул. Менжинского, 38, корп. 1, стр. 2",Бабушкинский,СВАО
СберБанк,55.707285,37.461568,"г. Москва, ул. Матвеевская, 42, корп. 3",Очаково-Матвеевское,ЗАО
СберБанк,55.6397,37.607276,"г. Москва, ул. Чертановская, 1в, корп. 1",Чертаново Северное,ЮАО
СберБанк,55.680119,37.717008,"г. Москва, ул. Гурьянова, 55",Печатники,ЮВАО
СберБанк,55.852361,37.421387,"г. Москва, ул. Туристская, 19, корп. 1",Северное Тушино,СЗАО
СберБанк,55.691121,37.727924,"г. Москва, ул. Шоссейная, 1/2, стр. 2",Печатники,ЮВАО
СберБанк,55.805101,37.717628,"г. Москва, ул. Просторная, 8",Преображенское,ВАО
СберБанк,55.646575,37.655944,"г. Москва, просп. Пролетарский, 6, корп. 1",Москворечье-Сабурово,ЮАО
СберБанк,55.727193,37.473696,"г. Москва, бул. Славянский, 3",Фили-Давыдково,ЗАО
СберБанк,55.884196,37.686829,"г. Москва, ул. Тайнинская, 24",Лосиноостровский,СВАО
СберБанк,55.819525,37.827331,"г. Москва, ул. Хабаровская, 8",Гольяново,ВАО
СберБанк,55.703754,37.660603,"г. Москва, ул. Трофимова, 1/17",Даниловский,ЮАО
СберБанк,55.879249,37.546861,"г. Москва, ш. Дмитровское, 98",Восточное Дегунино,САО
СберБанк,55.720381,37.817672,"г. Москва, ул. Вешняковская, 24 Б",Вешняки,ВАО
СберБанк,55.716856,37.745377,"г. Москва, бул. Волжский, 7",Рязанский,ЮВАО
СберБанк,55.696172,37.821562,"г. Москва, Ферганский пр-д, 10г, стр. 1",Выхино-Жулебино,ЮВАО
СберБанк,55.791057,37.488695,"г. Москва, ул. Народного Ополчения, 39, корп. 1",Щукино,СЗАО
СберБанк,55.737817,37.686778,"г. Москва, ул. Нижегородская, 13 Б",Таганский,ЦАО
СберБанк,55.828501,37.572036,"г. Москва, ш. Дмитровское, 29, корп. 1",Тимирязевский,САО
СберБанк,55.627725,37.610801,"г. Москва, ул. Кировоградская, 8, корп. 3",Чертаново Северное,ЮАО
СберБанк,55.662,37.481415,"г. Москва, просп. Вернадского, 86 Б",Тропарёво-Никулино,ЗАО
СберБанк,55.817239,37.569261,"г. Москва, ул. Дубки, 2а",Тимирязевский,САО
СберБанк,55.606851,37.589734,"г. Москва, ул. Чертановская, 48, корп. 3",Чертаново Центральное,ЮАО
СберБанк,55.595144,37.606927,"г. Москва, ул. Россошанская, 3, корп. 1а, стр. 2",Чертаново Южное,ЮАО
СберБанк,55.611279,37.606535,"г. Москва, ул. Красного Маяка, 2 Б",Чертаново Центральное,ЮАО
СберБанк,55.640644,37.53454,"г. Москва, ул. Миклухо-Маклая, 55",Коньково,ЮЗАО
СберБанк,55.734895,37.825764,"г. Москва, ул. Вешняковская, 12 Б, стр. 1",Вешняки,ВАО
СберБанк,55.747181,37.758393,"г. Москва, ул. Перовская, 8, корп. 1",Перово,ВАО
СберБанк,55.734943,37.657829,"г. Москва, ул. Гвоздева, 7/4, стр. 1",Таганский,ЦАО
СберБанк,55.704575,37.816307,"г. Москва, ул. Ташкентская, 12/20",Выхино-Жулебино,ЮВАО
СберБанк,55.783153,37.641543,"г. Москва, ул. Большая Переяславская, 9",Мещанский,ЦАО
СберБанк,55.667517,37.490877,"г. Москва, просп. Вернадского, 97, корп. 1",Тропарёво-Никулино,ЗАО
СберБанк,55.654833,37.492339,"г. Москва, просп. Ленинский, 148",Тропарёво-Никулино,ЗАО
СберБанк,55.680145,37.663327,"г. Москва, просп. Андропова, 28, корп. 2",Нагатино-Садовники,ЮАО
СберБанк,55.636348,37.511135,"г. Москва, ул. Островитянова, 18",Тёплый Стан,ЮЗАО
СберБанк,55.868142,37.563288,"г. Москва, ул. Дубнинская, 16, корп. 1",Восточное Дегунино,САО
СберБанк,55.620112,37.507011,"г. Москва, просп. Новоясеневский, 1, корп. 2",Ясенево,ЮЗАО
СберБанк,55.59071,37.647125,"г. Москва, ул. Медынская, 5а, корп. 1",Бирюлёво Западное,ЮАО
СберБанк,55.609263,37.719524,"г. Москва, бул. Ореховый, 14, корп. 3",Орехово-Борисово Южное,ЮАО
СберБанк,55.674,37.760729,"г. Москва, ул. Совхозная, 39",Люблино,ЮВАО
СберБанк,55.716643,37.38762,"г. Москва, ул. Барвихинская, 8, стр. 1",Кунцево,ЗАО
СберБанк,55.580879,37.644181,"г. Москва, ул. Булатниковская, 6а",Бирюлёво Западное,ЮАО
СберБанк,55.668382,37.648458,"г. Москва, ул. Академика Миллионщикова, 19",Нагатино-Садовники,ЮАО
СберБанк,55.897014,37.632079,"г. Москва, ул. Корнейчука, 44",Бибирево,СВАО
СберБанк,55.59593,37.594149,"г. Москва, ул. Академика Янгеля, 4, корп. 2",Чертаново Южное,ЮАО
СберБанк,55.808757,37.46136,"г. Москва, ул. Маршала Василевского, 17",Щукино,СЗАО
СберБанк,55.707837,37.818811,"г. Москва, ул. Ташкентская, 9",Выхино-Жулебино,ЮВАО
СберБанк,55.75872,37.610224,"г. Москва, пер. Газетный, 17, стр. 2",Тверской,ЦАО
СберБанк,55.715079,37.797355,"г. Москва, просп. Рязанский, 58/1, стр. 1",Выхино-Жулебино,ЮВАО
СберБанк,55.877181,37.651283,"г. Москва, ул. Сухонская, 9а",Северное Медведково,СВАО
СберБанк,55.720095,37.421186,"г. Москва, ш. Можайское, 28",Кунцево,ЗАО
СберБанк,55.869276,37.59083,"г. Москва, ул. Римского-Корсакова, 2",Отрадное,СВАО
СберБанк,55.853114,37.585832,"г. Москва, ш. Алтуфьевское, 8",Отрадное,СВАО
СберБанк,55.83456,37.645549,"г. Москва, ул. Сельскохозяйственная, 9",Ростокино,СВАО
СберБанк,55.619932,37.719051,"г. Москва, ул. Шипиловская, 32",Орехово-Борисово Северное,ЮАО
СберБанк,55.860483,37.602727,"г. Москва, ул. Хачатуряна, 16",Отрадное,СВАО
СберБанк,55.631974,37.483437,"г. Москва, ул. Академика Виноградова, 1",Тёплый Стан,ЮЗАО
СберБанк,55.624899,37.48389,"г. Москва, ул. Генерала Тюленева, 9",Тёплый Стан,ЮЗАО
СберБанк,55.856382,37.49384,"г. Москва, ул. Лавочкина, 34",Ховрино,САО
СберБанк,55.890559,37.596492,"г. Москва, ул. Мурановская, 3",Бибирево,СВАО
СберБанк,55.897815,37.594903,"г. Москва, ул. Лескова, 8",Бибирево,СВАО
СберБанк,55.855263,37.477752,"г. Москва, ул. Фестивальная, 2 Б",Левобережный,САО
СберБанк,55.822387,37.823738,"г. Москва, ул. Хабаровская, 15",Гольяново,ВАО
СберБанк,55.839657,37.527994,"г. Москва, ул. Михалковская, 24",Коптево,САО
СберБанк,55.880508,37.694917,"г. Москва, ул. Малыгина, 7",Лосиноостровский,СВАО
СберБанк,55.606205,37.514331,"г. Москва, ул. Голубинская, 7, корп. 2",Ясенево,ЮЗАО
СберБанк,55.604963,37.712696,"г. Москва, ул. Домодедовская, 28",Орехово-Борисово Южное,ЮАО
СберБанк,55.60127,37.669557,"г. Москва, ул. Липецкая, 2, стр. 2",Бирюлёво Восточное,ЮАО
СберБанк,55.746305,37.562913,"г. Москва, ул. Большая Дорогомиловская, 10",Дорогомилово,ЗАО
СберБанк,55.668038,37.590249,"г. Москва, просп. Нахимовский, 25а",Котловка,ЮЗАО
СберБанк,55.610993,37.697098,"г. Москва, Шипиловский пр-д, 39, корп. 1",Орехово-Борисово Северное,ЮАО
СберБанк,55.803021,37.403198,"г. Москва, бул. Строгинский, 22",Строгино,СЗАО
СберБанк,55.778722,37.826992,"г. Москва, ул. Челябинская, 15",Ивановское,ВАО
СберБанк,55.879248,37.54686,"г. Москва, ш. Дмитровское, 98",Восточное Дегунино,САО
СберБанк,55.67011,37.552338,"г. Москва, ул. Профсоюзная, 56",Обручевский,ЮЗАО
СберБанк,55.781832,37.456209,"г. Москва, ул. Живописная, 6, корп. 1",Хорошёво-Мнёвники,СЗАО
СберБанк,55.60796,37.532861,"г. Москва, просп. Новоясеневский, 7",Ясенево,ЮЗАО
СберБанк,55.643529,37.4895,"г. Москва, ул. Академика Бакулева, 2",Тёплый Стан,ЮЗАО
СберБанк,55.676626,37.76642,"г. Москва, ул. Краснодарская, 57, корп. 1",Люблино,ЮВАО
СберБанк,55.599941,37.536887,"г. Москва, ул. Паустовского, 8, корп. 3",Ясенево,ЮЗАО
СберБанк,55.596108,37.537096,"г. Москва, ул. Голубинская, 24, корп. 1",Ясенево,ЮЗАО
СберБанк,55.681608,37.49304,"г. Москва, ул. Удальцова, 32, стр. 2",Проспект Вернадского,ЗАО
СберБанк,55.675906,37.467002,"г. Москва, просп. Мичуринский, Олимпийская деревня, 3",Тропарёво-Никулино,ЗАО
СберБанк,55.611898,37.732099,"г. Москва, бул. Ореховый, 22а",Зябликово,ЮАО
СберБанк,55.892751,37.616689,"г. Москва, ул. Лескова, 30",Бибирево,СВАО
СберБанк,55.619605,37.752184,"г. Москва, ул. Кустанайская, 6",Зябликово,ЮАО
СберБанк,55.853537,37.654435,"г. Москва, ул. Амундсена, 15, корп. 2",Свиблово,СВАО
СберБанк,55.851018,37.617479,"г. Москва, ал. Березовая, 17, корп. 1",Останкинский,СВАО
СберБанк,55.850811,37.409904,"г. Москва, бул. Яна Райниса, 30, корп. 1",Северное Тушино,СЗАО
СберБанк,55.686921,37.594917,"г. Москва, ул. Большая Черемушкинская, 13, стр. 6",Котловка,ЮЗАО
СберБанк,55.676725,37.692151,"г. Москва, ул. Коломенская, 23, корп. 2",Нагатинский Затон,ЮАО
СберБанк,55.652707,37.396452,"г. Москва, просп. Солнцевский, 2",Солнцево,ЗАО
СберБанк,55.885164,37.587599,"г. Москва, ш. Алтуфьевское, 64",Алтуфьевский,СВАО
СберБанк,55.611246,37.59894,"г. Москва, ул. Красного Маяка, 1, корп. 1",Чертаново Центральное,ЮАО
СберБанк,55.631033,37.519292,"г. Москва, ул. Профсоюзная, 115, корп. 1",Коньково,ЮЗАО
СберБанк,55.583082,37.59544,"г. Москва, ш. Варшавское, 160",Чертаново Южное,ЮАО
СберБанк,55.890857,37.5245,"г. Москва, ул. Клязьминская, 9, стр. 3",Дмитровский,САО
СберБанк,55.683311,37.925665,"г. Москва, ул. 1-я Вольская, 22, корп. 1",Некрасовка,ЮВАО
СберБанк,55.709407,37.894732,"г. Москва, ул. Дмитриевского, 21",Косино-Ухтомский,ВАО
СберБанк,55.539193,37.573473,"г. Москва, ул. 2-я Мелитопольская, 3",Южное Бутово,ЮЗАО
СберБанк,55.75089,37.412612,"г. Москва, ш. Рублевское, 42, корп. 1",Крылатское,ЗАО
СберБанк,55.662233,37.533534,"г. Москва, ул. Академика Челомея, 4 Б",Обручевский,ЮЗАО
СберБанк,55.583432,37.677087,"г. Москва, ул. Бирюлевская, 55, корп. 1, стр. 2",Бирюлёво Восточное,ЮАО
СберБанк,55.640031,37.758615,"г. Москва, ул. Борисовские пруды, 26",Братеево,ЮАО
СберБанк,55.622335,37.701511,"г. Москва, ул. Маршала Захарова, 13, корп. 1",Орехово-Борисово Северное,ЮАО
СберБанк,55.626614,37.722226,"г. Москва, Борисовский пр-д, 11, корп. 1, стр. 2",Орехово-Борисово Северное,ЮАО
СберБанк,55.865822,37.598314,"г. Москва, ул. Декабристов, 10, корп. 2",Отрадное,СВАО
СберБанк,55.805896,37.417673,"г. Москва, ул. Исаковского, 31",Строгино,СЗАО
СберБанк,55.852109,37.645638,"г. Москва, ул. Снежная, 13, корп. 1",Свиблово,СВАО
СберБанк,55.66893,37.559432,"г. Москва, ул. Гарибальди, 36",Черёмушки,ЮЗАО
СберБанк,55.694257,37.496776,"г. Москва, просп. Мичуринский, 31, корп. 4",Раменки,ЗАО
СберБанк,55.759302,37.408927,"г. Москва, бул. Осенний, 12",Крылатское,ЗАО
СберБанк,55.624417,37.508466,"г. Москва, ул. Профсоюзная, 144",Тёплый Стан,ЮЗАО
СберБанк,55.741303,37.860819,"г. Москва, ул. Новокосинская, 23",Новокосино,ВАО
СберБанк,55.74247,37.869443,"г. Москва, ул. Новокосинская, 36 Б",Новокосино,ВАО
СберБанк,55.640015,37.351024,"г. Москва, ул. Шолохова, 16",Ново-Переделкино,ЗАО
СберБанк,55.646697,37.740627,"г. Москва, бул. Новочеркасский, 46",Марьино,ЮВАО
СберБанк,55.566419,37.575602,"г. Москва, бул. Дмитрия Донского, 11",Северное Бутово,ЮЗАО
СберБанк,55.810819,37.392461,"г. Москва, Неманский пр-д, 9",Строгино,СЗАО
СберБанк,55.639891,37.36683,"г. Москва, ул. Новопеределкинская, 7а",Ново-Переделкино,ЗАО
СберБанк,55.880527,37.489568,"г. Москва, ул. Маршала Федоренко, 7",Западное Дегунино,САО
СберБанк,55.740218,37.434389,"г. Москва, ш. Рублевское, 16, корп. 1",Кунцево,ЗАО
СберБанк,55.823641,37.500978,"г. Москва, Старопетровский пр-д, 1, стр. 2",Войковский,САО
СберБанк,55.640094,37.342334,"г. Москва, ул. Скульптора Мухиной, 10, корп. 1",Ново-Переделкино,ЗАО
СберБанк,55.588649,37.665381,"г. Москва, ул. Бирюлевская, 37, корп. 1",Бирюлёво Восточное,ЮАО
СберБанк,55.775622,37.495623,"г. Москва, просп. Маршала Жукова, 11, корп. 1",Хорошёво-Мнёвники,СЗАО
СберБанк,55.74203,37.576792,"г. Москва, ул. Плющиха, 42",Хамовники,ЦАО
СберБанк,55.63608,37.680952,"г. Москва, ул. Кантемировская, 3, корп. 5, стр. 2",Царицыно,ЮАО
СберБанк,55.85105,37.35248,"г. Москва, ул. Митинская, 47",Митино,СЗАО
СберБанк,55.693998,37.554381,"г. Москва, просп. Ленинский, 62/1",Гагаринский,ЮЗАО
СберБанк,55.698451,37.846847,"г. Москва, бул. Жулебинский, 9",Выхино-Жулебино,ЮВАО
СберБанк,55.820958,37.628186,"г. Москва, ул. Академика Королева, 5",Останкинский,СВАО
СберБанк,55.68169,37.566076,"г. Москва, ул. Профсоюзная, 20/9",Академический,ЮЗАО
СберБанк,55.725531,37.621984,"г. Москва, ул. Люсиновская, 26—28, корп. 6",Замоскворечье,ЦАО
СберБанк,55.699796,37.500746,"г. Москва, просп. Мичуринский, 26",Раменки,ЗАО
СберБанк,55.680365,37.55772,"г. Москва, просп. Нахимовский, 65",Черёмушки,ЮЗАО
СберБанк,55.703191,37.8457,"г. Москва, ул. Пронская, 2",Выхино-Жулебино,ЮВАО
СберБанк,55.847443,37.352384,"г. Москва, пер. 3-й Митинский, 6, корп. 1",Митино,СЗАО
СберБанк,55.776477,37.687573,"г. Москва, ул. Бакунинская, 44—48, стр. 1",Басманный,ЦАО
СберБанк,55.790782,37.600112,"г. Москва, ул. Тихвинская, 20",Марьина Роща,СВАО
СберБанк,55.800415,37.543756,"г. Москва, ул. Красноармейская, 20",Аэропорт,САО
СберБанк,55.848543,37.364669,"г. Москва, ш. Пятницкое, 25, корп. 1",Митино,СЗАО
СберБанк,55.804136,37.760475,"г. Москва, ш. Щелковское, 6",Северное Измайлово,ВАО
СберБанк,55.728271,37.669419,"г. Москва, ул. 1-я Дубровская, 1а",Таганский,ЦАО
СберБанк,55.85522,37.355656,"г. Москва, ш. Пятницкое, 39",Митино,СЗАО
СберБанк,55.648515,37.73546,"г. Москва, бул. Новочеркасский, 41, корп. 2",Марьино,ЮВАО
СберБанк,55.72397,37.452772,"г. Москва, просп. Кутузовский, 71",Фили-Давыдково,ЗАО
СберБанк,55.81948,37.578923,"г. Москва, ул. Яблочкова, 21а",Бутырский,СВАО
СберБанк,55.799713,37.407259,"г. Москва, ул. Таллинская, 26",Строгино,СЗАО
СберБанк,55.617937,37.592728,"г. Москва, ул. Чертановская, 32а",Чертаново Центральное,ЮАО
СберБанк,55.751963,37.812821,"г. Москва, просп. Зеленый, 54а",Новогиреево,ВАО
СберБанк,55.546979,37.552237,"г. Москва, бул. Адмирала Ушакова, 5",Южное Бутово,ЮЗАО
СберБанк,55.65659,37.597743,"г. Москва, ул. Болотниковская, 21, стр. 1",Зюзино,ЮЗАО
СберБанк,55.645864,37.747132,"г. Москва, ул. Люблинская, 175",Марьино,ЮВАО
СберБанк,55.746412,37.720932,"г. Москва, ул. Авиамоторная, 51",Лефортово,ЮВАО
СберБанк,55.611266,37.287061,"г. Москва, п. Внуково, ул. Центральная, 8 Б",Внуково,ЗАО
СберБанк,55.6899,37.854165,"г. Москва, бул. Жулебинский, 28, корп. 1",Выхино-Жулебино,ЮВАО
СберБанк,55.796749,37.575808,"г. Москва, ул. Башиловская, 11",Савёловский,САО
СберБанк,55.747881,37.537093,"г. Москва, наб. Пресненская, 2",Пресненский,ЦАО
СберБанк,55.819677,37.8022,"г. Москва, ул. Алтайская, 4",Гольяново,ВАО
СберБанк,55.794891,37.69808,"г. Москва, ул. Стромынка, 19, корп. 1",Сокольники,ВАО
СберБанк,55.739506,37.66954,"г. Москва, ул. Таганская, 31/22",Таганский,ЦАО
СберБанк,55.686981,37.574497,"г. Москва, ул. Дмитрия Ульянова, 24",Академический,ЮЗАО
СберБанк,55.768972,37.580104,"г. Москва, ул. Большая Грузинская, 37",Пресненский,ЦАО
СберБанк,55.873571,37.665283,"г. Москва, ул. Енисейская, 29",Бабушкинский,СВАО
СберБанк,55.766945,37.83411,"г. Москва, ул. Саянская, 18",Ивановское,ВАО
СберБанк,55.838963,37.485366,"г. Москва, ул. Адмирала Макарова, 45",Войковский,САО
СберБанк,55.735804,37.592265,"г. Москва, бул. Зубовский, 13, стр. 1",Хамовники,ЦАО
СберБанк,55.735079,37.667494,"г. Москва, ул. Марксистская, 9",Таганский,ЦАО
СберБанк,55.861247,37.694368,"г. Москва, ш. Ярославское, 28",Ярославский,СВАО
СберБанк,55.568397,37.587743,"г. Москва, ул. Старокачаловская, 1, корп. 1",Северное Бутово,ЮЗАО
СберБанк,55.704403,37.7705,"г. Москва, просп. Волгоградский, 92",Кузьминки,ЮВАО
СберБанк,55.85795,37.51565,"г. Москва, ул. Солнечногорская, 5, корп. 1",Головинский,САО
СберБанк,55.784455,37.718884,"г. Москва, ул. Измайловский Вал, 20",Соколиная Гора,ВАО
СберБанк,55.710286,37.675575,"г. Москва, ул. 7-я Кожуховская, 9",Южнопортовый,ЮВАО
СберБанк,55.723405,37.445481,"г. Москва, ш. Можайское, 4, корп. 1",Кунцево,ЗАО
СберБанк,55.83859,37.379313,"г. Москва, Новотушинский пр-д, 8, корп. 1",Митино,СЗАО
СберБанк,55.736566,37.630888,"г. Москва, ул. Новокузнецкая, 18/10, стр. 3",Замоскворечье,ЦАО
СберБанк,55.65453,37.57436,"г. Москва, ул. Каховка, 23",Зюзино,ЮЗАО
СберБанк,55.753815,37.774051,"г. Москва, 3-й пр-д Перова поля, 3а",Перово,ВАО
СберБанк,55.766207,37.632193,"г. Москва, пер. Милютинский, 19/4, стр. 2",Красносельский,ЦАО
СберБанк,55.780898,37.611261,"г. Москва, ул. Селезневская, 30, корп. 2",Тверской,ЦАО
СберБанк,55.789955,37.681281,"г. Москва, пл. Сокольническая, 9",Сокольники,ВАО
СберБанк,55.635251,37.343172,"г. Москва, ул. Федосьино, 4, корп. 1",Ново-Переделкино,ЗАО
СберБанк,55.839531,37.437282,"г. Москва, ул. Сходненская, 9",Южное Тушино,СЗАО
СберБанк,55.747098,37.591113,"г. Москва, пер. Сивцев Вражек, 29/16, стр. 1",Хамовники,ЦАО
СберБанк,55.790911,37.482958,"г. Москва, ул. Расплетина, 10, корп. 1",Щукино,СЗАО
СберБанк,55.64574,37.543534,"г. Москва, ул. Бутлерова, 30а",Коньково,ЮЗАО
СберБанк,55.622078,37.601391,"г. Москва, ул. Днепропетровская, 3, корп. 5а",Чертаново Центральное,ЮАО
СберБанк,55.7835,37.632051,"г. Москва, ул. Гиляровского, 39, стр. 3",Мещанский,ЦАО
СберБанк,55.773393,37.605099,"г. Москва, пер. Оружейный, 41",Тверской,ЦАО
СберБанк,55.86583,37.704511,"г. Москва, ш. Ярославское, 54",Ярославский,СВАО
СберБанк,55.788803,37.783678,"г. Москва, просп. Измайловский, 61, стр. 1",Измайлово,ВАО
СберБанк,55.781987,37.707114,"г. Москва, ул. Большая Семеновская, 28",Соколиная Гора,ВАО
СберБанк,55.659269,37.757963,"г. Москва, ул. Братиславская, 16, корп. 1",Марьино,ЮВАО
СберБанк,55.612681,37.536342,"г. Москва, бул. Литовский, 20",Ясенево,ЮЗАО
СберБанк,55.53434,37.521406,"г. Москва, ул. Южнобутовская, 91",Южное Бутово,ЮЗАО
СберБанк,55.816669,37.702563,"г. Москва, ул. 1-я Мясниковская, 2",Богородское,ВАО
СберБанк,55.734175,37.852977,"г. Москва, ул. Новокосинская, 11, корп. 2",Новокосино,ВАО
СберБанк,55.646171,37.752868,"г. Москва, Луговой пр-д, 12, корп. 1",Марьино,ЮВАО
СберБанк,55.772433,37.591597,"г. Москва, ул. 1-я Тверская-Ямская, 11",Тверской,ЦАО
СберБанк,55.763653,37.406218,"г. Москва, бул. Осенний, 23",Крылатское,ЗАО
СберБанк,55.635632,37.741561,"г. Москва, ул. Борисовские пруды, 12, корп. 1",Братеево,ЮАО
СберБанк,55.836777,37.354644,"г. Москва, ул. Генерала Белобородова, 11",Митино,СЗАО
СберБанк,55.771537,37.651691,"г. Москва, ул. Каланчевская, 15",Красносельский,ЦАО
СберБанк,55.625936,37.735248,"г. Москва, Ореховый пр-д, 9",Зябликово,ЮАО
СберБанк,55.683034,37.852333,"г. Москва, ул. Генерала Кузнецова, 28, корп. 1",Выхино-Жулебино,ЮВАО
СберБанк,55.861216,37.481257,"г. Москва, ул. Смольная, 35, стр. 1",Левобережный,САО
СберБанк,55.863839,37.503416,"г. Москва, ул. Петрозаводская, 8",Ховрино,САО
СберБанк,55.742732,37.502866,"г. Москва, Багратионовский пр-д, 7, корп. 20а",Филёвский Парк,ЗАО
СберБанк,55.883836,37.605792,"г. Москва, ул. Плещеева, 4",Бибирево,СВАО
СберБанк,55.546814,37.532338,"г. Москва, ул. Адмирала Лазарева, 24",Южное Бутово,ЮЗАО
СберБанк,55.611898,37.732098,"г. Москва, бул. Ореховый, 22а",Зябликово,ЮАО
СберБанк,55.669688,37.453281,"г. Москва, ул. Никулинская, 25",Тропарёво-Никулино,ЗАО
СберБанк,55.70178,37.689101,"г. Москва, 2-й Южнопортовый пр-д, 12а, корп. 1, стр. 13",Печатники,ЮВАО
СберБанк,55.738888,37.61504,"г. Москва, ул. Большая Якиманка, 18",Якиманка,ЦАО
СберБанк,55.744524,37.561431,"г. Москва, ул. Брянская, 8",Дорогомилово,ЗАО
СберБанк,55.752699,37.60352,"г. Москва, ул. Воздвиженка, 9, стр. 2",Арбат,ЦАО
СберБанк,55.749698,37.710824,"г. Москва, ш. Энтузиастов, 14",Лефортово,ЮВАО
СберБанк,55.686853,37.736469,"г. Москва, ул. Люблинская, 38",Люблино,ЮВАО
СберБанк,55.897589,37.580948,"г. Москва, ул. Череповецкая, 20",Лианозово,СВАО
СберБанк,55.768306,37.632032,"г. Москва, ул. Сретенка, 14",Красносельский,ЦАО
СберБанк,55.795387,37.709265,"г. Москва, пл. Преображенская, 7а, стр. 1",Преображенское,ВАО
СберБанк,55.781847,37.599169,"г. Москва, ул. Новослободская, 16",Тверской,ЦАО
СберБанк,55.626353,37.666498,"г. Москва, ул. Луганская, 5",Царицыно,ЮАО
СберБанк,55.746047,37.669348,"г. Москва, ул. Большая Андроньевская, 6",Таганский,ЦАО
СберБанк,55.896048,37.391504,"г. Москва, ул. Соколово-Мещерская, 14",Куркино,СЗАО
СберБанк,55.765872,37.590136,"г. Москва, ул. Садовая-Кудринская, 25, стр. 1",Пресненский,ЦАО
СберБанк,55.741278,37.537029,"г. Москва, просп. Кутузовский, 30",Дорогомилово,ЗАО
СберБанк,55.78042,37.591771,"г. Москва, ул. Лесная, 20, стр. 1",Тверской,ЦАО
СберБанк,55.747799,37.70521,"г. Москва, ш. Энтузиастов, 12, корп. 2",Лефортово,ЮВАО
СберБанк,55.72259,37.559439,"г. Москва, ул. Хамовнический Вал, 36",Хамовники,ЦАО
СберБанк,55.655687,37.743786,"г. Москва, ул. Люблинская, 157, корп. 3",Марьино,ЮВАО
СберБанк,55.716726,37.887559,"г. Москва, ул. Рудневка, 19",Косино-Ухтомский,ВАО
СберБанк,55.668774,37.518206,"г. Москва, просп. Ленинский, 99",Обручевский,ЮЗАО
СберБанк,55.706883,37.592096,"г. Москва, ул. Вавилова, 3",Донской,ЮАО
СберБанк,55.862052,37.60428,"г. Москва, ул. Хачатуряна, 20",Отрадное,СВАО
СберБанк,55.767779,37.600364,"г. Москва, ул. Тверская, 22",Тверской,ЦАО
СберБанк,55.706574,37.930958,"г. Москва, ул. Рождественская, 31",Некрасовка,ЮВАО
СберБанк,55.879424,37.714895,"г. Москва, ул. Абакумова, 10, корп. 1",Ярославский,СВАО
СберБанк,55.887647,37.677274,"г. Москва, ул. Широкая, 29",Северное Медведково,СВАО
СберБанк,55.797291,37.720032,"г. Москва, ул. Большая Черкизовская, 5, корп. 1",Преображенское,ВАО
СберБанк,55.745879,37.626247,"г. Москва, ул. Пятницкая, 2/38, стр. 1",Замоскворечье,ЦАО
СберБанк,55.801835,37.532098,"г. Москва, просп. Ленинградский, 62а",Аэропорт,САО
СберБанк,55.654726,37.61892,"г. Москва, ш. Варшавское, 76, корп. 1",Нагорный,ЮАО
СберБанк,55.798932,37.735273,"г. Москва, ул. Большая Черкизовская, 22, корп. 1",Преображенское,ВАО
СберБанк,55.79952,37.504911,"г. Москва, ул. Алабяна, 13, корп. 1",Сокол,САО
СберБанк,55.679109,37.642409,"г. Москва, ул. Нагатинская, 16",Нагатино-Садовники,ЮАО
СберБанк,55.792824,37.614913,"г. Москва, ул. Советской Армии, 17/52",Марьина Роща,СВАО
СберБанк,55.743698,37.545888,"г. Москва, просп. Кутузовский, 27",Дорогомилово,ЗАО
СберБанк,55.809469,37.464571,"г. Москва, ул. Щукинская, 42",Щукино,СЗАО
СберБанк,55.765526,37.610312,"г. Москва, ул. Большая Дмитровка, 21/7",Тверской,ЦАО
СберБанк,55.792054,37.576416,"г. Москва, ул. Нижняя Масловка, 14",Савёловский,САО
СберБанк,55.76458,37.564308,"г. Москва, ул. Пресненский Вал, 6, стр. 2",Пресненский,ЦАО
СберБанк,55.822682,37.753869,"г. Москва, ш. Открытое, 17, корп. 13",Метрогородок,ВАО
СберБанк,55.820011,37.872279,"г. Москва, ул. Главная, 29",Восточный,ВАО
СберБанк,55.768288,37.677477,"г. Москва, пер. Аптекарский, 10/1, стр. 1",Басманный,ЦАО
СберБанк,55.730825,37.632204,"г. Москва, ул. Валовая, 8/18",Замоскворечье,ЦАО
СберБанк,55.811932,37.568141,"г. Москва, ул. Тимирязевская, 10/12",Тимирязевский,САО
СберБанк,55.793111,37.625917,"г. Москва, ул. Сущевский Вал, 71",Марьина Роща,СВАО
СберБанк,55.756012,37.633111,"г. Москва, Лубянский пр-д, 17",Басманный,ЦАО
СберБанк,55.808204,37.495404,"г. Москва, ш. Волоколамское, 13",Сокол,САО
СберБанк,55.799531,37.803923,"г. Москва, ул. Верхняя Первомайская, 59/35, корп. 2",Измайлово,ВАО
СберБанк,55.723623,37.610626,"г. Москва, ул. Шаболовка, 10, корп. 2",Якиманка,ЦАО
СберБанк,55.817607,37.660423,"г. Москва, ул. Павла Корчагина, 11",Алексеевский,СВАО
СберБанк,55.849594,37.521254,"г. Москва, ул. Онежская, 12",Головинский,САО
СберБанк,55.779301,37.664858,"г. Москва, ул. Краснопрудная, 11, стр. 1",Красносельский,ЦАО
СберБанк,55.826499,37.518753,"г. Москва, ул. Новопетровская, 10",Коптево,САО
СберБанк,55.69956,37.7358,"г. Москва, ул. Юных Ленинцев, 3",Текстильщики,ЮВАО
СберБанк,55.836459,37.665166,"г. Москва, ул. Бажова, 24, корп. 2",Ростокино,СВАО
СберБанк,55.776801,37.586287,"г. Москва, ул. Лесная, 4, стр. 1",Тверской,ЦАО
СберБанк,55.759571,37.646612,"г. Москва, ул. Покровка, 19",Басманный,ЦАО
СберБанк,55.741914,37.655958,"г. Москва, ул. Таганская, 1, стр. 1",Таганский,ЦАО
СберБанк,55.93513,37.554298,"г. Москва, ул. 9-я Северная линия, 1, корп. 1",Северный,СВАО
СберБанк,55.709971,37.735382,"г. Москва, просп. Волгоградский, 63",Текстильщики,ЮВАО
СберБанк,55.685045,37.622067,"г. Москва, ш. Варшавское, 26",Нагорный,ЮАО
СберБанк,55.69828,37.531784,"г. Москва, ул. Ленинские горы, 1, стр. 52",Раменки,ЗАО
СберБанк,55.796517,37.801757,"г. Москва, бул. Измайловский, 38",Измайлово,ВАО
СберБанк,55.717159,37.677755,"г. Москва, ул. Шарикоподшипниковская, 13, стр. 1",Южнопортовый,ЮВАО
СберБанк,55.815818,37.50411,"г. Москва, пер. 1-й Новоподмосковный, 2/1",Войковский,САО
СберБанк,55.824385,37.645887,"г. Москва, просп. Мира, 180",Алексеевский,СВАО
СберБанк,55.746022,37.496458,"г. Москва, ул. Барклая, 16, корп. 1",Филёвский Парк,ЗАО
СберБанк,55.681219,37.534237,"г. Москва, просп. Ленинский, 82/2",Ломоносовский,ЮЗАО
СберБанк,55.767779,37.600364,"г. Москва, ул. Тверская, 22",Тверской,ЦАО
СберБанк,55.831923,37.59278,"г. Москва, ул. Большая Марфинская, 6",Марфино,СВАО
СберБанк,55.777214,37.522795,"г. Москва, ш. Хорошевское, 27",Хорошёвский,САО
СберБанк,55.783133,37.735054,"г. Москва, ул. Щербаковская, 53, стр. 1",Соколиная Гора,ВАО
СберБанк,55.749577,37.592171,"г. Москва, ул. Арбат, 33/12, стр. 1",Арбат,ЦАО
СберБанк,55.691664,37.602949,"г. Москва, ш. Загородное, 15, корп. 1",Донской,ЮАО
СберБанк,55.803242,37.79824,"г. Москва, бул. Сиреневый, 29/45, корп. 3",Северное Измайлово,ВАО
СберБанк,55.707747,37.659964,"г. Москва, ул. Автозаводская, 7",Даниловский,ЮАО
СберБанк,55.763417,37.780096,"г. Москва, ш. Энтузиастов, 70",Перово,ВАО
СберБанк,55.802017,37.564523,"г. Москва, Петровско-Разумовский пр-д, 24, корп. 2",Савёловский,САО
СберБанк,55.783076,37.528578,"г. Москва, ул. Гризодубовой, 4, корп. 1",Хорошёвский,САО
СберБанк,55.823652,37.527515,"г. Москва, ул. Большая Академическая, 15, корп. 1",Коптево,САО
СберБанк,55.806304,37.515235,"г. Москва, просп. Ленинградский, 76, корп. 2",Аэропорт,САО
СберБанк,55.759666,37.701353,"г. Москва, ул. Лефортовский Вал, 16а",Лефортово,ЮВАО
СберБанк,55.762341,37.734518,"г. Москва, просп. Буденного, 30/8",Соколиная Гора,ВАО
СберБанк,55.847968,37.566321,"г. Москва, ш. Дмитровское, 65, корп. 1",Тимирязевский,САО
СберБанк,55.651467,37.597967,"г. Москва, ул. Азовская, 24, стр. 1",Зюзино,ЮЗАО
СберБанк,55.758468,37.549437,"г. Москва, Шмитовский пр-д, 16, стр. 1",Пресненский,ЦАО
СберБанк,55.715487,37.516051,"г. Москва, ул. Мосфильмовская, 17/25",Раменки,ЗАО
СберБанк,55.763467,37.578764,"г. Москва, ул. Большая Грузинская, 12",Пресненский,ЦАО
СберБанк,55.677892,37.531448,"г. Москва, просп. Ленинский, 89, стр. 2",Ломоносовский,ЮЗАО
СберБанк,55.764919,37.49446,"г. Москва, бул. Филевский, 1",Филёвский Парк,ЗАО
СберБанк,55.704423,37.51264,"г. Москва, просп. Мичуринский, 3",Раменки,ЗАО
СберБанк,55.746574,37.683555,"г. Москва, бул. Энтузиастов, 2",Таганский,ЦАО
СберБанк,55.809499,37.785554,"г. Москва, ш. Щелковское, 34",Северное Измайлово,ВАО
СберБанк,55.862797,37.680836,"г. Москва, Анадырский пр-д, 13",Бабушкинский,СВАО
СберБанк,55.873134,37.677182,"г. Москва, ул. Летчика Бабушкина, 37, корп. 2",Бабушкинский,СВАО
СберБанк,55.878614,37.573971,"г. Москва, Путевой пр-д, 40, корп. 3",Алтуфьевский,СВАО
СберБанк,55.826669,37.444548,"г. Москва, ул. Тушинская, 17",Покровское-Стрешнево,СЗАО
СберБанк,55.849448,37.443132,"г. Москва, бул. Химкинский, 21",Южное Тушино,СЗАО
СберБанк,55.67309,37.74991,"г. Москва, ул. Судакова, 17",Люблино,ЮВАО
СберБанк,55.633583,37.798731,"г. Москва, 5-й квартал Капотни, 15, стр. 2",Капотня,ЮВАО
СберБанк,55.730488,37.731407,"г. Москва, просп. Рязанский, 2, корп. 2",Нижегородский,ЮВАО
СберБанк,55.723257,37.825326,"г. Москва, ул. Вешняковская, 18а",Вешняки,ВАО
СберБанк,55.753923,37.799584,"г. Москва, просп. Зеленый, 45/31",Перово,ВАО
СберБанк,55.750033,37.784656,"г. Москва, ул. 2-я Владимирская, 40",Перово,ВАО
СберБанк,55.717155,37.411689,"г. Москва, ш. Можайское, 41, корп. 1",Кунцево,ЗАО
СберБанк,55.728222,37.41759,"г. Москва, ул. Ивана Франко, 36",Кунцево,ЗАО
СберБанк,55.623938,37.64841,"г. Москва, ул. Севанская, 23",Царицыно,ЮАО
СберБанк,55.653723,37.647961,"г. Москва, ш. Каширское, 26, корп. 2",Москворечье-Сабурово,ЮАО
СберБанк,55.876471,37.524435,"г. Москва, ш. Коровинское, 21, корп. 1",Западное Дегунино,САО
СберБанк,55.767722,37.620827,"г. Москва, бул. Петровский, 23",Тверской,ЦАО
СберБанк,55.781934,37.560192,"г. Москва, ул. Беговая, 17, корп. 1",Беговой,САО
СберБанк,55.638963,37.694759,"г. Москва, ш. Каширское, 55, корп. 4",Москворечье-Сабурово,ЮАО
СберБанк,55.80197,37.524288,"г. Москва, просп. Ленинградский, 59",Хорошёвский,САО
СберБанк,55.785633,37.569032,"г. Москва, просп. Ленинградский, 34",Беговой,САО
СберБанк,55.815928,37.597712,"г. Москва, Огородный пр-д, 19",Бутырский,СВАО
СберБанк,55.726482,37.760863,"г. Москва, просп. Рязанский, 45, корп. 1",Рязанский,ЮВАО
СДМ-Банк,55.824368,37.42916,"г. Москва, ш. Волоколамское, д. 73",Покровское-Стрешнево,СЗАО
СДМ-Банк,55.789754,37.810134,"г. Москва, ул. 12-я Парковая, д. 5",Восточное Измайлово,ВАО
СДМ-Банк,55.755723,37.63367,"г. Москва, Лубянский пр-д, д. 19, стр. 1",Басманный,ЦАО
СДМ-Банк,55.888514,37.588291,"г. Москва, ш. Алтуфьевское, д. 70, стр. 1",Бибирево,СВАО
СДМ-Банк,55.802353,37.529424,"г. Москва, просп. Ленинградский, д. 64, стр. 1",Аэропорт,САО
СДМ-Банк,55.659993,37.61877,"г. Москва, ш. Варшавское, д. 66",Нагорный,ЮАО
СДМ-Банк,55.721001,37.672662,"г. Москва, ул. Шарикоподшипниковская, д. 4, корп. 3 Б",Южнопортовый,ЮВАО
СДМ-Банк,55.846017,37.3577,"г. Москва, ул. Дубравная, д. 34/29",Митино,СЗАО
СДМ-Банк,55.810547,37.632997,"г. Москва, ул. Бочкова, д. 6, корп. 1",Останкинский,СВАО
СДМ-Банк,55.81168,37.502471,"г. Москва, ш. Волоколамское, д. 4",Сокол,САО
СДМ-Банк,55.748404,37.655184,"г. Москва, ул. Земляной Вал, д. 54, стр. 1",Таганский,ЦАО
СДМ-Банк,55.78911,37.70814,"г. Москва, ул. Электрозаводская, д. 24",Преображенское,ВАО
Севергазбанк,55.759068,37.585684,"г. Москва, ул. Садовая-Кудринская, д. 2/62, стр. 4",Пресненский,ЦАО
Северный Народный Банк,55.768305,37.615177,"г. Москва, бул. Петровский, д. 11",Тверской,ЦАО
Сервис Резерв,55.710317,37.593835,"г. Москва, ул. Орджоникидзе, д. 10",Донской,ЮАО
Сервис Резерв,55.75842,37.623708,"г. Москва, ул. Никольская, д. 19—21",Тверской,ЦАО
Сервис Резерв,55.761249,37.619222,"г. Москва, ул. Петровка, д. 2, стр. 2",Тверской,ЦАО
Сетелем Банк,55.79026,37.584261,"г. Москва, ул. Правды, д. 26",Беговой,САО
СИАБ,55.748483,37.561212,"г. Москва, просп. Кутузовский, д. 9, корп. 1",Дорогомилово,ЗАО
СИАБ,55.749651,37.537466,"г. Москва, наб. Пресненская, д. 12",Пресненский,ЦАО
Синко-Банк,55.769909,37.627232,"г. Москва, пер. Последний, д. 11, стр. 1",Мещанский,ЦАО
Система,55.737527,37.505166,"г. Москва, ул. Василисы Кожиной, д. 1",Филёвский Парк,ЗАО
Ситибанк,55.769086,37.590571,"г. Москва, ул. Гашека, д. 8/10",Пресненский,ЦАО
Ситибанк,55.821313,37.497308,"г. Москва, ш. Ленинградское, д. 16а, стр. 1",Войковский,САО
Ситибанк,55.773645,37.589574,"г. Москва, ул. 1-я Тверская-Ямская, д. 13",Тверской,ЦАО
Ситибанк,55.730542,37.634848,"г. Москва, пл. Павелецкая, д. 2, стр. 1",Замоскворечье,ЦАО
Славия,55.687097,37.568503,"г. Москва, ул. Кедрова, д. 5а",Академический,ЮЗАО
СМП Банк,55.736742,37.643298,"г. Москва, ул. Садовническая, д. 71, стр. 11",Замоскворечье,ЦАО
СМП Банк,55.753229,37.639332,"г. Москва, ул. Солянка, д. 3, стр. 2",Басманный,ЦАО
СМП Банк,55.802711,37.635229,"г. Москва, просп. Мира, д. 85",Останкинский,СВАО
СМП Банк,55.768317,37.378887,"г. Москва, ш. Рублевское, д. 64, корп. 2",Крылатское,ЗАО
СМП Банк,55.817445,37.499915,"г. Москва, ш. Ленинградское, д. 8, корп. 2",Войковский,САО
СМП Банк,55.702055,37.568776,"г. Москва, просп. Ленинский, д. 44",Гагаринский,ЮЗАО
СМП Банк,55.791199,37.773605,"г. Москва, ул. Первомайская, д. 5",Измайлово,ВАО
СМП Банк,55.644933,37.672496,"г. Москва, ш. Каширское, д. 60, корп.1",Москворечье-Сабурово,ЮАО
СМП Банк,55.896672,37.38907,"г. Москва, ул. Соколово-Мещерская, д. 14",Куркино,СЗАО
СМП Банк,55.744537,37.54804,"г. Москва, просп. Кутузовский, д. 23, корп. 1",Дорогомилово,ЗАО
СМП Банк,55.695197,37.496265,"г. Москва, просп. Мичуринский, д. 31, корп. 1",Раменки,ЗАО
СМП Банк,55.757784,37.585148,"г. Москва, бул. Новинский, д. 28/35, стр. 1",Арбат,ЦАО
СМП Банк,55.730243,37.619291,"г. Москва, ул. Житная, д. 10, стр. 1",Якиманка,ЦАО
СМП Банк,55.796896,37.486304,"г. Москва, ул. Маршала Бирюзова, д. 35, корп. 1",Щукино,СЗАО
СМП Банк,55.753609,37.646997,"г. Москва, бул. Покровский, д. 18/15",Басманный,ЦАО
СМП Банк,55.683918,37.569944,"г. Москва, ул. Профсоюзная, д. 7/12",Академический,ЮЗАО
СМП Банк,55.857298,37.494271,"г. Москва, ул. Лавочкина, д. 34, корп. 1",Ховрино,САО
СМП Банк,55.73644,37.6425,"г. Москва, ул. Садовническая, д. 71, стр. 2",Замоскворечье,ЦАО
СМП Банк,55.565001,37.579659,"г. Москва, ул. Грина, д. 18",Северное Бутово,ЮЗАО
СМП Банк,55.77429,37.589215,"г. Москва, ул. 1-я Тверская-Ямская, д. 26",Тверской,ЦАО
СМП Банк,55.683803,37.537883,"г. Москва, просп. Ленинский, д. 74",Ломоносовский,ЮЗАО
СМП Банк,55.761174,37.620677,"г. Москва, ул. Неглинная, д. 8/10",Мещанский,ЦАО
СМП Банк,55.64011,37.593606,"г. Москва, мкр. Северное Чертаново, д. 4, корп. 407",Чертаново Северное,ЮАО
СМП Банк,55.758358,37.549018,"г. Москва, Шмитовский пр-д, д. 16, стр. 1",Пресненский,ЦАО
Совкомбанк,55.797447,37.720569,"г. Москва, ул. Большая Черкизовская, д. 5, корп. 1",Преображенское,ВАО
Совкомбанк,55.662788,37.485433,"г. Москва, просп. Вернадского, д. 105",Тропарёво-Никулино,ЗАО
Совкомбанк,55.611429,37.715716,"г. Москва, ш. Каширское, д. 106",Орехово-Борисово Северное,ЮАО
Совкомбанк,55.741441,37.535846,"г. Москва, просп. Кутузовский, д. 30",Дорогомилово,ЗАО
Совкомбанк,55.77284,37.591709,"г. Москва, ул. 1-я Тверская-Ямская, д. 16/23, стр. 1",Тверской,ЦАО
Совкомбанк,55.849349,37.443017,"г. Москва, бул. Химкинский, д. 21",Южное Тушино,СЗАО
Совкомбанк,55.820851,37.642378,"г. Москва, просп. Мира, д. 146",Алексеевский,СВАО
Совкомбанк,55.616801,37.508803,"г. Москва, просп. Новоясеневский, д. 2 Б, стр. 2",Ясенево,ЮЗАО
Совкомбанк,55.773001,37.603386,"г. Москва, ул. Долгоруковская, д. 5",Тверской,ЦАО
Совкомбанк,55.765164,37.561533,"г. Москва, ул. 1905 года, д. 4, корп. 1",Пресненский,ЦАО
Совкомбанк,55.785396,37.664555,"г. Москва, ул. Верхняя Красносельская, д. 3г",Красносельский,ЦАО
Совкомбанк,55.781305,37.57652,"г. Москва, просп. Ленинградский, д. 18",Беговой,САО
Совкомбанк,55.792949,37.600588,"г. Москва, ул. Сущевский Вал, д. 23",Марьина Роща,СВАО
Совкомбанк,55.748628,37.655206,"г. Москва, ул. Земляной Вал, д. 52/16, стр. 1",Таганский,ЦАО
Совкомбанк,55.854439,37.682703,"г. Москва, ш. Ярославское, д. 12, корп. 2",Ярославский,СВАО
Совкомбанк,55.752605,37.548191,"г. Москва, наб. Краснопресненская, д. 14, стр. 1",Пресненский,ЦАО
Совкомбанк,55.701652,37.576792,"г. Москва, ул. Вавилова, д. 24",Гагаринский,ЮЗАО
Совкомбанк,55.686551,37.548918,"г. Москва, просп. Ломоносовский, д. 4, корп. 1",Гагаринский,ЮЗАО
Совкомбанк,55.899283,37.588439,"г. Москва, ш. Алтуфьевское, д. 88",Бибирево,СВАО
Совкомбанк,55.805035,37.402234,"г. Москва, бул. Строгинский, д. 7, корп. 1",Строгино,СЗАО
Совкомбанк,55.779217,37.62938,"г. Москва, ул. Щепкина, д. 28",Мещанский,ЦАО
Совкомбанк,55.748824,37.816588,"г. Москва, просп. Свободный, д. 37/18",Новогиреево,ВАО
Совкомбанк,55.708713,37.658348,"г. Москва, ул. Мастеркова, д. 3",Даниловский,ЮАО
Совкомбанк,55.650487,37.745738,"г. Москва, ул. Люблинская, д. 165",Марьино,ЮВАО
Совкомбанк,55.74177,37.416323,"г. Москва, ул. Ярцевская, д. 27, корп. 1",Кунцево,ЗАО
Совкомбанк,55.795097,37.492118,"г. Москва, ул. Маршала Бирюзова, д. 16",Щукино,СЗАО
Совкомбанк,55.684809,37.570937,"г. Москва, ул. Профсоюзная, д. 5/9",Академический,ЮЗАО
Совкомбанк,55.869198,37.666007,"г. Москва, ул. Менжинского, д. 21",Бабушкинский,СВАО
Совкомбанк,55.614595,37.746515,"г. Москва, бул. Ореховый, д. 47/33",Зябликово,ЮАО
Совкомбанк,55.704062,37.763579,"г. Москва, ул. Маршала Чуйкова, д. 4",Кузьминки,ЮВАО
Совкомбанк,55.679159,37.662524,"г. Москва, просп. Андропова, д. 30",Нагатино-Садовники,ЮАО
Совкомбанк,55.864349,37.606748,"г. Москва, бул. Северный, д. 2",Отрадное,СВАО
Совкомбанк,55.817219,37.500271,"г. Москва, ш. Ленинградское, д. 8, корп. 2",Войковский,САО
Совкомбанк,55.583859,37.595702,"г. Москва, ш. Варшавское, д. 158, корп. 2",Чертаново Южное,ЮАО
Совкомбанк,55.651714,37.598787,"г. Москва, ул. Азовская, д. 25, корп. 1",Зюзино,ЮЗАО
Совкомбанк,55.751621,37.71475,"г. Москва, ш. Энтузиастов, д. 13",Лефортово,ЮВАО
Совкомбанк,55.700265,37.85266,"г. Москва, просп. Лермонтовский, д. 10",Выхино-Жулебино,ЮВАО
Совкомбанк,55.84712,37.362131,"г. Москва, ул. Митинская, д. 36, корп. 2",Митино,СЗАО
Совкомбанк,55.839536,37.488842,"г. Москва, ш. Головинское, д. 1",Головинский,САО
Совкомбанк,55.753894,37.586302,"г. Москва, пер. Трубниковский, д. 13, корп. 1",Арбат,ЦАО
Совкомбанк,55.749473,37.786148,"г. Москва, ул. 2-я Владимирская, д. 45",Новогиреево,ВАО
Совкомбанк,55.740747,37.651087,"г. Москва, ул. Гончарная, д. 38",Таганский,ЦАО
Совкомбанк,55.793689,37.800621,"г. Москва, ул. Первомайская, д. 77",Измайлово,ВАО
Совкомбанк,55.567474,37.573795,"г. Москва, бул. Дмитрия Донского, д. 8, корп. 1",Северное Бутово,ЮЗАО
Совкомбанк,55.818499,37.581345,"г. Москва, ул. Яблочкова, д. 12",Бутырский,СВАО
Совкомбанк,55.640787,37.534096,"г. Москва, ул. Миклухо-Маклая, д. 55",Коньково,ЮЗАО
Совкомбанк,55.718533,37.787203,"г. Москва, просп. Рязанский, д. 69",Рязанский,ЮВАО
Соколовский,55.74815,37.588924,"г. Москва, ул. Арбат, д. 43, стр. 3",Арбат,ЦАО
Солидарность,55.672275,37.775343,"г. Москва, ул. Цимлянская, д. 2а",Люблино,ЮВАО
Солидарность,55.768744,37.588825,"г. Москва, ул. Гашека, д. 7, стр. 1",Пресненский,ЦАО
Солидарность,55.87857,37.730545,"г. Москва, ш. Ярославское, д. 146, корп. 2",Ярославский,СВАО
Солидарность,55.732152,37.64033,"г. Москва, ул. Зацепский Вал, д. 5",Замоскворечье,ЦАО
Солидарность,55.877869,37.731551,"г. Москва, ш. Ярославское, д. 146, корп. 1",Ярославский,СВАО
Солид Банк,55.77576,37.541931,"г. Москва, ш. Хорошевское, д. 32а",Хорошёвский,САО
Социум-Банк,55.807215,37.510453,"г. Москва, просп. Ленинградский, д. 80, корп. 16",Сокол,САО
Союз,55.78331,37.601283,"г. Москва, ул. Сущевская, д. 27, стр. 1",Тверской,ЦАО
Союз,55.757181,37.562468,"г. Москва, ул. Рочдельская, д. 30",Пресненский,ЦАО
Союз,55.780142,37.590484,"г. Москва, ул. Лесная, д. 41",Тверской,ЦАО
Союз,55.861846,37.604067,"г. Москва, ул. Хачатуряна, д. 20",Отрадное,СВАО
Союз,55.683985,37.570616,"г. Москва, ул. Профсоюзная, д. 7/12",Академический,ЮЗАО
Союз,55.783527,37.601235,"г. Москва, ул. Сущевская, д. 27, стр. 1",Тверской,ЦАО
СПБ Банк,55.777681,37.602567,"г. Москва, ул. Долгоруковская, д. 38, стр. 1",Тверской,ЦАО
Спецстройбанк,55.742775,37.659692,"г. Москва, ул. Александра Солженицына, д. 12, стр. 4",Таганский,ЦАО
Столичный Кредит,55.769056,37.679222,"г. Москва, ул. Бауманская, д. 54, стр. 1",Басманный,ЦАО
Сумитомо Мицуи Рус Банк,55.746558,37.536495,"г. Москва, наб. Пресненская, д. 10",Пресненский,ЦАО
Сургутнефтегазбанк,55.771364,37.636584,"г. Москва, пер. Ананьевский, д. 5, стр. 3",Красносельский,ЦАО
Таврический Банк,55.710017,37.662671,"г. Москва, ул. Автозаводская, д. 4",Даниловский,ЮАО
Таврический Банк,55.753465,37.65594,"г. Москва, ул. Земляной Вал, д. 46",Таганский,ЦАО
Таврический Банк,55.749621,37.537606,"г. Москва, наб. Пресненская, д. 12",Пресненский,ЦАО
Таврический Банк,55.778614,37.628202,"г. Москва, ул. Щепкина, д. 29",Мещанский,ЦАО
Таврический Банк,55.660617,37.618697,"г. Москва, ш. Варшавское, д. 64, корп. 1",Нагорный,ЮАО
Тендер-Банк,55.768027,37.588584,"г. Москва, ул. Гашека, д. 2, стр. 1",Пресненский,ЦАО
Тимер Банк,55.7337,37.636796,"г. Москва, ул. Бахрушина, д. 23, стр. 2",Замоскворечье,ЦАО
Тинькофф Банк,55.804152,37.564141,"г. Москва, 2-я Хуторская, д. 38а, стр. 26",Савёловский,САО
Тойота Банк,55.857159,37.599795,"г. Москва, ул. Отрадная, д. 2 Б, стр. 1",Отрадное,СВАО
Точка,55.745526,37.648224,"г. Москва, ул. Верхняя Радищевская, д. 2/1, стр. 3",Таганский,ЦАО
Транскапиталбанк,55.735762,37.661764,"г. Москва, ул. Воронцовская, д. 27/35",Таганский,ЦАО
Транскапиталбанк,55.735779,37.661732,"г. Москва, ул. Воронцовская, д. 27/35, стр. 1",Таганский,ЦАО
Транскапиталбанк,55.737873,37.411001,"г. Москва, ул. Ярцевская, д. 19",Кунцево,ЗАО
Транскапиталбанк,55.768941,37.615181,"г. Москва, пер. 1-й Колобовский, д. 6, стр. 3",Тверской,ЦАО
Транскапиталбанк,55.759694,37.648515,"г. Москва, ул. Покровка, д. 24/2, стр. 1",Басманный,ЦАО
Транскапиталбанк,55.789618,37.61382,"г. Москва, ул. Октябрьская, д. 36",Марьина Роща,СВАО
Трансстройбанк,55.71504,37.632727,"г. Москва, ул. Дубининская, д. 94",Даниловский,ЮАО
Трансстройбанк,55.634031,37.748748,"г. Москва, ул. Борисовские пруды, д. 16, корп. 3",Братеево,ЮАО
Трансстройбанк,55.632626,37.760728,"г. Москва, ул. Братеевская, д. 10, корп. 1",Братеево,ЮАО
Трансстройбанк,55.659124,37.755015,"г. Москва, ул. Братиславская, д. 14",Марьино,ЮВАО
Трансстройбанк,55.681255,37.852212,"г. Москва, ул. Генерала Кузнецова, д. 27, корп. 1",Выхино-Жулебино,ЮВАО
Трансстройбанк,55.756994,37.657098,"г. Москва, ул. Земляной Вал, д. 32",Басманный,ЦАО
Трансстройбанк,55.637073,37.353144,"г. Москва, ш. Боровское, д. 51, стр. 1",Ново-Переделкино,ЗАО
Трансстройбанк,55.795044,37.799912,"г. Москва, ул. 9-я Парковая, д. 30, стр. 1",Измайлово,ВАО
Трансстройбанк,55.783514,37.720232,"г. Москва, пл. Семеновская, д. 7",Соколиная Гора,ВАО
Трансстройбанк,55.824875,37.434999,"г. Москва, ш. Волоколамское, д. 92",Покровское-Стрешнево,СЗАО
Трансстройбанк,55.782076,37.704125,"г. Москва, ул. Большая Семеновская, д. 16",Соколиная Гора,ВАО
Трансстройбанк,55.751126,37.578647,"г. Москва, пер. Панфиловский, д. 4, стр. 1",Арбат,ЦАО
Траст,55.744797,37.65617,"г. Москва, пер. Известковый, д. 3",Таганский,ЦАО
Траст,55.744561,37.648088,"г. Москва, ул. Гончарная, д. 15, стр. 1",Таганский,ЦАО
Углеметбанк,55.796909,37.561298,"г. Москва, ул. Мишина, д. 35, стр. 2",Савёловский,САО
Унифондбанк,55.774754,37.616624,"г. Москва, пер. 1-й Волконский, д. 13",Тверской,ЦАО
Урал ФД,55.743914,37.635081,"г. Москва, наб. Овчинниковская, д. 20, стр. 1",Замоскворечье,ЦАО
Уральский Банк Реконструкции и Развития,55.811433,37.64251,"г. Москва, пер. Зубарев, д. 15, корп. 1",Алексеевский,СВАО
Уральский Банк Реконструкции и Развития,55.82666,37.44479,"г. Москва, ул. Тушинская, д. 17",Покровское-Стрешнево,СЗАО
Уральский Банк Реконструкции и Развития,55.854997,37.653388,"г. Москва, ул. Снежная, д. 26",Свиблово,СВАО
Уральский Банк Реконструкции и Развития,55.755348,37.759524,"г. Москва, ул. Плеханова, д. 7",Перово,ВАО
Уральский Банк Реконструкции и Развития,55.713959,37.620097,"г. Москва, ул. Мытная, д. 62",Даниловский,ЮАО
Уральский Банк Реконструкции и Развития,55.709372,37.65366,"г. Москва, ул. Ленинская Слобода, д. 26",Даниловский,ЮАО
Уральский Банк Реконструкции и Развития,55.669977,37.552939,"г. Москва, ул. Профсоюзная, д. 56",Обручевский,ЮЗАО
Уральский Банк Реконструкции и Развития,55.785242,37.716264,"г. Москва, ул. Малая Семеновская, д. 30, стр. 11",Соколиная Гора,ВАО
Уральский Банк Реконструкции и Развития,55.743559,37.505406,"г. Москва, Багратионовский пр-д, д. 7, корп. 20в",Филёвский Парк,ЗАО
Уральский Банк Реконструкции и Развития,55.730064,37.66388,"г. Москва, пер. 2-й Крутицкий, д. 18, стр. 1",Южнопортовый,ЮВАО
Уральский Банк Реконструкции и Развития,55.75204,37.586158,"г. Москва, ул. Новый Арбат, д. 21",Арбат,ЦАО
Ури Банк,55.75131,37.584613,"г. Москва, бул. Новинский, д. 8",Арбат,ЦАО
Финам Банк,55.767876,37.604288,"г. Москва, пер. Настасьинский, д. 7, стр. 2",Тверской,ЦАО
Финам Банк,55.750149,37.788952,"г. Москва, просп. Зеленый, д. 22",Новогиреево,ВАО
Финам Банк,55.739471,37.537245,"г. Москва, просп. Кутузовский, д. 35/30, стр. 1",Дорогомилово,ЗАО
Финам Банк,55.76786,37.604344,"г. Москва, пер. Настасьинский, д. 7, стр. 2",Тверской,ЦАО
Финам Банк,55.664182,37.598663,"г. Москва, ул. Одесская, д. 2",Зюзино,ЮЗАО
Финам Банк,55.868553,37.485739,"г. Москва, ул. Дыбенко, д. 6, корп. 1",Ховрино,САО
Фольксваген Банк Рус,55.656314,37.526171,"г. Москва, ул. Обручева, д. 30/1, стр. 2",Коньково,ЮЗАО
Фора-Банк,55.736445,37.590166,"г. Москва, бул. Зубовский, д. 25",Хамовники,ЦАО
Фора-Банк,55.662734,37.480896,"г. Москва, просп. Вернадского, д. 86а",Тропарёво-Никулино,ЗАО
Фора-Банк,55.774274,37.545932,"г. Москва, ш. Хорошевское, д. 16, стр. 3",Хорошёвский,САО
Фора-Банк,55.707294,37.456828,"г. Москва, ш. Аминьевское, д. 6",Очаково-Матвеевское,ЗАО
Фора-Банк,55.778759,37.582416,"г. Москва, просп. Ленинградский, д. 4/2",Беговой,САО
Фора-Банк,55.840927,37.485357,"г. Москва, бул. Кронштадский, д. 3а",Головинский,САО
Фора-Банк,55.745204,37.879693,"г. Москва, ул. Салтыковская, д. 49а",Новокосино,ВАО
Фора-Банк,55.707681,37.588579,"г. Москва, ул. Вавилова, д. 6",Донской,ЮАО
Фора-Банк,55.710789,37.675908,"г. Москва, ул. 7-я Кожуховская, д. 9",Южнопортовый,ЮВАО
Фора-Банк,55.736445,37.590166,"г. Москва, бул. Зубовский, д. 25",Хамовники,ЦАО
Фора-Банк,55.656357,37.56936,"г. Москва, ул. Каховка, д. 29а",Черёмушки,ЮЗАО
Фора-Банк,55.713106,37.844738,"г. Москва, ш. Новоухтомкое, д. 2а",Косино-Ухтомский,ВАО
Фора-Банк,55.7556,37.657829,"г. Москва, ул. Земляной Вал, д. 39/1, стр. 1",Басманный,ЦАО
Фора-Банк,55.746922,37.556864,"г. Москва, просп. Кутузовский, д. 17",Дорогомилово,ЗАО
Фора-Банк,55.747368,37.707107,"г. Москва, ш. Энтузиастов, д. 12 корп. 2",Лефортово,ЮВАО
Фора-Банк,55.870227,37.635198,"г. Москва, Дежнева пр-д, д. 27, корп. 1",Южное Медведково,СВАО
Фора-Банк,55.862909,37.435106,"г. Москва, ул. Планерная, д. 7",Северное Тушино,СЗАО
Фора-Банк,55.749045,37.537337,"г. Москва, наб. Пресненская, д. 2",Пресненский,ЦАО
Фора-Банк,55.693321,37.533887,"г. Москва, пл. Джавахарлала Неру, д. 1",Раменки,ЗАО
Фора-Банк,55.809469,37.464571,"г. Москва, ул. Щукинская, д. 42",Щукино,СЗАО
Фора-Банк,55.665644,37.548705,"г. Москва, ул. Профсоюзная, д. 64, корп. 2",Обручевский,ЮЗАО
Фора-Банк,55.909518,37.541236,"г. Москва, ш. Дмитровское, д. 163а",Северный,СВАО
Фора-Банк,55.680944,37.851916,"г. Москва, ул. Генерала Кузнецова, д. 27, корп. 1",Выхино-Жулебино,ЮВАО
Фора-Банк,55.800492,37.798478,"г. Москва, ул. 9-я Парковая, д. 39, корп. 3",Измайлово,ВАО
Фора-Банк,55.753042,37.644965,"г. Москва, пер. Подколокольный, д. 13, стр. 1",Басманный,ЦАО
Фора-Банк,55.7621,37.570243,"г. Москва, ул. Красная Пресня, д. 22",Пресненский,ЦАО
Фора-Банк,55.827739,37.489386,"г. Москва, ш. Ленинградское, д. 25",Войковский,САО
Фора-Банк,55.663327,37.510248,"г. Москва, просп. Ленинский, вл. 109",Обручевский,ЮЗАО
Фора-Банк,55.649045,37.744734,"г. Москва, ул. Люблинская, д. 169, корп. 2",Марьино,ЮВАО
Фора-Банк,55.839019,37.385207,"г. Москва, ш. Пятницкое, д. 9",Митино,СЗАО
Фора-Банк,55.664273,37.627711,"г. Москва, ш. Каширское, д. 14",Нагатино-Садовники,ЮАО
Фора-Банк,55.617171,37.510337,"г. Москва, просп. Новоясеневский, вл. 1 Б, корп. 1",Ясенево,ЮЗАО
Фора-Банк,55.611077,37.606738,"г. Москва, ул. Красного Маяка, д. 2 Б",Чертаново Центральное,ЮАО
Фора-Банк,55.618689,37.506636,"г. Москва, ул. Профсоюзная, д. 129а",Ясенево,ЮЗАО
Фора-Банк,55.663019,37.480993,"г. Москва, просп. Вернадского, д. 86а",Тропарёво-Никулино,ЗАО
Фора-Банк,55.766076,37.604389,"г. Москва, ул. Тверская, д. 18, стр. 1",Тверской,ЦАО
Фора-Банк,55.766731,37.381038,"г. Москва, ш. Рублевское, д. 62",Крылатское,ЗАО
Фора-Банк,55.768287,37.622996,"г. Москва, бул. Цветной, д. 2",Мещанский,ЦАО
Фора-Банк,55.689752,37.601847,"г. Москва, ул. Большая Черемушкинская, д. 1",Котловка,ЮЗАО
Фора-Банк,55.716208,37.608471,"г. Москва, ул. Шухова, д. 21",Даниловский,ЮАО
Фора-Банк,55.795418,37.617006,"г. Москва, ул. Шереметьевская, д. 6, стр. 1",Марьина Роща,СВАО
Фора-Банк,55.6617,37.555049,"г. Москва, ул. Наметкина, д. 12а",Черёмушки,ЮЗАО
Фора-Банк,55.709561,37.622056,"г. Москва ул. Большая Тульская, д. 13",Даниловский,ЮАО
Фора-Банк,55.790434,37.531332,"г. Москва, бул. Ходынский, д. 4",Хорошёвский,САО
Фора-Банк,55.909364,37.540423,"г. Москва, ш. Дмитровское, вл. 163а, корп. 1",Северный,СВАО
Фора-Банк,55.61813,37.507484,"г. Москва, ул. Профсоюзная, д. 129а",Ясенево,ЮЗАО
Фора-Банк,55.909902,37.540496,"г. Москва, ш. Дмитровское, вл. 163а, корп. 1",Северный,СВАО
Фора-Банк,55.663189,37.481599,"г. Москва, просп. Вернадского, д. 86а",Тропарёво-Никулино,ЗАО
Фора-Банк,55.614561,37.606622,"г. Москва, ул. Кировоградская, д. 11, корп. 1",Чертаново Центральное,ЮАО
Фора-Банк,55.914386,37.541086,"г. Москва, ш. Дмитровское, д. 165, корп. 1",Северный,СВАО
Фора-Банк,55.708093,37.622245,"г. Москва ул. Большая Тульская, д. 13",Даниловский,ЮАО
Фора-Банк,55.7829,37.705836,"г. Москва, ул. Большая Семеновская, д. 17а",Соколиная Гора,ВАО
Фора-Банк,55.704689,37.642223,"г. Москва, ул. Автозаводская, д. 18",Даниловский,ЮАО
Фора-Банк,55.777213,37.523188,"г. Москва, ш. Хорошевское, д. 27",Хорошёвский,САО
Форштадт,55.74998,37.598456,"г. Москва, пер. Филипповский, д. 13, стр. 1",Арбат,ЦАО
Фридом Финанс,55.772771,37.60851,"г. Москва, ул. Каретный Ряд, д. 5/10, стр. 2",Тверской,ЦАО
Фридом Финанс,55.748844,37.537912,"г. Москва, наб. Пресненская, д. 2",Пресненский,ЦАО
Фридом Финанс,55.749225,37.539028,"г. Москва, наб. Пресненская, д. 2",Пресненский,ЦАО
Фридом Финанс,55.772809,37.608499,"г. Москва, ул. Каретный Ряд, д. 5/10, стр. 2",Тверской,ЦАО
Фридом Финанс,55.750349,37.539263,"г. Москва, 1-й Красногвардейский пр-д, д. 15",Пресненский,ЦАО
Химик,55.785432,37.601924,"г. Москва, ул. Тихвинская, д. 2",Марьина Роща,СВАО
Хоум Кредит Банк,55.784165,37.579266,"г. Москва, ул. Правды, д. 8, корп. 1",Беговой,САО
Хоум Кредит Банк,55.765225,37.561589,"г. Москва, ул. 1905 года, д. 4",Пресненский,ЦАО
Хоум Кредит Банк,55.897786,37.588233,"г. Москва, ш. Алтуфьевское, д. 86, корп. 1",Бибирево,СВАО
Хоум Кредит Банк,55.570101,37.579527,"г. Москва, ул. Старокачаловская, д. 5а",Северное Бутово,ЮЗАО
Хоум Кредит Банк,55.721319,37.823212,"г. Москва, ул. Вешняковская, д. 20 Б",Вешняки,ВАО
Хоум Кредит Банк,55.821288,37.498078,"г. Москва, ш. Ленинградское, д. 16а, стр. 1",Войковский,САО
Хоум Кредит Банк,55.886484,37.662458,"г. Москва, ул. Грекова, д. 8",Северное Медведково,СВАО
Хоум Кредит Банк,55.750359,37.815775,"г. Москва, просп. Свободный, д. 22",Новогиреево,ВАО
Хоум Кредит Банк,55.671572,37.446,"г. Москва, ул. Озерная, д. 42",Очаково-Матвеевское,ЗАО
Хоум Кредит Банк,55.609741,37.719905,"г. Москва, бул. Ореховый, д. 14, корп. 3",Орехово-Борисово Южное,ЮАО
Хоум Кредит Банк,55.793619,37.810624,"г. Москва, ул. Первомайская, д. 107",Восточное Измайлово,ВАО
Хоум Кредит Банк,55.794907,37.706759,"г. Москва, ул. Преображенская, д. 2, корп. 1",Преображенское,ВАО
Хоум Кредит Банк,55.852175,37.438226,"г. Москва, ул. Героев Панфиловцев, д. 1/2",Северное Тушино,СЗАО
Хоум Кредит Банк,55.618278,37.507214,"г. Москва, ул. Профсоюзная, д. 129а",Ясенево,ЮЗАО
Хоум Кредит Банк,55.639653,37.606402,"г. Москва, ул. Чертановская, д. 1в, корп. 1",Чертаново Северное,ЮАО
Центр-инвест,55.750871,37.654775,"г. Москва, ул. Земляной Вал, д. 50а/8, стр. 2",Таганский,ЦАО
ЦентроКредит,55.740159,37.628573,"г. Москва, ул. Пятницкая, д. 31/2, стр. 1",Замоскворечье,ЦАО
ЦентроКредит,55.735535,37.524557,"г. Москва, ул. 1812 года, д. 2, корп. 2",Дорогомилово,ЗАО
ЦентроКредит,55.739571,37.630913,"г. Москва, пер. Старый Толмачевский, д. 10",Замоскворечье,ЦАО
ЦентроКредит,55.704629,37.834542,"г. Москва, МКАД, 8-й км, д. 3, корп. 1",Выхино-Жулебино,ЮВАО
ЦентроКредит,55.64196,37.639391,"г. Москва, ул. Котляковская, д. 6, стр. 13",Москворечье-Сабурово,ЮАО
ЦМРБанк,55.783972,37.599968,"г. Москва, ул. Палиха, д. 10, стр. 7",Тверской,ЦАО
Чайна Констракшн,55.757761,37.630658,"г. Москва, Лубянский пр-д, д. 11/1, стр. 1",Басманный,ЦАО
Чайнасельхозбанк,55.777871,37.586802,"г. Москва, ул. Лесная, д. 5",Тверской,ЦАО
Эйч-Эс-Би-Си Банк (HSBC),55.730078,37.636056,"г. Москва, пл. Павелецкая, д. 2, стр. 2",Замоскворечье,ЦАО
Эко-Инвест,55.743164,37.651096,"г. Москва, ул. Верхняя Радищевская, д. 18, стр. 2",Таганский,ЦАО
Экспобанк,55.775803,37.649732,"г. Москва, ул. Каланчевская, д. 29, стр. 2",Красносельский,ЦАО
Экспобанк,55.739791,37.647092,"г. Москва, наб. Гончарная, д. 1, стр. 2",Таганский,ЦАО
Экспобанк,55.869763,37.660377,"г. Москва, ул. Менжинского, д. 23, корп. 1",Бабушкинский,СВАО
Экспобанк,55.775084,37.588018,"г. Москва, ул. 1-я Тверская-Ямская, д. 28",Тверской,ЦАО
Экспобанк,55.745605,37.679727,"г. Москва, пл. Рогожская Застава, д. 2/1, стр. 1",Таганский,ЦАО
Экспобанк,55.683664,37.569683,"г. Москва, ул. Профсоюзная, д. 7/12",Академический,ЮЗАО
Экспобанк,55.86498,37.607217,"г. Москва, бул. Северный, д. 2",Отрадное,СВАО
Экспобанк,55.804273,37.51052,"г. Москва, просп. Ленинградский, д. 75, корп. 1 Б",Сокол,САО
Экспобанк,55.775803,37.649732,"г. Москва, ул. Каланчевская, д. 29, стр. 2",Красносельский,ЦАО
Экспобанк,55.772186,37.605154,"г. Москва, ул. Малая Дмитровка, д. 20",Тверской,ЦАО
Эм-Ю-Эф-Джи Банк (Евразия),55.754542,37.609542,"г. Москва, пер. Романов, д. 4, стр. 2",Арбат,ЦАО
Энерготрансбанк,55.785518,37.665408,"г. Москва, ул. Верхняя Красносельская, д. 3а",Красносельский,ЦАО
Энерготрансбанк,55.619467,37.50928,"г. Москва, просп. Новоясеневский, д. 1",Ясенево,ЮЗАО
Энерготрансбанк,55.753465,37.639698,"г. Москва, ул. Солянка, д. 3, стр. 3",Басманный,ЦАО
Эс-Би-Ай Банк,55.805537,37.521391,"г. Москва, просп. Ленинградский, д. 72, корп. 2",Аэропорт,САО
Ю Би Эс Банк,55.730247,37.635905,"г. Москва, пл. Павелецкая, д. 2, стр. 2",Замоскворечье,ЦАО
ЮниКредит Банк,55.737177,37.602275,"г. Москва, наб. Пречистенская, д. 9",Хамовники,ЦАО
ЮниКредит Банк,55.808664,37.636434,"г. Москва, просп. Мира, д. 97",Останкинский,СВАО
ЮниКредит Банк,55.894627,37.585659,"г. Москва, ш. Алтуфьевское, д. 89",Лианозово,СВАО
ЮниКредит Банк,55.795012,37.546075,"г. Москва, просп. Ленинградский, д. 44",Аэропорт,САО
ЮниКредит Банк,55.771755,37.584567,"г. Москва, ул. Большая Грузинская, д. 58",Пресненский,ЦАО
ЮниКредит Банк,55.763415,37.557643,"г. Москва, ш. Звенигородское, д. 3а, стр. 1",Пресненский,ЦАО
ЮниКредит Банк,55.759586,37.658145,"г. Москва, ул. Земляной Вал, д. 25, стр. 1а",Басманный,ЦАО
ЮниКредит Банк,55.734823,37.621747,"г. Москва, пер. 1-й Казачий, д. 9/1",Якиманка,ЦАО
ЮниКредит Банк,55.746367,37.550918,"г. Москва, просп. Кутузовский, д. 22, стр. 1",Дорогомилово,ЗАО
ЮниКредит Банк,55.655959,37.498816,"г. Москва, просп. Ленинский, д. 113/1",Обручевский,ЮЗАО
ЮниКредит Банк,55.687466,37.54337,"г. Москва, просп. Ленинский, д. 70/11",Гагаринский,ЮЗАО
ЮниКредит Банк,55.776117,37.474753,"г. Москва, просп. Маршала Жукова, д. 30",Хорошёво-Мнёвники,СЗАО
ЮниКредит Банк,55.763129,37.635492,"г. Москва, ул. Мясницкая, д. 24/7, стр. 2",Басманный,ЦАО
ЮниКредит Банк,55.778572,37.602107,"г. Москва, ул. Долгоруковская, д. 40",Тверской,ЦАО
ЮниКредит Банк,55.743366,37.601318,"г. Москва, ул. Остоженка, д. 5",Хамовники,ЦАО
ЮниКредит Банк,55.793631,37.800767,"г. Москва, ул. Первомайская, д. 77",Измайлово,ВАО
ЮниКредит Банк,55.680726,37.51461,"г. Москва, просп. Вернадского, д. 33",Ломоносовский,ЮЗАО
ЮниКредит Банк,55.777973,37.633091,"г. Москва, просп. Мира, д. 26, стр. 1",Мещанский,ЦАО
ЮниКредит Банк,55.743059,37.628142,"г. Москва, ул. Пятницкая, д. 14, стр. 1",Замоскворечье,ЦАО
ЮниКредит Банк,55.698343,37.498183,"г. Москва, просп. Мичуринский, д. 34",Раменки,ЗАО
ЮниКредит Банк,55.855994,37.470257,"г. Москва, ш. Ленинградское, д. 94, корп. 1",Левобережный,САО
ЮниКредит Банк,55.746539,37.675298,"г. Москва, ул. Сергия Радонежского, д. 8",Таганский,ЦАО
ЮниКредит Банк,55.740005,37.658595,"г. Москва, ул. Марксистская, д. 1, стр. 1",Таганский,ЦАО
ЮниКредит Банк,55.775079,37.587904,"г. Москва, ул. 1-я Тверская-Ямская, д. 28",Тверской,ЦАО
ЮниКредит Банк,55.709881,37.620948,"г. Москва, ул. Большая Тульская, д. 2",Даниловский,ЮАО
ЮниКредит Банк,55.738561,37.413567,"г. Москва, ул. Ярцевская, д. 22, стр. 1",Кунцево,ЗАО
Юнистрим,55.794973,37.562516,"г. Москва, ул. Верхняя Масловка, д. 20, стр. 2",Савёловский,САО
Юнистрим,55.612182,37.607026,"г. Москва, ул. Кировоградская, д. 13а",Чертаново Центральное,ЮАО
Юнистрим,55.654511,37.835737,"г. Москва, 14-й км МКАД, стр. 4",Капотня,ЮВАО
Юнистрим,55.886633,37.660429,"г. Москва, ул. Широкая, д. 12 Б",Северное Медведково,СВАО
Юнистрим,55.708652,37.662127,"г. Москва, ул. Автозаводская, д. 5",Даниловский,ЮАО
Юнистрим,55.658835,37.741908,"г. Москва, ул. Люблинская, д. 153",Марьино,ЮВАО
Юнистрим,55.691958,37.527956,"г. Москва, просп. Вернадского, д. 6",Раменки,ЗАО
Юнистрим,55.738591,37.411005,"г. Москва, ул. Ярцевская, д. 19",Кунцево,ЗАО
Юнистрим,55.865502,37.60436,"г. Москва, ул. Декабристов, д. 15а",Отрадное,СВАО
Юнистрим,55.703237,37.931772,"г. Москва, ул. Рождественская, д. 33",Некрасовка,ЮВАО
Юнистрим,55.676286,37.770349,"г. Москва, ул. Краснодарская, д. 57, корп. 3",Люблино,ЮВАО
Юнистрим,55.679027,37.77643,"г. Москва, бул. Тихорецкий, д. 2, корп. 1",Люблино,ЮВАО
Юнистрим,55.653319,37.646139,"г. Москва, ш. Каширское, д. 26",Москворечье-Сабурово,ЮАО
Юнистрим,55.788434,37.747972,"г. Москва, ш. Измайловское, д. 69д",Измайлово,ВАО
Юнистрим,55.854037,37.475969,"г. Москва, ул. Фестивальная, д. 2а",Левобережный,САО
Юнистрим,55.744284,37.566319,"г. Москва, пл. Киевского Вокзала, д. 2",Дорогомилово,ЗАО
Юнистрим,55.794957,37.562532,"г. Москва, ул. Верхняя Масловка, д. 20, стр. 2",Савёловский,САО
Юнистрим,55.791732,37.49132,"г. Москва, ул. Народного Ополчения, д. 44, корп. 1",Щукино,СЗАО
Юнистрим,55.744455,37.56726,"г. Москва, пл. Киевского Вокзала, д. 2",Дорогомилово,ЗАО
Юнистрим,55.780858,37.613788,"г. Москва, пл. Суворовская, д. 1/52, корп. 2",Тверской,ЦАО
Юнистрим,55.743861,37.508186,"г. Москва, Багратионовский пр-д, д. 5",Филёвский Парк,ЗАО
Юнистрим,55.838171,37.576901,"г. Москва, Локомотивный пр-д, д. 4",Тимирязевский,САО
Юнистрим,55.729821,37.732201,"г. Москва, просп. Рязанский, д. 2, корп. 2",Нижегородский,ЮВАО
Юнистрим,55.740595,37.417363,"г. Москва, ул. Ельнинская, д. 23, стр. 1",Кунцево,ЗАО
Юнистрим,55.740817,37.657585,"г. Москва, ул. Таганская, д. 2",Таганский,ЦАО
Юнистрим,55.638882,37.604001,"г. Москва, мкр. Северное Чертаново, корп. 208",Чертаново Северное,ЮАО
Юнистрим,55.640889,37.530732,"г. Москва, ул. Миклухо-Маклая, д. 32а",Коньково,ЮЗАО
Юнистрим,55.808429,37.79918,"г. Москва, ул. 9-я Парковая, д. 68, стр. 4",Северное Измайлово,ВАО
Юнистрим,55.827413,37.444753,"г. Москва, ул. Тушинская, д. 16",Покровское-Стрешнево,СЗАО
Юнистрим,55.621944,37.783354,"г. Москва, МКАД, 19-й км, вл. 20, стр. 1",Братеево,ЮАО
Юнистрим,55.754547,37.609493,"г. Москва, пер. Романов, д. 4, стр. 2",Арбат,ЦАО
Юнистрим,55.844348,37.383682,"г. Москва, ш. Пятницкое, д. 18",Митино,СЗАО
Юнистрим,55.747363,37.707098,"г. Москва, ш. Энтузиастов, д. 12, корп. 2",Лефортово,ЮВАО
Юнистрим,55.75079,37.82038,"г. Москва, просп. Зеленый, д. 62а",Новогиреево,ВАО
Юнистрим,55.580687,37.651852,"г. Москва, ул. Булатниковская, д. 2а",Бирюлёво Западное,ЮАО
Юнистрим,55.675473,37.505924,"г. Москва, просп. Вернадского, д. 39, корп. 2",Проспект Вернадского,ЗАО
Юнистрим,55.671498,37.553792,"г. Москва, ул. Гарибальди, д. 23",Черёмушки,ЮЗАО
Юнистрим,55.890075,37.587972,"г. Москва, ш. Алтуфьевское, д. 72",Бибирево,СВАО
Юнистрим,55.612761,37.697705,"г. Москва, Шипиловский пр-д, д. 39, корп. 2",Орехово-Борисово Северное,ЮАО
Юнистрим,55.897794,37.588257,"г. Москва, ш. Алтуфьевское, д. 86, корп. 1",Бибирево,СВАО
Юнистрим,55.824463,37.632114,"г. Москва, ул. 1-я Останкинская, д. 53",Останкинский,СВАО
Юнистрим,55.630461,37.658643,"г. Москва, просп. Пролетарский, д. 30",Царицыно,ЮАО
Юнистрим,55.814057,37.733536,"г. Москва, ш. Открытое, д. 5а",Богородское,ВАО
Яндекс Банк,55.735525,37.642474,"г. Москва, ул. Садовническая, д. 82 стр. 2",Замоскворечье,ЦАО
