name,address,opening_hours,lat,lon,email,full_name,phone_number,web_site,region,adm_zone
Библиотека №140,"Российская Федерация, город Москва, внутригородская территория муниципальный округ Бирюлево Восточное, Липецкая улица, дом 54/21, строение 2",58,55.58396705478,37.685992323696,140libzav@cbsuao.ru,Государственное бюджетное учреждение культуры города Москвы «Объединение культурных центров Южного административного округа»,+7 (495) 682-42-22,bibliouao.ru,Бирюлёво Восточное,ЮАО
Библиотека №166 имени 1-го Мая,"Российская Федерация, город Москва, внутригородская территория муниципальный округ Донской, Ленинский проспект, дом 37А",70,55.708618529789,37.586619245532,166libzav@cbsuao.ru,Государственное бюджетное учреждение культуры города Москвы «Объединение культурных центров Южного административного округа»,+7 (495) 682-42-22,bibliouao.ru,Донской,ЮАО
Библиотека №169 «Проспект»,"город Москва, Ленинский проспект, дом 127",58,55.64615629859,37.477928135078,library-169@cbsuzao.ru,Государственное бюджетное учреждение культуры города Москвы «Объединение культурных центров Юго-Западного административного округа»,+7 (495) 438-95-10,cbsuzao.ru,Тёплый Стан,ЮЗАО
Библиотека №115,"Российская Федерация, город Москва, внутригородская территория муниципальный округ Кузьминки, улица Фёдора Полетаева, дом 28",58,55.7085413278124,37.7829571652886,115@okcuvao.ru,Государственное бюджетное учреждение культуры города Москвы «Объединение культурных центров Юго-Восточного административного округа»,+7 (495) 379-83-91,cbsuvao.ru,Кузьминки,ЮВАО
Детская библиотека №153,"Российская Федерация, город Москва, внутригородская территория муниципальный округ Зябликово, Задонский проезд, дом 24, корпус 3",53,55.6216163969357,37.7537252660841,154libzav@cbsuao.ru,Государственное бюджетное учреждение культуры города Москвы «Объединение культурных центров Южного административного округа»,+7 (495) 682-42-22,bibliouao.ru,Зябликово,ЮАО
Библиотека №204 - Центр культурного наследия Н. С. Гумилева,"Российская Федерация, город Москва, внутригородская территория муниципальный округ Фили-Давыдково, Кременчугская улица, дом 22",58,55.7179055692206,37.4613241665065,204@bibliozao.ru,Государственное бюджетное учреждение культуры города Москвы «Объединение культурных центров Западного административного округа»,+7 (499) 449-34-03,bibliozao.ru,Фили-Давыдково,ЗАО
Библиотека №24 имени Назыма Хикмета,"Российская Федерация, город Москва, внутригородская территория муниципальный округ Сокол, Новопесчаная улица, дом 23, корпус 7",58,55.7929302275649,37.5130023714155,bib24@culture.mos.ru,Государственное бюджетное учреждение культуры города Москвы «Объединение культурных центров Северного административного округа»,+7 (499) 943-51-73,cbssao.ru,Сокол,САО
Библиотека №89,"Российская Федерация, город Москва, внутригородская территория муниципальный округ Восточный, улица 9 Мая, дом 14",58,55.8172470544614,37.8675572309172,administrator@cbs-vao.ru,Государственное бюджетное учреждение культуры города Москвы «Объединение культурных центров Восточного административного округа»,+7 (499) 780-95-73,cbs-vao.ru,Восточный,ВАО
Центральная детская библиотека №152,"Российская Федерация, город Москва, внутригородская территория муниципальный округ Орехово-Борисово Южное, Воронежская улица, дом 10",65,55.6091518430855,37.7271003602073,152libzav@cbsuao.ru,Государственное бюджетное учреждение культуры города Москвы «Объединение культурных центров Южного административного округа»,+7 (495) 682-42-22,bibliouao.ru,Орехово-Борисово Южное,ЮАО
Библиотека №23 имени М.Горького,"город Москва, Тимирязевская улица, дом 17, корпус 1",58,55.81236883305,37.566800864364,bib23@culture.mos.ru,Государственное бюджетное учреждение культуры города Москвы «Объединение культурных центров Северного административного округа»,+7 (495) 798-44-76,cbssao.ru,Тимирязевский,САО
Библиотека №69,"Российская Федерация, город Москва, внутригородская территория муниципальный округ Бибирево, улица Корнейчука, дом 40",58,55.897588458578,37.628936227232,biblio69@bibliosvao.ru,Государственное бюджетное учреждение культуры города Москвы «Объединение культурных центров Северо-Восточного административного округа»,+7 (499) 206-92-74,bibliosvao.ru,Бибирево,СВАО
Детская библиотека №208 - Центр культурного наследия В. И. Даля,"Российская Федерация, город Москва, внутригородская территория муниципальный округ Можайский, Беловежская улица, дом 39, корпус 3",53,55.710742250373,37.3947129244369,208@bibliozao.ru,Государственное бюджетное учреждение культуры города Москвы «Объединение культурных центров Западного административного округа»,+7 (495) 447-15-31,bibliozao.ru,Можайский,ЗАО
Библиотека №127,"Российская Федерация, город Москва, внутригородская территория муниципальный округ Текстильщики, улица Чистова, дом 15/15",58,55.6974236863294,37.7437206264585,127@okcuvao.ru,Государственное бюджетное учреждение культуры города Москвы «Объединение культурных центров Юго-Восточного административного округа»,+7 (499) 179-83-11,cbsuvao.ru,Текстильщики,ЮВАО
Первая детская казачья библиотека № 128 – культурный центр М.А. Шолохова.,"Российская Федерация, город Москва, внутригородская территория муниципальный округ Текстильщики, 8-я улица Текстильщиков, дом 14",53,55.701937362737,37.746293702145,128@okcuvao.ru,Государственное бюджетное учреждение культуры города Москвы «Объединение культурных центров Юго-Восточного административного округа»,+7 (499) 178-57-79,cbsuvao.ru,Текстильщики,ЮВАО
Библиотека №36 Культурный центр Ф. А. Искандера,"город Москва, улица Правды, дом 11",58,55.78586772485,37.578212211505,bib36@culture.mos.ru,Государственное бюджетное учреждение культуры города Москвы «Объединение культурных центров Северного административного округа»,+7 (495) 614-10-52,cbssao.ru,Беговой,САО
Центральная библиотека №21,"Российская Федерация, город Москва, внутригородская территория муниципальный округ Войковский, улица Космонавта Волкова, дом 3",70,55.819236729226,37.516483864996,bib21@culture.mos.ru,Государственное бюджетное учреждение культуры города Москвы «Объединение культурных центров Северного административного округа»,+7 (499) 150-07-03,cbssao.ru,Войковский,САО
Библиотека № 29,"город Москва, Дмитровское шоссе, дом 43, корпус 1",58,55.845149102555,37.569783020538,bib29@culture.mos.ru,Государственное бюджетное учреждение культуры города Москвы «Объединение культурных центров Северного административного округа»,+7 (499) 790-43-45,cbssao.ru,Тимирязевский,САО
Библиотека №91 имени Э.Л. Войнич,"город Москва, шоссе Энтузиастов, дом 78, корпус 1",0,55.7646946413903,37.787665395623,administrator@cbs-vao.ru,Государственное бюджетное учреждение культуры города Москвы «Объединение культурных центров Восточного административного округа»,+7 (495) 304-30-06,cbs-vao.ru,Перово,ВАО
Детская библиотека №154,"город Москва, улица Медиков, дом 22, корпус 3",53,55.63141088834,37.677837332495,154libzav@cbsuao.ru,Государственное бюджетное учреждение культуры города Москвы «Объединение культурных центров Южного административного округа»,+7 (495) 682-42-22,bibliouao.ru,Царицыно,ЮАО
Библиотека №137,"Российская Федерация, город Москва, внутригородская территория муниципальный округ Бирюлево Восточное, Липецкая улица, дом 10, корпус 1, строение 3",58,55.598494908022,37.6706948038191,137libzav@cbsuao.ru,Государственное бюджетное учреждение культуры города Москвы «Объединение культурных центров Южного административного округа»,+7 (495) 682-42-22,bibliouao.ru,Бирюлёво Восточное,ЮАО
Библиотека №74,"Российская Федерация, город Москва, внутригородская территория муниципальный округ Богородское, Ивантеевская улица, дом 4, корпус 2",58,55.8197107934884,37.7159370062873,b74@cbs-vao.ru,Государственное бюджетное учреждение культуры города Москвы «Объединение культурных центров Восточного административного округа»,+7 (499) 169-00-84,cbs-vao.ru,Богородское,ВАО
Библиотека №82,"город Москва, 4-я Парковая улица, дом 12, корпус 1",58,55.7891503544015,37.8120605461299,b82@cbs-vao.ru,Государственное бюджетное учреждение культуры города Москвы «Объединение культурных центров Восточного административного округа»,+7 (495) 465-23-93,cbs-vao.ru,Измайлово,ВАО
Библиотека №73 Культурный центр академика Д.С. Лихачева,"город Москва, Амурская улица, дом 31",58,55.814218191016,37.796236287368,administrator@cbs-vao.ru,Государственное бюджетное учреждение культуры города Москвы «Объединение культурных центров Восточного административного округа»,+7 (495) 466-07-14,cbs-vao.ru,Гольяново,ВАО
Библиотека искусств имени А. П. Боголюбова,"Российская Федерация, город Москва, внутригородская территория муниципальный округ Тверской, Новослободская улица, дом 49/2",68,55.7813784575863,37.6024715183303,bogolubovlib@yandex.ru,Государственное бюджетное учреждение культуры города Москвы «Библиотека искусств им. А.П. Боголюбова»,+7 (495) 609-29-35,bogolublib.ru,Тверской,ЦАО
Библиотека №215,"Российская Федерация, город Москва, внутригородская территория муниципальный округ Проспект Вернадского, улица Удальцова, дом 26, корпус 1",53,55.6810803854295,37.4948317883536,215@bibliozao.ru,Государственное бюджетное учреждение культуры города Москвы «Объединение культурных центров Западного административного округа»,+7 (499) 131-60-01,bibliozao.ru,Проспект Вернадского,ЗАО
Библиотека №34 им. А.А. Вознесенского,"Российская Федерация, город Москва, внутригородская территория муниципальный округ Савеловский, Башиловская улица, дом 3, корпус 1",58,55.7942209675688,37.5765492673963,bib34@culture.mos.ru,Государственное бюджетное учреждение культуры города Москвы «Объединение культурных центров Северного административного округа»,+7 (495) 614-29-01,cbssao.ru,Савёловский,САО
Библиотека №26,"Российская Федерация, город Москва, внутригородская территория муниципальный округ Ховрино, Зеленоградская улица, дом 27А",0,55.8746057325847,37.4937494751066,bib26@culture.mos.ru,Государственное бюджетное учреждение культуры города Москвы «Объединение культурных центров Северного административного округа»,+7 (495) 451-46-53,cbssao.ru,Ховрино,САО
Детская библиотека №156,"Российская Федерация, город Москва, внутригородская территория муниципальный округ Орехово-Борисово Северное, Домодедовская улица, дом 1, корпус 1",53,55.6173845870249,37.7059336658567,156libzav@cbsuao.ru,Государственное бюджетное учреждение культуры города Москвы «Объединение культурных центров Южного административного округа»,+7 (495) 682-42-22,bibliouao.ru,Орехово-Борисово Северное,ЮАО
Библиотека №168,"Российская Федерация, город Москва, внутригородская территория муниципальный округ Зюзино, Херсонская улица, дом 1",58,55.6497671749507,37.5763998078842,info@cbsuzao.ru,Государственное бюджетное учреждение культуры города Москвы «Объединение культурных центров Юго-Западного административного округа»,+7 (499) 122-10-88,cbsuzao.ru,Зюзино,ЮЗАО
Библиотека №107,"Российская Федерация, город Москва, внутригородская территория муниципальный округ Нижегородский, Перовское шоссе, дом 16/2",58,55.7356905997654,37.7516975160688,107_116_123@okcuvao.ru,Государственное бюджетное учреждение культуры города Москвы «Объединение культурных центров Юго-Восточного административного округа»,+7 (499) 171-94-37,cbsuvao.ru,Нижегородский,ЮВАО
Библиотека №86,"город Москва, Измайловский проезд, дом 4",58,55.7981386094712,37.7696616528556,b86@cbs-vao.ru,Государственное бюджетное учреждение культуры города Москвы «Объединение культурных центров Восточного административного округа»,+7 (499) 166-43-80,cbs-vao.ru,Измайлово,ВАО
Библиотека №180 имени Н.Ф. Федорова,"Российская Федерация, город Москва, внутригородская территория муниципальный округ Коньково, Профсоюзная улица, дом 92",68,55.648908655467,37.528853024088,info@cbsuzao.ru,Государственное бюджетное учреждение культуры города Москвы «Объединение культурных центров Юго-Западного административного округа»,+7 (495) 335-57-22,cbsuzao.ru,Коньково,ЮЗАО
Библиотека №149,"Российская Федерация, город Москва, внутригородская территория муниципальный округ Орехово-Борисово Южное, Ясеневая улица, дом 34, корпус 4",40,55.6039985191368,37.7442731615156,149libzav@cbsuao.ru,Государственное бюджетное учреждение культуры города Москвы «Объединение культурных центров Южного административного округа»,+7 (495) 682-42-22,bibliouao.ru,Орехово-Борисово Южное,ЮАО
Библиотека №217,"город Москва, улица Довженко, дом 6",58,55.7224656261575,37.5121340780805,217@bibliozao.ru,Государственное бюджетное учреждение культуры города Москвы «Объединение культурных центров Западного административного округа»,+7 (499) 143-39-97,bibliozao.ru,Раменки,ЗАО
Библиотека №192,"город Москва, Старобитцевская улица, дом 23, корпус 2",66,55.578687847787,37.573442178761,library-192@cbsuzao.ru,Государственное бюджетное учреждение культуры города Москвы «Объединение культурных центров Юго-Западного административного округа»,+7 (495) 713-11-27,cbsuzao.ru,Северное Бутово,ЮЗАО
Центральная библиотека №106,"Российская Федерация, город Москва, внутригородская территория муниципальный округ Рязанский, Шатурская улица, дом 49, корпус 1",70,55.727239185654,37.774318019782,106@okcuvao.ru,Государственное бюджетное учреждение культуры города Москвы «Объединение культурных центров Юго-Восточного административного округа»,+7 (499) 171-23-52,cbsuvao.ru,Рязанский,ЮВАО
Библиотека №157,"Российская Федерация, город Москва, внутригородская территория муниципальный округ Чертаново Южное, улица Газопровод, дом 9, корпус 2",58,55.5897560363462,37.6072551961988,157libzav@cbsuao.ru,Государственное бюджетное учреждение культуры города Москвы «Объединение культурных центров Южного административного округа»,+7 (495) 682-42-22,bibliouao.ru,Чертаново Южное,ЮАО
Детская Библиотека №158,"Российская Федерация, город Москва, внутригородская территория муниципальный округ Чертаново Южное, Дорожная улица, дом 20, корпус 1",53,55.6071985018528,37.6193895097822,158libzav@cbsuao.ru,Государственное бюджетное учреждение культуры города Москвы «Объединение культурных центров Южного административного округа»,+7 (495) 682-42-22,bibliouao.ru,Чертаново Южное,ЮАО
Библиотека №175,"Российская Федерация, город Москва, внутригородская территория муниципальный округ Котловка, улица Ремизова, дом 10",58,55.6763574177699,37.6003552554175,library-175@cbsuzao.ru,Государственное бюджетное учреждение культуры города Москвы «Объединение культурных центров Юго-Западного административного округа»,+7 (499) 127-11-90,cbsuzao.ru,Котловка,ЮЗАО
Библиотека №220,"Российская Федерация, город Москва, внутригородская территория муниципальный округ Очаково-Матвеевское, улица Наташи Ковшовой, дом 7/1",47,55.6836879279847,37.4543056500006,220@bibliozao.ru,Государственное бюджетное учреждение культуры города Москвы «Объединение культурных центров Западного административного округа»,+7 (495) 430-63-25,bibliozao.ru,Очаково-Матвеевское,ЗАО
Центральная детская библиотека №226,"Российская Федерация, город Москва, внутригородская территория муниципальный округ Северное Тушино, бульвар Яна Райниса, дом 2, корпус 1",53,55.851062620209,37.434484098924,226@cbsszao.ru,Государственное бюджетное учреждение культуры города Москвы «Объединение культурных центров Северо-Западного административного округа»,+7 (495) 495-84-77,cbsszao.ru,Северное Тушино,СЗАО
Детская библиотека №35,"город Москва, Дубнинская улица, дом 6, корпус 1",53,55.85876154682,37.570629180203,bib35@culture.mos.ru,Государственное бюджетное учреждение культуры города Москвы «Объединение культурных центров Северного административного округа»,+7 (495) 904-84-96,cbssao.ru,Восточное Дегунино,САО
Центральная библиотека №70 им. М. А. Шолохова,"Российская Федерация, город Москва, внутригородская территория муниципальный округ Преображенское, Большая Черкизовская улица, дом 18/1",70,55.7979727624291,37.729940819554,b70@cbs-vao.ru,Государственное бюджетное учреждение культуры города Москвы «Объединение культурных центров Восточного административного округа»,+7 (499) 168-63-37,cbs-vao.ru,Преображенское,ВАО
Библиотека №48,"Российская Федерация, город Москва, внутригородская территория муниципальный округ Алексеевский, улица Кибальчича, дом 4/6",58,55.815187746137,37.647393389819,biblio48@bibliosvao.ru,Государственное бюджетное учреждение культуры города Москвы «Объединение культурных центров Северо-Восточного административного округа»,+7 (495) 687-79-11,bibliosvao.ru,Алексеевский,СВАО
Библиотека №189 «Патриот»,"город Москва, улица Брусилова, дом 27",58,55.503632587241,37.583290881583,info@cbsuzao.ru,Государственное бюджетное учреждение культуры города Москвы «Объединение культурных центров Юго-Западного административного округа»,+7 (499) 234-48-45,cbsuzao.ru,Южное Бутово,ЮЗАО
Библиотека №75 им. А. С. Серафимовича,"Российская Федерация, город Москва, внутригородская территория муниципальный округ Метрогородок, Открытое шоссе, дом 27, корпус 8",58,55.8277445513146,37.7570633171126,b75@cbs-vao.ru,Государственное бюджетное учреждение культуры города Москвы «Объединение культурных центров Восточного административного округа»,+7 (499) 167-15-73,cbs-vao.ru,Метрогородок,ВАО
Библиотека №200 «Истоки»,"Российская Федерация, город Москва, внутригородская территория муниципальный округ Кунцево, улица Ивана Франко, дом 32, корпус 1",58,55.7328112029205,37.4075517654059,200@bibliozao.ru,Государственное бюджетное учреждение культуры города Москвы «Объединение культурных центров Западного административного округа»,+7 (495) 417-52-85,bibliozao.ru,Кунцево,ЗАО
Библиотека №150,"Российская Федерация, город Москва, внутригородская территория муниципальный округ Братеево, Ключевая улица, дом 10, корпус 2",58,55.633618022067,37.74123636413,150libzav@cbsuao.ru,Государственное бюджетное учреждение культуры города Москвы «Объединение культурных центров Южного административного округа»,+7 (495) 682-42-22,bibliouao.ru,Братеево,ЮАО
Библиотека №30,"город Москва, Коровинское шоссе, дом 22",58,55.882599914694,37.533092536758,bib30@culture.mos.ru,Государственное бюджетное учреждение культуры города Москвы «Объединение культурных центров Северного административного округа»,+7 (495) 485-20-63,cbssao.ru,Дмитровский,САО
Библиотека №2 имени Ю. В. Трифонова,"Российская Федерация, город Москва, внутригородская территория муниципальный округ Тверской, Лесная улица, дом 63, строение 1",70,55.774424895406,37.59407451873,lukashevich_ya@okccao.ru,Государственное бюджетное учреждение культуры города Москвы «Объединение культурных центров Центрального административного округа»,+7 (499) 250-01-62,okccao.ru,Тверской,ЦАО
Библиотека №33 им. Д. А. Фурманова,"Российская Федерация, город Москва, внутригородская территория муниципальный округ Беговой, 1-й Боткинский проезд, дом 4",58,55.783194016106,37.5573231931776,bib33@culture.mos.ru,Государственное бюджетное учреждение культуры города Москвы «Объединение культурных центров Северного административного округа»,+7 (495) 946-03-62,cbssao.ru,Беговой,САО
Библиотека №230,"Российская Федерация, город Москва, внутригородская территория муниципальный округ Южное Тушино, Парусный проезд, дом 15",58,55.846372660863,37.4468859191984,230@cbsszao.ru,Государственное бюджетное учреждение культуры города Москвы «Объединение культурных центров Северо-Западного административного округа»,+7 (499) 493-53-29,cbsszao.ru,Южное Тушино,СЗАО
Библиотека №229,"город Москва, Туристская улица, дом 31, корпус 1",58,55.8572053846082,37.419781474708,229@cbsszao.ru,Государственное бюджетное учреждение культуры города Москвы «Объединение культурных центров Северо-Западного административного округа»,+7 (495) 495-63-77,cbsszao.ru,Северное Тушино,СЗАО
Библиотека №134,"Российская Федерация, город Москва, внутригородская территория муниципальный округ Капотня, 3-й квартал Капотня, дом 13",58,55.633304203942,37.8030819771811,134@okcuvao.ru,Государственное бюджетное учреждение культуры города Москвы «Объединение культурных центров Юго-Восточного административного округа»,+7 (495) 355-77-65,cbsuvao.ru,Капотня,ЮВАО
Библиотека №116,"Российская Федерация, город Москва, внутригородская территория муниципальный округ Нижегородский, Нижегородская улица, дом 70, корпус 1",58,55.7335570025027,37.7088325420725,107_116_123@okcuvao.ru,Государственное бюджетное учреждение культуры города Москвы «Объединение культурных центров Юго-Восточного административного округа»,+7 (495) 671-28-94,cbsuvao.ru,Нижегородский,ЮВАО
Детская библиотека №102,"Российская Федерация, город Москва, внутригородская территория муниципальный округ Перово, улица Плеханова, дом 26, корпус 4",53,55.740506974397,37.768016249207,b102@cbs-vao.ru,Государственное бюджетное учреждение культуры города Москвы «Объединение культурных центров Восточного административного округа»,+7 (495) 309-07-39,cbs-vao.ru,Перово,ВАО
Библиотека №145,"Российская Федерация, город Москва, внутригородская территория муниципальный округ Зябликово, улица Мусы Джалиля, дом 34, корпус 4",53,55.6172815881044,37.7375837322325,145libzav@cbsuao.ru,Государственное бюджетное учреждение культуры города Москвы «Объединение культурных центров Южного административного округа»,+7 (495) 682-42-22,bibliouao.ru,Зябликово,ЮАО
Детская библиотека №238,"город Москва, улица Барышиха, дом 21",53,55.844674408559,37.34704322057,238@cbsszao.ru,Государственное бюджетное учреждение культуры города Москвы «Объединение культурных центров Северо-Западного административного округа»,+7 (495) 794-40-93,cbsszao.ru,Митино,СЗАО
Библиотека №95,"Российская Федерация, город Москва, внутригородская территория муниципальный округ Новогиреево, Полимерная улица, дом 7, строение 2",58,55.7470782188402,37.8001274820417,b95@cbs-vao.ru,Государственное бюджетное учреждение культуры города Москвы «Объединение культурных центров Восточного административного округа»,+7 (495) 301-35-14,cbs-vao.ru,Новогиреево,ВАО
Центральная детская библиотека №46 им. И.З. Сурикова,"Российская Федерация, город Москва, внутригородская территория муниципальный округ Коптево, Новопетровская улица, дом 16А",58,55.8353535593413,37.5230257026851,bib46@culture.mos.ru,Государственное бюджетное учреждение культуры города Москвы «Объединение культурных центров Северного административного округа»,+7 (495) 708-85-06,cbssao.ru,Коптево,САО
Библиотека №142,"Российская Федерация, город Москва, внутригородская территория муниципальный округ Бирюлево Восточное, Михневский проезд, дом 8, корпус 2А",58,55.575944235562,37.6678765355609,142libzav@cbsuao.ru,Государственное бюджетное учреждение культуры города Москвы «Объединение культурных центров Южного административного округа»,+7 (495) 682-42-22,bibliouao.ru,Бирюлёво Восточное,ЮАО
Библиотека №246,"Российская Федерация, город Москва, внутригородская территория муниципальный округ Щукино, улица Маршала Конева, дом 16",58,55.795459504345,37.4844877235591,246@cbsszao.ru,Государственное бюджетное учреждение культуры города Москвы «Объединение культурных центров Северо-Западного административного округа»,+7 (499) 194-49-96,cbsszao.ru,Щукино,СЗАО
Библиотека №11 имени Д. В. Давыдова,"Российская Федерация, город Москва, внутригородская территория муниципальный округ Пресненский, Шмитовский проезд, дом 46, корпус 2",60,55.7536477647735,37.5226690527052,galchina_la@okccao.ru,Государственное бюджетное учреждение культуры города Москвы «Объединение культурных центров Центрального административного округа»,+7 (499) 259-56-28,okccao.ru,Пресненский,ЦАО
Библиотека №6 имени В. В. Вересаева,"Российская Федерация, город Москва, внутригородская территория муниципальный округ Хамовники, Ружейный переулок, дом 4, строение 1",70,55.7435816583261,37.5808837171644,zhulikova_sn@okccao.ru,Государственное бюджетное учреждение культуры города Москвы «Объединение культурных центров Центрального административного округа»,+7 (499) 255-81-33,okccao.ru,Хамовники,ЦАО
Библиотека №63 имени И.С. Соколова-Микитова,"город Москва, Полярная улица, дом 26, корпус 1",58,55.875371341377,37.636159203608,biblio63@bibliosvao.ru,Государственное бюджетное учреждение культуры города Москвы «Объединение культурных центров Северо-Восточного административного округа»,+7 (499) 477-15-32,bibliosvao.ru,Северное Медведково,СВАО
Библиотека №110,"Российская Федерация, город Москва, внутригородская территория муниципальный округ Выхино-Жулебино, Ташкентская улица, дом 18, корпус 1",58,55.702549345353,37.813418324435,110@okcuvao.ru,Государственное бюджетное учреждение культуры города Москвы «Объединение культурных центров Юго-Восточного административного округа»,+7 (495) 372-02-15,cbsuvao.ru,Выхино-Жулебино,ЮВАО
Библиотека №248,"Российская Федерация, город Москва, внутригородская территория муниципальный округ Строгино, улица Кулакова, дом 19",58,55.8078878313345,37.4098257534206,248@cbsszao.ru,Государственное бюджетное учреждение культуры города Москвы «Объединение культурных центров Северо-Западного административного округа»,+7 (495) 750-95-92,cbsszao.ru,Строгино,СЗАО
Детская библиотека №211 «Пионер»,"Российская Федерация, город Москва, внутригородская территория муниципальный округ Дорогомилово, Большая Дорогомиловская улица, дом 7",65,55.7460586666168,37.5579223670731,211@okczao.ru,Государственное бюджетное учреждение культуры города Москвы «Объединение культурных центров Западного административного округа»,+7 (499) 240-21-75,bibliozao.ru,Дорогомилово,ЗАО
Библиотека №68,"город Москва, Челюскинская улица, дом 2",53,55.878813136814,37.700949802328,biblio68@bibliosvao.ru,Государственное бюджетное учреждение культуры города Москвы «Объединение культурных центров Северо-Восточного административного округа»,+7 (495) 474-90-59,bibliosvao.ru,Лосиноостровский,СВАО
Библиотека №187,"Российская Федерация, город Москва, внутригородская территория муниципальный округ Коньково, улица Островитянова, дом 19/22",58,55.6388145923382,37.5112535711378,info@cbsuzao.ru,Государственное бюджетное учреждение культуры города Москвы «Объединение культурных центров Юго-Западного административного округа»,+7 (495) 335-89-86,cbsuzao.ru,Коньково,ЮЗАО
Библиотека №243,"Российская Федерация, город Москва, внутригородская территория муниципальный округ Щукино, улица Академика Бочвара, дом 2",58,55.8071139562954,37.4618365522474,243@cbsszao.ru,Государственное бюджетное учреждение культуры города Москвы «Объединение культурных центров Северо-Западного административного округа»,+7 (499) 193-54-92,cbsszao.ru,Щукино,СЗАО
Библиотека № 132,"Российская Федерация, город Москва, внутригородская территория муниципальный округ Печатники, Батюнинская улица, дом 14",58,55.6592364232153,37.7067870328156,132@okcuvao.ru,Государственное бюджетное учреждение культуры города Москвы «Объединение культурных центров Юго-Восточного административного округа»,+7 (495) 354-36-38,cbsuvao.ru,Печатники,ЮВАО
Детская Библиотека №141,"Российская Федерация, город Москва, внутригородская территория муниципальный округ Царицыно, Бакинская улица, дом 15",53,55.6208959262681,37.6590688107535,141libzav@cbsuao.ru,Государственное бюджетное учреждение культуры города Москвы «Объединение культурных центров Южного административного округа»,+7 (495) 682-42-22,bibliouao.ru,Царицыно,ЮАО
Библиотека №165,"Российская Федерация, город Москва, внутригородская территория муниципальный округ Нагатино-Садовники, Нагатинская набережная, дом 20, корпус 2",50,55.681320850194,37.655399207451,165libzav@cbsuao.ru,Государственное бюджетное учреждение культуры города Москвы «Объединение культурных центров Южного административного округа»,+7 (495) 682-42-22,bibliouao.ru,Нагатино-Садовники,ЮАО
Библиотека № 1 имени А. С. Грибоедова,"Российская Федерация, город Москва, внутригородская территория муниципальный округ Мещанский, Банный переулок, дом 4, строение 2",70,55.7858122948118,37.6378484722227,danilova_tv@okccao.ru,Государственное бюджетное учреждение культуры города Москвы «Объединение культурных центров Центрального административного округа»,+7 (495) 680-60-82,okccao.ru,Мещанский,ЦАО
Детская библиотека №206 им. И. Е. Забелина,"Российская Федерация, город Москва, внутригородская территория муниципальный округ Фили-Давыдково, Кременчугская улица, дом 6, корпус 1",53,55.7238011711344,37.4602808710188,206@bibliozao.ru,Государственное бюджетное учреждение культуры города Москвы «Объединение культурных центров Западного административного округа»,+7 (499) 449-05-84,bibliozao.ru,Фили-Давыдково,ЗАО
Библиотека №227,"город Москва, улица Героев Панфиловцев, дом 12, корпус 1",58,55.858696346968,37.428826169383,227@cbsszao.ru,Государственное бюджетное учреждение культуры города Москвы «Объединение культурных центров Северо-Западного административного округа»,+7 (495) 494-21-56,cbsszao.ru,Северное Тушино,СЗАО
Библиотека №181,"Российская Федерация, город Москва, внутригородская территория муниципальный округ Зюзино, Болотниковская улица, дом 44, корпус 1",58,55.662894878373,37.5862345744606,library-181@cbsuzao.ru,Государственное бюджетное учреждение культуры города Москвы «Объединение культурных центров Юго-Западного административного округа»,+7 (499) 121-30-92,cbsuzao.ru,Зюзино,ЮЗАО
Библиотека №130,"Российская Федерация, город Москва, внутригородская территория муниципальный округ Люблино, Краснодарская улица, дом 20/1",58,55.6774317031349,37.7516328809863,105_130@okcuvao.ru,Государственное бюджетное учреждение культуры города Москвы «Объединение культурных центров Юго-Восточного административного округа»,+7 (495) 359-61-83,cbsuvao.ru,Люблино,ЮВАО
Библиотека №123,"Российская Федерация, город Москва, внутригородская территория муниципальный округ Нижегородский, улица Верхняя Хохловка, дом 39/47",58,55.733324343337,37.721573767124,107_116_123@okcuvao.ru,Государственное бюджетное учреждение культуры города Москвы «Объединение культурных центров Юго-Восточного административного округа»,+7 (495) 678-81-56,cbsuvao.ru,Нижегородский,ЮВАО
Детская библиотека №155,"Российская Федерация, город Москва, внутригородская территория муниципальный округ Орехово-Борисово Южное, Гурьевский проезд, дом 15, корпус 2, строение 2",53,55.6071288080407,37.7468963619322,155libzav@cbsuao.ru,Государственное бюджетное учреждение культуры города Москвы «Объединение культурных центров Южного административного округа»,+7 (495) 682-42-22,bibliouao.ru,Орехово-Борисово Южное,ЮАО
Детская библиотека №71,"Российская Федерация, город Москва, внутригородская территория муниципальный округ Гольяново, Байкальская улица, дом 46, корпус 1",53,55.8171636662573,37.8190585132688,b71@cbs-vao.ru,Государственное бюджетное учреждение культуры города Москвы «Объединение культурных центров Восточного административного округа»,+7 (495) 467-99-88,cbs-vao.ru,Гольяново,ВАО
Библиотека №83,"Российская Федерация, город Москва, внутригородская территория муниципальный округ Измайлово, 7-я Парковая улица, дом 27",58,55.8062246098429,37.7916141506284,b83@cbs-vao.ru,Государственное бюджетное учреждение культуры города Москвы «Объединение культурных центров Восточного административного округа»,+7 (499) 164-33-93,cbs-vao.ru,Измайлово,ВАО
Библиотека №239,"город Москва, Родионовская улица, дом 9",68,55.893200456264,37.394495245017,239@cbsszao.ru,Государственное бюджетное учреждение культуры города Москвы «Объединение культурных центров Северо-Западного административного округа»,+7 (499) 501-22-06,cbsszao.ru,Куркино,СЗАО
Библиотека № 9 имени Н.В. Гоголя,"Российская Федерация, город Москва, внутригородская территория муниципальный округ Пресненский, Большая Грузинская улица, дом 39",0,55.7707497544175,37.5815258074764,dyadichevfm@okccao.ru,Государственное бюджетное учреждение культуры города Москвы «Объединение культурных центров Центрального административного округа»,+7 (499) 253-87-83,okccao.ru,Пресненский,ЦАО
Библиотека №234,"город Москва, улица Габричевского, дом 8",68,55.815636740513,37.458976497203,234@cbsszao.ru,Государственное бюджетное учреждение культуры города Москвы «Объединение культурных центров Северо-Западного административного округа»,+7 (499) 193-34-03,cbsszao.ru,Покровское-Стрешнево,СЗАО
Библиотека №13 имени Н. Г. Чернышевского,"Российская Федерация, город Москва, внутригородская территория муниципальный округ Замоскворечье, Большая Татарская улица, дом 32",70,55.7451628932954,37.6387701099794,arlanova_em@okccao.ru,Государственное бюджетное учреждение культуры города Москвы «Объединение культурных центров Центрального административного округа»,+7 (495) 951-60-78,okccao.ru,Замоскворечье,ЦАО
Библиотека №27,"Российская Федерация, город Москва, внутригородская территория муниципальный округ Ховрино, Фестивальная улица, дом 67",58,55.8618976694866,37.5014956947416,bib27@culture.mos.ru,Государственное бюджетное учреждение культуры города Москвы «Объединение культурных центров Северного административного округа»,+7 (495) 455-68-97,cbssao.ru,Ховрино,САО
Библиотека №162 имени К. М. Симонова,"Российская Федерация, город Москва, внутригородская территория муниципальный округ Нагатинский Затон, Якорная улица, дом 5, корпус 2",58,55.686748957774,37.686353590381,162libzav@cbsuao.ru,Государственное бюджетное учреждение культуры города Москвы «Объединение культурных центров Южного административного округа»,+7 (495) 682-42-22,bibliouao.ru,Нагатинский Затон,ЮАО
Библиотека №195,"Российская Федерация, город Москва, внутригородская территория муниципальный округ Южное Бутово, бульвар Адмирала Ушакова, дом 11",58,55.545986390647,37.548607568226,info@cbsuzao.ru,Государственное бюджетное учреждение культуры города Москвы «Объединение культурных центров Юго-Западного административного округа»,+7 (499) 793-31-90,cbsuzao.ru,Южное Бутово,ЮЗАО
Детская библиотека №178 - Культурный центр А. Л. Барто,"Российская Федерация, город Москва, внутригородская территория муниципальный округ Академический, улица Дмитрия Ульянова, дом 24",57,55.687171499835,37.573604167493,library-178@cbsuzao.ru,Государственное бюджетное учреждение культуры города Москвы «Объединение культурных центров Юго-Западного административного округа»,+7 (495) 124-31-02,cbsuzao.ru,Академический,ЮЗАО
Библиотека №8 имени А. П. Чехова,"Российская Федерация, город Москва, внутригородская территория муниципальный округ Тверской, Страстной бульвар, дом 6, строение 2",70,55.7656009817365,37.6093272445723,pahomova_ea@okccao.ru,Государственное бюджетное учреждение культуры города Москвы «Объединение культурных центров Центрального административного округа»,+7 (495) 692-83-97,okccao.ru,Тверской,ЦАО
Детская библиотека №244,"Российская Федерация, город Москва, внутригородская территория муниципальный округ Щукино, улица Народного Ополчения, дом 37, корпус 1",53,55.7906795410832,37.4879848002456,244@cbsszao.ru,Государственное бюджетное учреждение культуры города Москвы «Объединение культурных центров Северо-Западного административного округа»,+7 (499) 194-05-23,cbsszao.ru,Щукино,СЗАО
Библиотека №117,"Российская Федерация, город Москва, внутригородская территория муниципальный округ Некрасовка, Рождественская улица, дом 12",58,55.6862514083408,37.9217924829572,117@okcuvao.ru,Государственное бюджетное учреждение культуры города Москвы «Объединение культурных центров Юго-Восточного административного округа»,+7 (495) 706-89-85,cbsuvao.ru,Некрасовка,ЮВАО
Детская библиотека №43- Культурный центр В.Ю. Драгунского,"город Москва, улица Куусинена, дом 17, корпус 2",53,55.785663348885,37.51173068594,bib43@culture.mos.ru,Государственное бюджетное учреждение культуры города Москвы «Объединение культурных центров Северного административного округа»,+7 (499) 943-25-63,cbssao.ru,Хорошёвский,САО
Библиотека №80,"Российская Федерация, город Москва, внутригородская территория муниципальный округ Ивановское, Челябинская улица, дом 24, корпус 3А",58,55.779256328061,37.837342842115,b80@cbs-vao.ru,Государственное бюджетное учреждение культуры города Москвы «Объединение культурных центров Восточного административного округа»,+7 (499) 308-47-61,cbs-vao.ru,Ивановское,ВАО
Библиотека №109,"Российская Федерация, город Москва, внутригородская территория муниципальный округ Выхино-Жулебино, Волгоградский проспект, дом 191",58,55.6960450880365,37.8261663671583,109@okcuvao.ru,Государственное бюджетное учреждение культуры города Москвы «Объединение культурных центров Юго-Восточного административного округа»,+7 (495) 372-14-80,cbsuvao.ru,Выхино-Жулебино,ЮВАО
Библиотека №139,"Российская Федерация, город Москва, внутригородская территория муниципальный округ Царицыно, Каспийская улица, дом 20, корпус 2",58,55.6260178076903,37.6752934930846,cbsuao@cbsuao.ru,Государственное бюджетное учреждение культуры города Москвы «Объединение культурных центров Южного административного округа»,+7 (495) 682-42-22,bibliouao.ru,Царицыно,ЮАО
Библиотека №174,"Российская Федерация, город Москва, внутригородская территория муниципальный округ Ломоносовский, улица Академика Пилюгина, дом 14, корпус 2",0,55.6699898238172,37.5359968654811,info@cbsuzao.ru,Государственное бюджетное учреждение культуры города Москвы «Объединение культурных центров Юго-Западного административного округа»,+7 (499) 132-77-02,cbsuzao.ru,Ломоносовский,ЮЗАО
Библиотека №240,"город Москва, улица Паршина, дом 33",58,55.788815695608,37.455508134243,240@cbsszao.ru,Государственное бюджетное учреждение культуры города Москвы «Объединение культурных центров Северо-Западного административного округа»,+7 (499) 720-19-85,cbsszao.ru,Хорошёво-Мнёвники,СЗАО
Библиотека №131,"Российская Федерация, город Москва, внутригородская территория муниципальный округ Марьино, Братиславская улица, дом 26",58,55.654596783299,37.763039511895,131_133@okcuvao.ru,Государственное бюджетное учреждение культуры города Москвы «Объединение культурных центров Юго-Восточного административного округа»,+7 (499) 267-90-42,cbsuvao.ru,Марьино,ЮВАО
Детская библиотека №40,"город Москва, 1-я Хуторская улица, дом 2, корпус 2",53,55.7936665228879,37.5816280720756,bib40@culture.mos.ru,Государственное бюджетное учреждение культуры города Москвы «Объединение культурных центров Северного административного округа»,+7 (495) 613-25-09,cbssao.ru,Савёловский,САО
Библиотека №16,"Российская Федерация, город Москва, внутригородская территория муниципальный округ Таганский, Волгоградский проспект, дом 16",70,55.733978092796,37.6542528625578,abdulina_oa@okccao.ru,Государственное бюджетное учреждение культуры города Москвы «Объединение культурных центров Центрального административного округа»,+7 (495) 670-82-15,okccao.ru,Таганский,ЦАО
Библиотека №38,"Российская Федерация, город Москва, внутригородская территория муниципальный округ Бескудниковский, Дмитровское шоссе, дом 66",58,55.8580081305499,37.5609145208335,bib38@culture.mos.ru,Государственное бюджетное учреждение культуры города Москвы «Объединение культурных центров Северного административного округа»,+7 (495) 487-83-05,cbssao.ru,Бескудниковский,САО
Детская библиотека №177,"город Москва, Университетский проспект, дом 9",45,55.696378946577,37.548129172941,library-196@cbsuzao.ru,Государственное бюджетное учреждение культуры города Москвы «Объединение культурных центров Юго-Западного административного округа»,+7 (495) 939-32-33,cbsuzao.ru,Гагаринский,ЮЗАО
Библиотека №111,"город Москва, Рязанский проспект, дом 95, корпус 2",58,55.715270014994,37.81022777046,111@okcuvao.ru,Государственное бюджетное учреждение культуры города Москвы «Объединение культурных центров Юго-Восточного административного округа»,+7 (495) 371-46-71,cbsuvao.ru,Выхино-Жулебино,ЮВАО
Библиотека №12 имени И. А. Бунина,"город Москва, Нововаганьковский переулок, дом 22",70,55.758287891777,37.5578583357856,pichurichkina_su@okccao.ru,Государственное бюджетное учреждение культуры города Москвы «Объединение культурных центров Центрального административного округа»,+7 (495) 605-15-62,okccao.ru,Пресненский,ЦАО
Детская библиотека №144,"Российская Федерация, город Москва, внутригородская территория муниципальный округ Зябликово, Ореховый бульвар, дом 37, корпус 2А",58,55.6152972913768,37.7378197666258,144libzav@cbsuao.ru,Государственное бюджетное учреждение культуры города Москвы «Объединение культурных центров Южного административного округа»,+7 (495) 682-42-22,bibliouao.ru,Зябликово,ЮАО
Библиотека №125,"Российская Федерация, город Москва, внутригородская территория муниципальный округ Лефортово, Сторожевая улица, дом 22, корпус 1",40,55.765587950517,37.711144748152,118_120_125_126@okcuvao.ru,Государственное бюджетное учреждение культуры города Москвы «Объединение культурных центров Юго-Восточного административного округа»,+7 (495) 360-59-32,cbsuvao.ru,Лефортово,ЮВАО
Библиотека №67,"Российская Федерация, город Москва, внутригородская территория муниципальный округ Останкинский, Аргуновская улица, дом 14, строение 2",70,55.818279437488,37.62084746548,biblio67@bibliosvao.ru,Государственное бюджетное учреждение культуры города Москвы «Объединение культурных центров Северо-Восточного административного округа»,+7 (495) 602-16-22,bibliosvao.ru,Останкинский,СВАО
Библиотека №121,"Российская Федерация, город Москва, внутригородская территория муниципальный округ Южнопортовый, улица Трофимова, дом 15",58,55.70352653186,37.673501750163,121_124@okcuvao.ru,Государственное бюджетное учреждение культуры города Москвы «Объединение культурных центров Юго-Восточного административного округа»,+7 (495) 679-19-94,cbsuvao.ru,Южнопортовый,ЮВАО
Библиотека №47,"город Москва, Весенняя улица, дом 8",58,55.873044292137,37.516975363596,bib47@culture.mos.ru,Государственное бюджетное учреждение культуры города Москвы «Объединение культурных центров Северного административного округа»,+7 (499) 905-27-63,cbssao.ru,Западное Дегунино,САО
Библиотека №93 им. А.А. Блока,"город Москва, улица Сталеваров, дом 14, корпус 3",58,55.757378678042,37.839089320823,administrator@cbs-vao.ru,Государственное бюджетное учреждение культуры города Москвы «Объединение культурных центров Восточного административного округа»,+7 (495) 302-71-78,cbs-vao.ru,Ивановское,ВАО
Библиотека №170,"город Москва, улица Паустовского, дом 2/34",58,55.603241516223,37.541526529549,info@cbsuzao.ru,Государственное бюджетное учреждение культуры города Москвы «Объединение культурных центров Юго-Западного административного округа»,+7 (495) 426-10-00,cbsuzao.ru,Ясенево,ЮЗАО
Библиотека №161,"Российская Федерация, город Москва, внутригородская территория муниципальный округ Донской, Загородное шоссе, дом 9, корпус 1",58,55.6927274949087,37.6065604202449,161libzav@cbsuao.ru,Государственное бюджетное учреждение культуры города Москвы «Объединение культурных центров Южного административного округа»,+7 (495) 682-42-22,bibliouao.ru,Донской,ЮАО
Библиотека №151,"Российская Федерация, город Москва, внутригородская территория муниципальный округ Чертаново Северное, микрорайон Северное Чертаново, дом 2, корпус 207",58,55.616558328671,37.59878339241,151libzav@cbsuao.ru,Государственное бюджетное учреждение культуры города Москвы «Объединение культурных центров Южного административного округа»,+7 (495) 682-42-22,bibliouao.ru,Чертаново Северное,ЮАО
Библиотека №129,"Российская Федерация, город Москва, внутригородская территория муниципальный округ Марьино, улица Перерва, дом 56/2",70,55.6583264139563,37.7489723917097,129@okcuvao.ru,Государственное бюджетное учреждение культуры города Москвы «Объединение культурных центров Юго-Восточного административного округа»,+7 (495) 345-21-01,cbsuvao.ru,Марьино,ЮВАО
Дом Н. В. Гоголя - мемориальный музей и научная библиотека,"Российская Федерация, город Москва, внутригородская территория муниципальный округ Арбат, Никитский бульвар, дом 7А",68,55.7541266958588,37.5997598050162,gogolinfo@yandex.ru,Государственное бюджетное учреждение культуры города Москвы «Дом Н.В. Гоголя - мемориальный музей и научная библиотека»,+7 (495) 691-15-50,domgogolya.ru,Арбат,ЦАО
Библиотека №90 им. А. С. Неверова,"Российская Федерация, город Москва, внутригородская территория муниципальный округ Вешняки, улица Молдагуловой, дом 3Б",58,55.7235232245166,37.8216870781034,b90@cbs-vao.ru,Государственное бюджетное учреждение культуры города Москвы «Объединение культурных центров Восточного административного округа»,+7 (499) 374-94-50,cbs-vao.ru,Вешняки,ВАО
Детская библиотека №31,"город Москва, Балтийская улица, дом 4",53,55.805255464073,37.525671800249,bib31@culture.mos.ru,Государственное бюджетное учреждение культуры города Москвы «Объединение культурных центров Северного административного округа»,+7 (499) 152-48-81,cbssao.ru,Аэропорт,САО
Детская библиотека №57,"Российская Федерация, город Москва, внутригородская территория муниципальный округ Лианозово, Алтуфьевское шоссе, дом 91",58,55.902818025994,37.585232678728,biblio57@bibliosvao.ru,Государственное бюджетное учреждение культуры города Москвы «Объединение культурных центров Северо-Восточного административного округа»,+7 (499) 209-58-01,bibliosvao.ru,Лианозово,СВАО
Библиотека №146,"Российская Федерация, город Москва, внутригородская территория муниципальный округ Орехово-Борисово Северное, улица Генерала Белова, дом 29, корпус 3",58,55.6150099796717,37.7227530566177,146libzav@cbsuao.ru,Государственное бюджетное учреждение культуры города Москвы «Объединение культурных центров Южного административного округа»,+7 (495) 682-42-22,bibliouao.ru,Орехово-Борисово Северное,ЮАО
Библиотека №42 имени А.П. Платонова,"город Москва, улица Усиевича, дом 16",58,55.806720999745,37.524270303353,bib42@culture.mos.ru,Государственное бюджетное учреждение культуры города Москвы «Объединение культурных центров Северного административного округа»,+7 (499) 151-76-31,cbssao.ru,Аэропорт,САО
Библиотека №96,"Российская Федерация, город Москва, внутригородская территория муниципальный округ Новогиреево, Свободный проспект, дом 24",58,55.7498489846416,37.8157298080623,administrator@cbs-vao.ru,Государственное бюджетное учреждение культуры города Москвы «Объединение культурных центров Восточного административного округа»,+7 (495) 302-22-22,cbs-vao.ru,Новогиреево,ВАО
Библиотека №179,"Российская Федерация, город Москва, внутригородская территория муниципальный округ Ломоносовский, улица Марии Ульяновой, дом 3, корпус 3",58,55.678039098829,37.525412610175,lib177@cbs-uz.ru,Государственное бюджетное учреждение культуры города Москвы «Объединение культурных центров Юго-Западного административного округа»,+7 (499) 138-36-19,cbsuzao.ru,Ломоносовский,ЮЗАО
Библиотека №122 имени А. Грина,"Российская Федерация, город Москва, внутригородская территория муниципальный округ Лефортово, Волочаевская улица, дом 14А",0,55.7558878292243,37.6792134678162,122@okcuvao.ru,Государственное бюджетное учреждение культуры города Москвы «Объединение культурных центров Юго-Восточного административного округа»,+7 (499) 267-90-42,cbsuvao.ru,Лефортово,ЮВАО
Библиотека №213 имени Леси Украинки,"Российская Федерация, город Москва, внутригородская территория муниципальный округ Филевский Парк, Филёвский бульвар, дом 7, корпус 1",58,55.7476216975178,37.497247075662,213@bibliozao.ru,Государственное бюджетное учреждение культуры города Москвы «Объединение культурных центров Западного административного округа»,+7 (499) 148-44-47,bibliozao.ru,Филёвский Парк,ЗАО
Библиотека №7 Культурный центр имени А. де Сент-Экзюпери,"Российская Федерация, город Москва, внутригородская территория муниципальный округ Красносельский, 2-й Красносельский переулок, дом 2",70,55.7821425609076,37.664555079626,kovalchuk_om@okccao.ru,Государственное бюджетное учреждение культуры города Москвы «Объединение культурных центров Центрального административного округа»,+7 (499) 264-99-13,okccao.ru,Красносельский,ЦАО
Детская библиотека №203,"Российская Федерация, город Москва, внутригородская территория муниципальный округ Филевский Парк, Кастанаевская улица, дом 7",53,55.7385899111744,37.4959542509168,203@okczao.ru,Государственное бюджетное учреждение культуры города Москвы «Объединение культурных центров Западного административного округа»,+7 (499) 142-45-04,bibliozao.ru,Филёвский Парк,ЗАО
Центральная детская библиотека №104,"Российская Федерация, город Москва, внутригородская территория муниципальный округ Рязанский, 1-я Новокузьминская улица, дом 16, корпус 2",65,55.7136397281345,37.7900745626539,104@okcuvao.ru,Государственное бюджетное учреждение культуры города Москвы «Объединение культурных центров Юго-Восточного административного округа»,+7 (495) 371-19-22,cbsuvao.ru,Рязанский,ЮВАО
Библиотека №87,"Российская Федерация, город Москва, внутригородская территория муниципальный округ Соколиная Гора, 5-я улица Соколиной Горы, дом 19, корпус 2",58,55.773030376605,37.7361554978415,b87@cbs-vao.ru,Государственное бюджетное учреждение культуры города Москвы «Объединение культурных центров Восточного административного округа»,+7 (495) 365-04-98,cbs-vao.ru,Соколиная Гора,ВАО
Библиотека №167,"Российская Федерация, город Москва, внутригородская территория муниципальный округ Москворечье-Сабурово, Каширское шоссе, дом 53, корпус 6",58,55.639852715642,37.694276657777,167libzav@cbsuao.ru,Государственное бюджетное учреждение культуры города Москвы «Объединение культурных центров Южного административного округа»,+7 (495) 682-42-22,bibliouao.ru,Москворечье-Сабурово,ЮАО
Библиотека №41,"город Москва, улица Куусинена, дом 6, корпус 6",48,55.7759255701977,37.5314800255001,bib41@culture.mos.ru,Государственное бюджетное учреждение культуры города Москвы «Объединение культурных центров Северного административного округа»,+7 (495) 943-21-73,cbssao.ru,Хорошёвский,САО
Библиотека №191,"Российская Федерация, город Москва, внутригородская территория муниципальный округ Черемушки, улица Обручева, дом 51",58,55.6513412941491,37.5594582315534,info@cbsuzao.ru,Государственное бюджетное учреждение культуры города Москвы «Объединение культурных центров Юго-Западного административного округа»,+7 (495) 331-59-33,cbsuzao.ru,Черёмушки,ЮЗАО
Детская библиотека №22 имени Льва Кассиля,"город Москва, Ленинградское шоссе, дом 114",58,55.866139537636,37.46391211273,bib22@culture.mos.ru,Государственное бюджетное учреждение культуры города Москвы «Объединение культурных центров Северного административного округа»,+7 (499) 457-43-71,cbssao.ru,Левобережный,САО
Детская библиотека №126,"Российская Федерация, город Москва, внутригородская территория муниципальный округ Лефортово, Красноказарменная улица, дом 10",53,55.7572270041218,37.6984970451423,118_120_125_126@okcuvao.ru,Государственное бюджетное учреждение культуры города Москвы «Объединение культурных центров Юго-Восточного административного округа»,+7 (495) 361-16-87,cbsuvao.ru,Лефортово,ЮВАО
Библиотека №39 «Познание»,"город Москва, Дмитровское шоссе, дом 25, корпус 1",58,55.824340472259,37.571274589312,bib39@culture.mos.ru,Государственное бюджетное учреждение культуры города Москвы «Объединение культурных центров Северного административного округа»,+7 (499) 976-77-72,cbssao.ru,Тимирязевский,САО
Библиотека №173,"Российская Федерация, город Москва, внутригородская территория муниципальный округ Теплый Стан, улица Тёплый Стан, дом 4",58,55.6276285981603,37.4891950841993,info@cbsuzao.ru,Государственное бюджетное учреждение культуры города Москвы «Объединение культурных центров Юго-Западного административного округа»,+7 (495) 339-59-11,cbsuzao.ru,Тёплый Стан,ЮЗАО
Детская библиотека №114,"Российская Федерация, город Москва, внутригородская территория муниципальный округ Текстильщики, Саратовская улица, дом 18/10",53,55.7153458889519,37.7423897456409,112_113_114@okcuvao.ru,Государственное бюджетное учреждение культуры города Москвы «Объединение культурных центров Юго-Восточного административного округа»,+7 (499) 177-47-92,cbsuvao.ru,Текстильщики,ЮВАО
Детская библиотека №228,"Российская Федерация, город Москва, внутригородская территория муниципальный округ Северное Тушино, Планерная улица, дом 7, корпус 1",40,55.8623251517852,37.4338181968778,228@cbsszao.ru,Государственное бюджетное учреждение культуры города Москвы «Объединение культурных центров Северо-Западного административного округа»,+7 (495) 494-23-01,cbsszao.ru,Северное Тушино,СЗАО
Библиотека №159,"Российская Федерация, город Москва, внутригородская территория муниципальный округ Нагатино-Садовники, Нагатинская улица, дом 11, корпус 1",58,55.680042730011,37.639152219143,159libzav@cbsuao.ru,Государственное бюджетное учреждение культуры города Москвы «Объединение культурных центров Южного административного округа»,+7 (495) 682-42-22,bibliouao.ru,Нагатино-Садовники,ЮАО
Библиотека №98,"Российская Федерация, город Москва, внутригородская территория муниципальный округ Новогиреево, Зелёный проспект, дом 87, корпус 1",58,55.7512748854687,37.8237148281187,b98@cbs-vao.ru,Государственное бюджетное учреждение культуры города Москвы «Объединение культурных центров Восточного административного округа»,+7 (495) 302-72-92,cbs-vao.ru,Новогиреево,ВАО
Центральная библиотека №136 имени Л. Н. Толстого,"Российская Федерация, город Москва, внутригородская территория муниципальный округ Нагатино-Садовники, Каширское шоссе, дом 16",70,55.674097792939,37.661641409776,136libzav@cbsuao.ru,Государственное бюджетное учреждение культуры города Москвы «Объединение культурных центров Южного административного округа»,+7 (495) 682-42-22,bibliouao.ru,Нагатино-Садовники,ЮАО
Детская библиотека №231 им Н. Островского,"Российская Федерация, город Москва, внутригородская территория муниципальный округ Южное Тушино, улица Свободы, дом 45, строение 1",53,55.8466045578576,37.4532052036375,231@cbsszao.ru,Государственное бюджетное учреждение культуры города Москвы «Объединение культурных центров Северо-Западного административного округа»,+7 (499) 492-66-11,cbsszao.ru,Южное Тушино,СЗАО
Библиотека №232,"город Москва, 2-й Тушинский проезд, дом 8",58,55.835206868519,37.419455337841,232@cbsszao.ru,Государственное бюджетное учреждение культуры города Москвы «Объединение культурных центров Северо-Западного административного округа»,+7 (495) 491-09-69,cbsszao.ru,Покровское-Стрешнево,СЗАО
Библиотека №241,"город Москва, улица Маршала Тухачевского, дом 28, корпус 1",40,55.784459603546,37.47432261687,241@cbsszao.ru,Государственное бюджетное учреждение культуры города Москвы «Объединение культурных центров Северо-Западного административного округа»,+7 (499) 194-67-21,cbsszao.ru,Хорошёво-Мнёвники,СЗАО
Библиотека №247,"город Москва, Пятницкое шоссе, дом 16, корпус 1",48,55.843426754909,37.386651688322,247@cbsszao.ru,Государственное бюджетное учреждение культуры города Москвы «Объединение культурных центров Северо-Западного административного округа»,+7 (495) 794-19-19,cbsszao.ru,Митино,СЗАО
Библиотека №193,"город Москва, улица Грина, дом 11",66,55.567775936856,37.567173778933,library-193@cbsuzao.ru,Государственное бюджетное учреждение культуры города Москвы «Объединение культурных центров Юго-Западного административного округа»,+7 (495) 711-62-33,cbsuzao.ru,Северное Бутово,ЮЗАО
Библиотека №245,"город Москва, улица Берзарина, дом 6, корпус 1",58,55.788300029464,37.492948896009,245@cbsczao.ru,Государственное бюджетное учреждение культуры города Москвы «Объединение культурных центров Северо-Западного административного округа»,+7 (499) 943-62-45,cbsszao.ru,Щукино,СЗАО
Библиотека №65 имени М.М.Пришвина,"Российская Федерация, город Москва, внутригородская территория муниципальный округ Северный, 6-я Северная линия, дом 1",58,55.9376635034828,37.552357125096,biblio65@bibliosvao.ru,Государственное бюджетное учреждение культуры города Москвы «Объединение культурных центров Северо-Восточного административного округа»,+7 (499) 767-85-63,bibliosvao.ru,Северный,СВАО
Библиотека №84,"Российская Федерация, город Москва, внутригородская территория муниципальный округ Соколиная Гора, Щербаковская улица, дом 54",58,55.7817996866826,37.7389359578587,b84@cbs-vao.ru,Государственное бюджетное учреждение культуры города Москвы «Объединение культурных центров Восточного административного округа»,+7 (499) 166-79-43,cbs-vao.ru,Соколиная Гора,ВАО
Детская библиотека №219,"Российская Федерация, город Москва, внутригородская территория муниципальный округ Очаково-Матвеевское, Озёрная улица, дом 13",0,55.6800630692373,37.4586871240581,219@bibliozao.ru,Государственное бюджетное учреждение культуры города Москвы «Объединение культурных центров Западного административного округа»,+7 (495) 430-65-67,bibliozao.ru,Очаково-Матвеевское,ЗАО
Библиотека №210 - Культурный центр А. Т. Твардовского,"Российская Федерация, город Москва, внутригородская территория муниципальный округ Фили-Давыдково, Аминьевское шоссе, дом 24",58,55.7160608871836,37.4529585852872,210@bibliozao.ru,Государственное бюджетное учреждение культуры города Москвы «Объединение культурных центров Западного административного округа»,+7 (499) 445-05-11,bibliozao.ru,Фили-Давыдково,ЗАО
Библиотека №5 имени М. А. Волошина,"Российская Федерация, город Москва, внутригородская территория муниципальный округ Хамовники, Новодевичий проезд, дом 10",82,55.7299940336903,37.5573070999235,info@centr-voloshina.com,Государственное бюджетное учреждение культуры города Москвы «Объединение культурных центров Центрального административного округа»,+7 (499) 255-71-14,okccao.ru,Хамовники,ЦАО
Библиотека № 28,"город Москва, улица Алабяна, дом 12, корпус 4",58,55.8000559322578,37.5017461987327,bib28@culture.mos.ru,Государственное бюджетное учреждение культуры города Москвы «Объединение культурных центров Северного административного округа»,+7 (499) 198-67-81,cbssao.ru,Сокол,САО
Библиотека №120,"Российская Федерация, город Москва, внутригородская территория муниципальный округ Лефортово, Ухтомская улица, дом 21",58,55.7672909766204,37.7158055780455,118_120_125_126@okcuvao.ru,Государственное бюджетное учреждение культуры города Москвы «Объединение культурных центров Юго-Восточного административного округа»,+7 (495) 360-38-41,cbsuvao.ru,Лефортово,ЮВАО
Библиотека №225,"город Москва, улица Мнёвники, дом 10, корпус 1",40,55.7735930275847,37.4927110081963,225@cbsszao.ru,Государственное бюджетное учреждение культуры города Москвы «Объединение культурных центров Северо-Западного административного округа»,+7 (499) 191-70-30,cbsszao.ru,Хорошёво-Мнёвники,СЗАО
Детская библиотека №103,"Российская Федерация, город Москва, внутригородская территория муниципальный округ Соколиная Гора, Ткацкая улица, дом 28/14",53,55.78632510128,37.734233010836,b103@cbs-vao.ru,Государственное бюджетное учреждение культуры города Москвы «Объединение культурных центров Восточного административного округа»,+7 (495) 918-32-59,cbs-vao.ru,Соколиная Гора,ВАО
Библиотека №64,"город Москва, Путевой проезд, дом 38А",58,55.877464375854,37.571990324371,biblio64@bibliosvao.ru,Государственное бюджетное учреждение культуры города Москвы «Объединение культурных центров Северо-Восточного административного округа»,+7 (499) 900-94-57,bibliosvao.ru,Алтуфьевский,СВАО
Библиотека №118,"город Москва, Энергетическая улица, дом 4",58,55.7608311498958,37.7026803301765,118_120_125_126@okcuvao.ru,Государственное бюджетное учреждение культуры города Москвы «Объединение культурных центров Юго-Восточного административного округа»,+7 (495) 361-06-55,cbsuvao.ru,Лефортово,ЮВАО
Библиотека №237,"город Москва, улица Генерала Белобородова, дом 30",58,55.829447731711,37.353305018336,237@cbsszao.ru,Государственное бюджетное учреждение культуры города Москвы «Объединение культурных центров Северо-Западного административного округа»,+7 (495) 794-78-02,cbsszao.ru,Митино,СЗАО
Библиотека №100,"Российская Федерация, город Москва, внутригородская территория муниципальный округ Ивановское, Саянская улица, дом 7А",0,55.768123537995,37.831927430282,b100@cbs-vao.ru,Государственное бюджетное учреждение культуры города Москвы «Объединение культурных центров Восточного административного округа»,+7 (495) 307-85-12,cbs-vao.ru,Ивановское,ВАО
Детская библиотека №133,"Российская Федерация, город Москва, внутригородская территория муниципальный округ Марьино, Братиславская улица, дом 19, корпус 1",53,55.6578391908347,37.7614178415388,131_133@okcuvao.ru,Государственное бюджетное учреждение культуры города Москвы «Объединение культурных центров Юго-Восточного административного округа»,+7 (495) 347-98-70,cbsuvao.ru,Марьино,ЮВАО
Библиотека №186 им. С. Есенина,"Российская Федерация, город Москва, внутригородская территория муниципальный округ Академический, улица Кржижановского, дом 15, корпус 5",58,55.680421600611,37.5726804778796,library-186@cbsuzao.ru,Государственное бюджетное учреждение культуры города Москвы «Объединение культурных центров Юго-Западного административного округа»,+7 (499) 125-35-28,cbsuzao.ru,Академический,ЮЗАО
Библиотека №184,"Российская Федерация, город Москва, внутригородская территория муниципальный округ Теплый Стан, улица Академика Варги, дом 38",58,55.6330151805512,37.4797133915126,library-184@cbsuzao.ru,Государственное бюджетное учреждение культуры города Москвы «Объединение культурных центров Юго-Западного административного округа»,+7 (495) 339-86-77,cbsuzao.ru,Тёплый Стан,ЮЗАО
Библиотека-читальня имени И.С. Тургенева,"Российская Федерация, город Москва, внутригородская территория муниципальный округ Красносельский, Бобров переулок, дом 6, строение 1",60,55.7648019937519,37.6340720993093,biblioteka@turgenev.ru,Государственное бюджетное учреждение культуры города Москвы «Библиотека - читальня им. И.С. Тургенева»,+7 (495) 625-48-89,turgenev.ru,Красносельский,ЦАО
Библиотека №32,"Российская Федерация, город Москва, внутригородская территория муниципальный округ Аэропорт, улица 8 Марта, дом 15",53,55.7976139273204,37.5458044884726,bib32@culture.mos.ru,Государственное бюджетное учреждение культуры города Москвы «Объединение культурных центров Северного административного округа»,+7 (495) 612-43-20,cbssao.ru,Аэропорт,САО
Библиотека №44 им. В.Г. Короленко,"Российская Федерация, город Москва, внутригородская территория муниципальный округ Головинский, Онежская улица, дом 17, корпус 4",58,55.846092209371,37.498380705657,bib44@culture.mos.ru,Государственное бюджетное учреждение культуры города Москвы «Объединение культурных центров Северного административного округа»,+7 (495) 453-81-05,cbssao.ru,Головинский,САО
Библиотека №53,"Российская Федерация, город Москва, внутригородская территория муниципальный округ Свиблово, улица Седова, дом 3",58,55.8586372095976,37.6351179834455,biblio53@bibliosvao.ru,Государственное бюджетное учреждение культуры города Москвы «Объединение культурных центров Северо-Восточного административного округа»,+7 (499) 180-05-85,bibliosvao.ru,Свиблово,СВАО
Библиотека №214 имени Ю. А. Гагарина,"город Москва, улица Академика Анохина, дом 30, корпус 3",68,55.661155494333,37.4672384229,214@bibliozao.ru,Государственное бюджетное учреждение культуры города Москвы «Объединение культурных центров Западного административного округа»,+7 (495) 430-56-91,bibliozao.ru,Тропарёво-Никулино,ЗАО
Библиотека №202,"Российская Федерация, город Москва, внутригородская территория муниципальный округ Фили-Давыдково, Кастанаевская улица, дом 52, строение 2",58,55.7343284530686,37.4696149583906,202@bibliozao.ru,Государственное бюджетное учреждение культуры города Москвы «Объединение культурных центров Западного административного округа»,+7 (499) 144-05-03,bibliozao.ru,Фили-Давыдково,ЗАО
Библиотека №4 имени Е. А. Фурцевой,"Российская Федерация, город Москва, внутригородская территория муниципальный округ Хамовники, Фрунзенская набережная, дом 50",70,55.718285676255,37.576119870302,l04@okccao.ru,Государственное бюджетное учреждение культуры города Москвы «Объединение культурных центров Центрального административного округа»,+7 (499) 242-79-42,okccao.ru,Хамовники,ЦАО
Библиотека №94,"Российская Федерация, город Москва, внутригородская территория муниципальный округ Перово, улица Аносова, дом 3, корпус 2",58,55.7431599100333,37.7549872492969,administrator@cbs-vao.ru,Государственное бюджетное учреждение культуры города Москвы «Объединение культурных центров Восточного административного округа»,+7 (495) 309-15-67,cbs-vao.ru,Перово,ВАО
Центральная детская библиотека №66,"Российская Федерация, город Москва, внутригородская территория муниципальный округ Северное Медведково, Северодвинская улица, дом 11, корпус 2",65,55.8901379580242,37.6781419990584,biblio66@bibliosvao.ru,Государственное бюджетное учреждение культуры города Москвы «Объединение культурных центров Северо-Восточного административного округа»,+7 (495) 474-10-96,bibliosvao.ru,Северное Медведково,СВАО
Центральная детская библиотека №78 им. И. А. Крылова,"Российская Федерация, город Москва, внутригородская территория муниципальный округ Сокольники, улица Сокольническая Слободка, дом 14/18",0,55.788923376009,37.675910996799,administrator@cbs-vao.ru,Государственное бюджетное учреждение культуры города Москвы «Объединение культурных центров Восточного административного округа»,+7 (499) 269-12-10,cbs-vao.ru,Сокольники,ВАО
Библиотека №138,"Российская Федерация, город Москва, внутригородская территория муниципальный округ Бирюлево Восточное, Касимовская улица, дом 21",53,55.5955427632319,37.6572944875806,ekarimova.inbox@ru,Государственное бюджетное учреждение культуры города Москвы «Объединение культурных центров Южного административного округа»,+7 (495) 682-42-22,bibliouao.ru,Бирюлёво Восточное,ЮАО
Библиотека №182,"Российская Федерация, город Москва, внутригородская территория муниципальный округ Котловка, улица Дмитрия Ульянова, дом 43, корпус 1",58,55.690361755419,37.585945947818,library-182f2@cbsuzao.ru,Государственное бюджетное учреждение культуры города Москвы «Объединение культурных центров Юго-Западного административного округа»,+7 (499) 129-56-11,cbsuzao.ru,Котловка,ЮЗАО
Библиотека №201,"Российская Федерация, город Москва, внутригородская территория муниципальный округ Кунцево, Обводное шоссе, дом 6",58,55.7843060970605,37.357102392873,201@bibliozao.ru,Государственное бюджетное учреждение культуры города Москвы «Объединение культурных центров Западного административного округа»,+7 (499) 727-35-04,bibliozao.ru,Кунцево,ЗАО
Библиотека №101,"город Москва, Лухмановская улица, дом 17, корпус 1",58,55.722939511868,37.895479207917,administrator@cbs-vao.ru,Государственное бюджетное учреждение культуры города Москвы «Объединение культурных центров Восточного административного округа»,+7 (499) 797-76-51,cbs-vao.ru,Косино-Ухтомский,ВАО
Нотно-музыкальная библиотека №17 имени П. И. Юргенсона,"Российская Федерация, город Москва, внутригородская территория муниципальный округ Таганский, Николоямский переулок, дом 3А, корпус 4",70,55.749532870744,37.6614733692259,mikhina_ns@okccao.ru,Государственное бюджетное учреждение культуры города Москвы «Объединение культурных центров Центрального административного округа»,+7 (495) 911-22-89,okccao.ru,Таганский,ЦАО
Библиотека №135,"Российская Федерация, город Москва, внутригородская территория муниципальный округ Марьино, Донецкая улица, дом 33",58,55.6476808816853,37.7152542583644,135@okcuvao.ru,Государственное бюджетное учреждение культуры города Москвы «Объединение культурных центров Юго-Восточного административного округа»,+7 (499) 356-90-03,cbsuvao.ru,Марьино,ЮВАО
Детская библиотека №112,"Российская Федерация, город Москва, внутригородская территория муниципальный округ Кузьминки, Жигулёвская улица, дом 6, корпус 2",53,55.711444568878,37.759501447745,112_113_114@okcuvao.ru,Государственное бюджетное учреждение культуры города Москвы «Объединение культурных центров Юго-Восточного административного округа»,+7 (499) 722-65-12,cbsuvao.ru,Кузьминки,ЮВАО
Библиотека №160,"Российская Федерация, город Москва, внутригородская территория муниципальный округ Бирюлево Западное, Медынская улица, дом 11, строение 2",40,55.581676579406,37.649770496205,160libzav@cbsuao.ru,Государственное бюджетное учреждение культуры города Москвы «Объединение культурных центров Южного административного округа»,+7 (495) 682-42-22,bibliouao.ru,Бирюлёво Западное,ЮАО
Библиотека №188,"город Москва, улица Обручева, дом 24",58,55.657441388607,37.518510256538,library-188@cbsuzao.ru,Государственное бюджетное учреждение культуры города Москвы «Объединение культурных центров Юго-Западного административного округа»,+7 (495) 735-01-27,cbsuzao.ru,Обручевский,ЮЗАО
Центральная Городская Деловая Библиотека,"Российская Федерация, город Москва, внутригородская территория муниципальный округ Алексеевский, улица Бориса Галушкина, дом 19, корпус 1",68,55.82251575998,37.661488527518,mgdb@culture.mos.ru,Государственное бюджетное учреждение культуры города Москвы «Центральная Городская Деловая Библиотека»,+7 (495) 683-56-46,mgdb.ru,Алексеевский,СВАО
Библиотека №59,"город Москва, Ярославское шоссе, дом 117",58,55.852262138001,37.682105049708,biblio59@bibliosvao.ru,Государственное бюджетное учреждение культуры города Москвы «Объединение культурных центров Северо-Восточного административного округа»,+7 (499) 183-98-65,bibliosvao.ru,Ярославский,СВАО
Библиотека №105,"Российская Федерация, город Москва, внутригородская территория муниципальный округ Люблино, Кубанская улица, дом 16/2",58,55.6838174191403,37.7442557690665,105_130@okcuvao.ru,Государственное бюджетное учреждение культуры города Москвы «Объединение культурных центров Юго-Восточного административного округа»,+7 (495) 350-25-66,cbsuvao.ru,Люблино,ЮВАО
Библиотека №113,"Российская Федерация, город Москва, внутригородская территория муниципальный округ Текстильщики, Саратовская улица, дом 1, корпус 2",0,55.7139353476093,37.7312167433639,112_113_114@okcuvao.ru,Государственное бюджетное учреждение культуры города Москвы «Объединение культурных центров Юго-Восточного административного округа»,+7 (499) 177-57-65,cbsuvao.ru,Текстильщики,ЮВАО
Библиотека №85,"Российская Федерация, город Москва, внутригородская территория муниципальный округ Измайлово, 3-я Парковая улица, дом 35",58,55.79591234873,37.783079612792,administrator@cbs-vao.ru,Государственное бюджетное учреждение культуры города Москвы «Объединение культурных центров Восточного административного округа»,+7 (499) 163-31-91,cbs-vao.ru,Измайлово,ВАО
Библиотека №52,"Российская Федерация, город Москва, внутригородская территория муниципальный округ Бибирево, улица Конёнкова, дом 23",70,55.8946246925901,37.6108090393245,biblio52@bibliosvao.ru,Государственное бюджетное учреждение культуры города Москвы «Объединение культурных центров Северо-Восточного административного округа»,+7 (499) 207-94-73,bibliosvao.ru,Бибирево,СВАО
Библиотека №163,"Российская Федерация, город Москва, внутригородская территория муниципальный округ Даниловский, Даниловская набережная, дом 2, корпус 2",70,55.7184749722263,37.6294733164832,163libzav@cbsuao.ru,Государственное бюджетное учреждение культуры города Москвы «Объединение культурных центров Южного административного округа»,+7 (495) 682-42-22,bibliouao.ru,Даниловский,ЮАО
Библиотека №171,"город Москва, улица Паустовского, дом 3",58,55.604466149807,37.530292920446,info@cbsuzao.ru,Государственное бюджетное учреждение культуры города Москвы «Объединение культурных центров Юго-Западного административного округа»,+7 (495) 422-34-44,cbsuzao.ru,Ясенево,ЮЗАО
Библиотека №218,"Российская Федерация, город Москва, внутригородская территория муниципальный округ Очаково-Матвеевское, Нежинская улица, дом 13",58,55.706495991423,37.4711713440605,218@bibliozao.ru,Государственное бюджетное учреждение культуры города Москвы «Объединение культурных центров Западного административного округа»,+7 (495) 441-35-13,bibliozao.ru,Очаково-Матвеевское,ЗАО
Библиотека №209 им. А. Н. Толстого,"Российская Федерация, город Москва, внутригородская территория муниципальный округ Дорогомилово, Кутузовский проспект, дом 24",70,55.74408656551,37.544322020152,209@bibliozao.ru,Государственное бюджетное учреждение культуры города Москвы «Объединение культурных центров Западного административного округа»,+7 (499) 243-20-40,bibliozao.ru,Дорогомилово,ЗАО
Библиотека №216,"Российская Федерация, город Москва, внутригородская территория муниципальный округ Раменки, улица Лобачевского, дом 100",40,55.6848110350142,37.4818377010524,216@bibliozao.ru,Государственное бюджетное учреждение культуры города Москвы «Объединение культурных центров Западного административного округа»,+7 (495) 931-52-00,bibliozao.ru,Раменки,ЗАО
Центральная библиотека №224 имени Ф.В. Гладкова,"Российская Федерация, город Москва, внутригородская территория муниципальный округ Южное Тушино, бульвар Яна Райниса, дом 1",58,55.7910241968175,37.4842329975218,224@cbsszao.ru,Государственное бюджетное учреждение культуры города Москвы «Объединение культурных центров Северо-Западного административного округа»,+7 (499) 191-19-90,cbsszao.ru,Южное Тушино,СЗАО
Библиотека №233,"Российская Федерация, город Москва, внутригородская территория муниципальный округ Митино, 3-й Митинский переулок, дом 2",48,55.8486003300563,37.3531238548458,233@cbsszao.ru,Государственное бюджетное учреждение культуры города Москвы «Объединение культурных центров Северо-Западного административного округа»,+7 (495) 794-01-54,cbsszao.ru,Митино,СЗАО
Библиотека №19 имени Ф. М. Достоевского,"Российская Федерация, город Москва, внутригородская территория муниципальный округ Басманный, улица Покровка, дом 21-23/25, строение 3",70,55.7601261024462,37.6469800947234,kuvarzina_yy@okccao.ru,Государственное бюджетное учреждение культуры города Москвы «Объединение культурных центров Центрального административного округа»,+7 (495) 917-33-61,okccao.ru,Басманный,ЦАО
Библиотека №3 имени Н. А. Добролюбова,"Российская Федерация, город Москва, внутригородская территория муниципальный округ Арбат, Смоленская площадь, дом 13/21",70,55.752889919014,37.582523069365,vyatkina_vk@okccao.ru,Государственное бюджетное учреждение культуры города Москвы «Объединение культурных центров Центрального административного округа»,+7 (499) 241-34-21,okccao.ru,Арбат,ЦАО
Центральная городская молодежная библиотека имени М. А. Светлова,"Российская Федерация, город Москва, внутригородская территория муниципальный округ Пресненский, Садовая-Кудринская улица, дом 23, строение 1",65,55.7656337307988,37.5896008964628,svetlovka@inbox.ru,Государственное бюджетное учреждение культуры города Москвы «Центральная городская молодежная библиотека им. М.А. Светлова»,+7 (495) 650-49-83,svetlovka.ru,Пресненский,ЦАО
Библиотека имени Н. А. Некрасова,"Российская Федерация, город Москва, внутригородская территория муниципальный округ Басманный, Бауманская улица, дом 58/25, строение 14",82,55.7671426570388,37.6786341425031,biblioteka@nekrasovka.ru,Государственное бюджетное учреждение культуры города Москвы «Центральная универсальная научная библиотека имени Н.А. Некрасова»,+7 (495) 916-90-68,nekrasovka.ru,Басманный,ЦАО
Центральная городская детская библиотека имени А. П. Гайдара,"Российская Федерация, город Москва, внутригородская территория муниципальный округ Хамовники, 3-я Фрунзенская улица, дом 9",65,55.7435756190904,37.5809159036726,lib@gaidarovka.ru,Государственное бюджетное учреждение культуры города Москвы «Центральная городская детская библиотека имени А.П. Гайдара»,+7 (499) 253-82-96,gaidarovka.ru,Хамовники,ЦАО
Библиотека №10,"Российская Федерация, город Москва, внутригородская территория муниципальный округ Пресненский, Стрельбищенский переулок, дом 5, строение 3",65,55.758468693561,37.537080645561,klemina_av@okccao.ru,Государственное бюджетное учреждение культуры города Москвы «Объединение культурных центров Центрального административного округа»,+7 (499) 256-71-65,okccao.ru,Пресненский,ЦАО
Библиотека №18 имени В. А. Жуковского,"Российская Федерация, город Москва, внутригородская территория муниципальный округ Басманный, Дурасовский переулок, дом 9",70,55.7549087227048,37.6512674801052,motorygina_ev@okccao.ru,Государственное бюджетное учреждение культуры города Москвы «Объединение культурных центров Центрального административного округа»,+7 (495) 916-35-11,okccao.ru,Басманный,ЦАО
Библиотека №37,"Российская Федерация, город Москва, внутригородская территория муниципальный округ Восточное Дегунино, Дубнинская улица, дом 16, корпус 1",58,55.869281050931,37.562524098297,bib37@culture.mos.ru,Государственное бюджетное учреждение культуры города Москвы «Объединение культурных центров Северного административного округа»,+7 (499) 481-62-10,cbssao.ru,Восточное Дегунино,САО
Библиотека №50,"Российская Федерация, город Москва, внутригородская территория муниципальный округ Марьина Роща, Октябрьская улица, дом 103, корпус 1",58,55.795750098808,37.615334253511,biblio50@bibliosvao.ru,Государственное бюджетное учреждение культуры города Москвы «Объединение культурных центров Северо-Восточного административного округа»,+7 (495) 123-65-72,bibliosvao.ru,Марьина Роща,СВАО
Библиотека №148 имени Ф. И. Тютчева,"Российская Федерация, город Москва, внутригородская территория муниципальный округ Нагорный, Балаклавский проспект, дом 12, корпус 3",58,55.6696856135314,37.6080156443641,148libzav@cbsuao.ru,Государственное бюджетное учреждение культуры города Москвы «Объединение культурных центров Южного административного округа»,+7 (495) 682-42-22,bibliouao.ru,Нагорный,ЮАО
Детская библиотека № 236,"город Москва, Большая Набережная улица, дом 15",53,55.830726891121,37.457308922447,236@cbsszao.ru,Государственное бюджетное учреждение культуры города Москвы «Объединение культурных центров Северо-Западного административного округа»,+7 (495) 491-64-92,cbsszao.ru,Покровское-Стрешнево,СЗАО
Библиотека № 143,"город Москва, Кировоградская улица, дом 44, корпус 2",53,55.604557277905,37.585925677253,143libzav@cbsuao.ru,Государственное бюджетное учреждение культуры города Москвы «Объединение культурных центров Южного административного округа»,+7 (495) 682-42-22,bibliouao.ru,Чертаново Южное,ЮАО
Библиотека № 124,"Российская Федерация, город Москва, внутригородская территория муниципальный округ Южнопортовый, улица Сайкина, дом 9/1",70,55.707396076391,37.668619999631,121_124@okcuvao.ru,Государственное бюджетное учреждение культуры города Москвы «Объединение культурных центров Юго-Восточного административного округа»,+7 (499) 764-14-42,cbsuvao.ru,Южнопортовый,ЮВАО
Библиотека № 108,"город Москва, Привольная улица, дом 21",58,55.698085304065,37.844226857851,108@okcuvao.ru,Государственное бюджетное учреждение культуры города Москвы «Объединение культурных центров Юго-Восточного административного округа»,+7 (499) 705-73-99,cbsuvao.ru,Выхино-Жулебино,ЮВАО
Библиотека № 92 культурный центр К.И. Чуковского,"город Москва, 1-я Владимирская улица, дом 15, корпус 3",53,55.75826047001,37.776666103338,b92@cbs-vao.ru,Государственное бюджетное учреждение культуры города Москвы «Объединение культурных центров Восточного административного округа»,+7 (495) 306-25-96,cbs-vao.ru,Перово,ВАО
Библиотека №221 имени Р. И. Рождественского,"Российская Федерация, город Москва, внутригородская территория муниципальный округ Солнцево, улица Авиаторов, дом 7",58,55.6490127542836,37.4105982296169,221@bibliozao.ru,Государственное бюджетное учреждение культуры города Москвы «Объединение культурных центров Западного административного округа»,+7 (495) 435-44-51,bibliozao.ru,Солнцево,ЗАО
Центральная библиотека №190,"город Москва, Профсоюзная улица, дом 115, корпус 1",58,55.6387237606343,37.5381936784834,library-190@cbsuzao.ru,Государственное бюджетное учреждение культуры города Москвы «Объединение культурных центров Юго-Западного административного округа»,+7 (495) 420-12-21,cbsuzao.ru,Коньково,ЮЗАО
Библиотека №194,"город Москва, Изюмская улица, дом 57",58,55.544234840196,37.562302162635,library-194@cbsuzao.ru,Государственное бюджетное учреждение культуры города Москвы «Объединение культурных центров Юго-Западного административного округа»,+7 (495) 717-55-72,cbsuzao.ru,Южное Бутово,ЮЗАО
Библиотека № 185,"Российская Федерация, город Москва, внутригородская территория муниципальный округ Котловка, Нагорный бульвар, дом 3",58,55.674989714064,37.592723567608,lib166@cbs-uz.ru,Государственное бюджетное учреждение культуры города Москвы «Объединение культурных центров Юго-Западного административного округа»,+7 (499) 127-57-07,cbsuzao.ru,Котловка,ЮЗАО
Библиотека №183 им Данте Алигьери,"Российская Федерация, город Москва, внутригородская территория муниципальный округ Гагаринский, улица Строителей, дом 8, корпус 2",58,55.6898852529404,37.5352771952748,library-183@cbsuzao.ru,Государственное бюджетное учреждение культуры города Москвы «Объединение культурных центров Юго-Западного административного округа»,+7 (495) 938-27-41,cbsuzao.ru,Гагаринский,ЮЗАО
Библиотека №119,"Российская Федерация, город Москва, внутригородская территория муниципальный округ Лефортово, шоссе Энтузиастов, дом 20",53,55.7508403562775,37.7148597360346,119@okcuvao.ru,Государственное бюджетное учреждение культуры города Москвы «Объединение культурных центров Юго-Восточного административного округа»,+7 (495) 362-28-42,cbsuvao.ru,Лефортово,ЮВАО
Библиотека №81,"Российская Федерация, город Москва, внутригородская территория муниципальный округ Северное Измайлово, Сиреневый бульвар, дом 73, корпус 1",58,55.803671017451,37.8280009981245,b81@cbs-vao.ru,Государственное бюджетное учреждение культуры города Москвы «Объединение культурных центров Восточного административного округа»,+7 (499) 461-43-41,cbs-vao.ru,Северное Измайлово,ВАО
Библиотека №77,"Российская Федерация, город Москва, внутригородская территория муниципальный округ Измайлово, 11-я Парковая улица, дом 19",58,55.794510112143,37.805138934101,b77@cbs-vao.ru,Государственное бюджетное учреждение культуры города Москвы «Объединение культурных центров Восточного административного округа»,+7 (495) 465-46-14,cbs-vao.ru,Измайлово,ВАО
Библиотека №196,"город Москва, Симферопольский бульвар, дом 24, корпус 1",58,55.645830796546,37.603693250839,library-196@cbsuzao.ru,Государственное бюджетное учреждение культуры города Москвы «Объединение культурных центров Юго-Западного административного округа»,+7 (495) 318-23-85,cbsuzao.ru,Зюзино,ЮЗАО
Библиотека №72,"город Москва, Уссурийская улица, дом 9",58,55.8238204913914,37.8194568694201,b72@cbs-vao.ru,Государственное бюджетное учреждение культуры города Москвы «Объединение культурных центров Восточного административного округа»,+7 (495) 467-60-00,cbs-vao.ru,Гольяново,ВАО
Библиотека №49,"Российская Федерация, город Москва, внутригородская территория муниципальный округ Бибирево, Алтуфьевское шоссе, дом 102Б",53,55.890718477456,37.624846098741,biblio49@bibliosvao.ru,Государственное бюджетное учреждение культуры города Москвы «Объединение культурных центров Северо-Восточного административного округа»,+7 (499) 207-37-60,bibliosvao.ru,Бибирево,СВАО
Библиотека №164 «Просвещение трудящихся»,"Российская Федерация, город Москва, внутригородская территория муниципальный округ Донской, улица Шаболовка, дом 36",60,55.717544558123,37.608022138794,164libzav@cbsuao.ru,Государственное бюджетное учреждение культуры города Москвы «Объединение культурных центров Южного административного округа»,+7 (495) 682-42-22,bibliouao.ru,Донской,ЮАО
Детская библиотека №45,"город Москва, Пулковская улица, дом 3, корпус 1",53,55.844057748598,37.480841762109,bib45@culture.mos.ru,Государственное бюджетное учреждение культуры города Москвы «Объединение культурных центров Северного административного округа»,+7 (495) 456-66-35,cbssao.ru,Головинский,САО
Библиотека №223,"город Москва, Новопеределкинская улица, дом 8",58,55.640436135005,37.369331418982,223-2@bibliozao.ru,Государственное бюджетное учреждение культуры города Москвы «Объединение культурных центров Западного административного округа»,+7 (495) 732-59-46,bibliozao.ru,Ново-Переделкино,ЗАО
Библиотека №199 им. Э. Г. Багрицкого,"Российская Федерация, город Москва, внутригородская территория муниципальный округ Можайский, улица Багрицкого, дом 51",58,55.7192178204571,37.4377825018018,199@bibliozao.ru,Государственное бюджетное учреждение культуры города Москвы «Объединение культурных центров Западного административного округа»,+7 (495) 443-67-90,bibliozao.ru,Можайский,ЗАО
Библиотека №212 им. Т. Г. Шевченко,"Российская Федерация, город Москва, внутригородская территория муниципальный округ Дорогомилово, улица Генерала Ермолова, дом 6",58,55.7376325582032,37.5163873191923,212@bibliozao.ru,Государственное бюджетное учреждение культуры города Москвы «Объединение культурных центров Западного административного округа»,+7 (499) 148-56-60,bibliozao.ru,Дорогомилово,ЗАО
Библиотека №60 имени О.Э. Мандельштама,"Российская Федерация, город Москва, внутригородская территория муниципальный округ Останкинский, Звёздный бульвар, дом 4",58,55.8179111114794,37.6354934927076,biblio60@bibliosvao.ru,Государственное бюджетное учреждение культуры города Москвы «Объединение культурных центров Северо-Восточного административного округа»,+7 (495) 682-63-65,bibliosvao.ru,Останкинский,СВАО
Библиотека №55,"Российская Федерация, город Москва, внутригородская территория муниципальный округ Ростокино, Будайский проезд, дом 7, корпус 2",56,55.836474712658,37.666759044383,biblio55@bibliosvao.ru,Государственное бюджетное учреждение культуры города Москвы «Объединение культурных центров Северо-Восточного административного округа»,+7 (499) 187-44-77,bibliosvao.ru,Ростокино,СВАО
Библиотека №58,"город Москва, Анадырский проезд, дом 39, корпус 2",58,55.87018592039,37.691290174085,biblio58@bibliosvao.ru,Государственное бюджетное учреждение культуры города Москвы «Объединение культурных центров Северо-Восточного административного округа»,+7 (495) 470-77-38,bibliosvao.ru,Лосиноостровский,СВАО
Библиотека №62 имени Пабло Неруды,"Российская Федерация, город Москва, внутригородская территория муниципальный округ Ростокино, Сельскохозяйственная улица, дом 13, корпус 2",48,55.8359379822705,37.640259694308,biblio62@bibliosvao.ru,Государственное бюджетное учреждение культуры города Москвы «Объединение культурных центров Северо-Восточного административного округа»,+7 (495) 683-56-54,bibliosvao.ru,Ростокино,СВАО
Библиотека № 172,"Российская Федерация, город Москва, внутригородская территория муниципальный округ Обручевский, улица Новаторов, дом 14, корпус 1",58,55.667656572424,37.523210612002,cbsuzao-info@culture.mos.ru,Государственное бюджетное учреждение культуры города Москвы «Объединение культурных центров Юго-Западного административного округа»,+7 (499) 431-19-30,cbsuzao.ru,Обручевский,ЮЗАО
Центральная библиотека №15 имени В. О. Ключевского,"Российская Федерация, город Москва, внутригородская территория муниципальный округ Таганский, Большой Факельный переулок, дом 3, строение 2",70,55.7426731910767,37.6636822102591,tsyganovsa@okccao.ru,Государственное бюджетное учреждение культуры города Москвы «Объединение культурных центров Центрального административного округа»,+7 (495) 911-84-50,okccao.ru,Таганский,ЦАО
Библиотека №88,"Российская Федерация, город Москва, внутригородская территория муниципальный округ Восточное Измайлово, Сиреневый бульвар, дом 64/31",20,55.8025860621338,37.829533922486,b88@cbs-vao.ru,Государственное бюджетное учреждение культуры города Москвы «Объединение культурных центров Восточного административного округа»,+7 (495) 703-81-01,cbs-vao.ru,Восточное Измайлово,ВАО
Детская библиотека №207 им. В. В. Бианки,"Российская Федерация, город Москва, внутригородская территория муниципальный округ Фили-Давыдково, Большая Филёвская улица, дом 43",53,55.7410925175843,37.4745742790401,207@bibliozao.ru,Государственное бюджетное учреждение культуры города Москвы «Объединение культурных центров Западного административного округа»,+7 (499) 146-52-72,bibliozao.ru,Фили-Давыдково,ЗАО
Библиотека №79 им. Б. Лавренева,"город Москва, Средняя Первомайская улица, дом 38/7",58,55.794731746848,37.812070348998,b79@cbs-vao.ru,Государственное бюджетное учреждение культуры города Москвы «Объединение культурных центров Восточного административного округа»,+7 (495) 465-44-46,cbs-vao.ru,Восточное Измайлово,ВАО
Детская библиотека №99,"Российская Федерация, город Москва, внутригородская территория муниципальный округ Сокольники, улица Короленко, дом 2/23, корпус 4",53,55.7974415995421,37.6878233905882,administrator@cbs-vao.ru,Государственное бюджетное учреждение культуры города Москвы «Объединение культурных центров Восточного административного округа»,+7 (495) 964-09-62,cbs-vao.ru,Сокольники,ВАО
Библиотека №97,"Российская Федерация, город Москва, внутригородская территория муниципальный округ Новокосино, Новокосинская улица, дом 38, корпус 2",58,55.7454830746392,37.8732363693416,b97d@cbs-vao.ru,Государственное бюджетное учреждение культуры города Москвы «Объединение культурных центров Восточного административного округа»,+7 (495) 702-57-70,cbs-vao.ru,Новокосино,ВАО
Библиотека №76 им. М. Ю. Лермонтова,"Российская Федерация, город Москва, внутригородская территория муниципальный округ Сокольники, улица Шумкина, дом 17/16",58,55.7863431685775,37.6876678224653,b76d@cbs-vao.ru,Государственное бюджетное учреждение культуры города Москвы «Объединение культурных центров Восточного административного округа»,+7 (499) 268-68-16,cbs-vao.ru,Сокольники,ВАО
Библиотека №20 имени А. А. Дельвига,"Российская Федерация, город Москва, внутригородская территория муниципальный округ Басманный, улица Госпитальный Вал, дом 5, строение 2",65,55.7680540201986,37.6762308832258,l20@okccao.ru,Государственное бюджетное учреждение культуры города Москвы «Объединение культурных центров Центрального административного округа»,+7 (499) 261-67-66,okccao.ru,Басманный,ЦАО
Библиотека №51,"Российская Федерация, город Москва, внутригородская территория муниципальный округ Бутырский, улица Яблочкова, дом 43",58,55.8286178936594,37.5781907793134,biblio51@bibliosvao.ru,Государственное бюджетное учреждение культуры города Москвы «Объединение культурных центров Северо-Восточного административного округа»,+7 (495) 610-09-11,bibliosvao.ru,Бутырский,СВАО
Библиотека №198 им. Б. Л. Пастернака,"Российская Федерация, город Москва, внутригородская территория муниципальный округ Можайский, Беловежская улица, дом 53, корпус 2",58,55.70949,37.396619,198@bibliozao.ru,Государственное бюджетное учреждение культуры города Москвы «Объединение культурных центров Западного административного округа»,+7 (495) 446-47-55,bibliozao.ru,Можайский,ЗАО
Библиотека №56,"Российская Федерация, город Москва, внутригородская территория муниципальный округ Отрадное, Алтуфьевское шоссе, дом 34А",58,55.873885468089,37.60633186898,biblio56@bibliosvao.ru,Государственное бюджетное учреждение культуры города Москвы «Объединение культурных центров Северо-Восточного административного округа»,+7 (499) 903-12-28,bibliosvao.ru,Отрадное,СВАО
Библиотека №61,"Российская Федерация, город Москва, внутригородская территория муниципальный округ Бабушкинский, улица Коминтерна, дом 6",58,55.8615656242572,37.6760510914028,biblio61@bibliosvao.ru,Государственное бюджетное учреждение культуры города Москвы «Объединение культурных центров Северо-Восточного административного округа»,+7 (495) 470-81-47,bibliosvao.ru,Бабушкинский,СВАО
Библиотека № 54,"Российская Федерация, город Москва, внутригородская территория муниципальный округ Северное Медведково, Широкая улица, дом 11",53,55.888209164742,37.6607223507017,biblio54@bibliosvao.ru,Государственное бюджетное учреждение культуры города Москвы «Объединение культурных центров Северо-Восточного административного округа»,+7 (499) 479-44-27,bibliosvao.ru,Северное Медведково,СВАО
Библиотека № 147 им. С.С. Орлова,"Российская Федерация, город Москва, внутригородская территория муниципальный округ Орехово-Борисово Южное, Домодедовская улица, дом 44",53,55.6011290654841,37.7148373005912,147libzav@cbsuao.ru,Государственное бюджетное учреждение культуры города Москвы «Объединение культурных центров Южного административного округа»,+7 (495) 682-42-22,bibliouao.ru,Орехово-Борисово Южное,ЮАО
Центральная детская библиотека №14,"Российская Федерация, город Москва, внутригородская территория муниципальный округ Замоскворечье, Дубининская улица, дом 20, строение 1",0,55.7261513792369,37.6365647376258,aidakina_dh@okccao.ru,Государственное бюджетное учреждение культуры города Москвы «Объединение культурных центров Центрального административного округа»,+7 (499) 235-41-69,okccao.ru,Замоскворечье,ЦАО
Библиотека №267 имени Н.К. Крупской,"Российская Федерация, город Москва, внутригородская территория муниципальный округ Замоскворечье, улица Бахрушина, дом 4, строение 1",55,55.736497,37.634017,romadina_oy@okccao.ru,Государственное бюджетное учреждение культуры города Москвы «Объединение культурных центров Центрального административного округа»,+7 (495) 680-07-50,okccao.ru,Замоскворечье,ЦАО
Библиотека №222,"город Москва, улица Богданова, дом 44",58,55.651248514282,37.396457340067,222-1@bibliozao.ru,Государственное бюджетное учреждение культуры города Москвы «Объединение культурных центров Западного административного округа»,+7 (495) 435-64-50,bibliozao.ru,Солнцево,ЗАО
Центральная библиотека имени А. С. Пушкина,"Российская Федерация, город Москва, внутригородская территория муниципальный округ Басманный, Спартаковская улица, дом 9, строение 1",70,55.771766,37.672061,info@pushkinmoslib.ru,Государственное бюджетное учреждение культуры города Москвы «Библиотека - читальня имени А.С. Пушкина»,+7 (499) 267-49-96,pushkinmoslib.ru,Басманный,ЦАО
Центральная библиотека №197 имени А. А. Ахматовой,"Российская Федерация, город Москва, внутригородская территория муниципальный округ Крылатское, улица Крылатские Холмы, дом 32, корпус 1",70,55.7649546949377,37.4105366226286,197-2@bibliozao.ru,Государственное бюджетное учреждение культуры города Москвы «Объединение культурных центров Западного административного округа»,+7 (495) 412-61-35,bibliozao.ru,Крылатское,ЗАО
Дом Лосева,"Российская Федерация, город Москва, внутригородская территория муниципальный округ Арбат, улица Арбат, дом 33",70,55.749545042058,37.592391887576,info@domloseva.ru,Государственное бюджетное учреждение культуры города Москвы «Дом А.Ф. Лосева - научная библиотека и мемориальный музей»,+7 (499) 252-86-59,domloseva.ru,Арбат,ЦАО
